{
"type": "FeatureCollection",
"name": "aligned_grid_120",
"crs": { "type": "name", "properties": { "name": "urn:ogc:def:crs:EPSG::6931" } },
"features": [
{ "type": "Feature", "properties": { "id": 431, "left": -1472000.0, "top": 816000.0, "right": -1216000.0, "bottom": 560000.0, "row_index": 14, "col_index": 13 }, "geometry": { "type": "Polygon", "coordinates": [ [ [ -1472000.0, 816000.0 ], [ -1216000.0, 816000.0 ], [ -1216000.0, 560000.0 ], [ -1472000.0, 560000.0 ], [ -1472000.0, 816000.0 ] ] ] } },
{ "type": "Feature", "properties": { "id": 432, "left": -1472000.0, "top": 560000.0, "right": -1216000.0, "bottom": 304000.0, "row_index": 15, "col_index": 13 }, "geometry": { "type": "Polygon", "coordinates": [ [ [ -1472000.0, 560000.0 ], [ -1216000.0, 560000.0 ], [ -1216000.0, 304000.0 ], [ -1472000.0, 304000.0 ], [ -1472000.0, 560000.0 ] ] ] } },
{ "type": "Feature", "properties": { "id": 301, "left": -2496000.0, "top": 1328000.0, "right": -2240000.0, "bottom": 1072000.0, "row_index": 12, "col_index": 9 }, "geometry": { "type": "Polygon", "coordinates": [ [ [ -2496000.0, 1328000.0 ], [ -2240000.0, 1328000.0 ], [ -2240000.0, 1072000.0 ], [ -2496000.0, 1072000.0 ], [ -2496000.0, 1328000.0 ] ] ] } },
{ "type": "Feature", "properties": { "id": 433, "left": -1472000.0, "top": 304000.0, "right": -1216000.0, "bottom": 48000.0, "row_index": 16, "col_index": 13 }, "geometry": { "type": "Polygon", "coordinates": [ [ [ -1472000.0, 304000.0 ], [ -1216000.0, 304000.0 ], [ -1216000.0, 48000.0 ], [ -1472000.0, 48000.0 ], [ -1472000.0, 304000.0 ] ] ] } },
{ "type": "Feature", "properties": { "id": 302, "left": -2496000.0, "top": 1072000.0, "right": -2240000.0, "bottom": 816000.0, "row_index": 13, "col_index": 9 }, "geometry": { "type": "Polygon", "coordinates": [ [ [ -2496000.0, 1072000.0 ], [ -2240000.0, 1072000.0 ], [ -2240000.0, 816000.0 ], [ -2496000.0, 816000.0 ], [ -2496000.0, 1072000.0 ] ] ] } },
{ "type": "Feature", "properties": { "id": 434, "left": -1472000.0, "top": 48000.0, "right": -1216000.0, "bottom": -208000.0, "row_index": 17, "col_index": 13 }, "geometry": { "type": "Polygon", "coordinates": [ [ [ -1472000.0, 48000.0 ], [ -1216000.0, 48000.0 ], [ -1216000.0, -208000.0 ], [ -1472000.0, -208000.0 ], [ -1472000.0, 48000.0 ] ] ] } },
{ "type": "Feature", "properties": { "id": 303, "left": -2496000.0, "top": 816000.0, "right": -2240000.0, "bottom": 560000.0, "row_index": 14, "col_index": 9 }, "geometry": { "type": "Polygon", "coordinates": [ [ [ -2496000.0, 816000.0 ], [ -2240000.0, 816000.0 ], [ -2240000.0, 560000.0 ], [ -2496000.0, 560000.0 ], [ -2496000.0, 816000.0 ] ] ] } },
{ "type": "Feature", "properties": { "id": 435, "left": -1472000.0, "top": -208000.0, "right": -1216000.0, "bottom": -464000.0, "row_index": 18, "col_index": 13 }, "geometry": { "type": "Polygon", "coordinates": [ [ [ -1472000.0, -208000.0 ], [ -1216000.0, -208000.0 ], [ -1216000.0, -464000.0 ], [ -1472000.0, -464000.0 ], [ -1472000.0, -208000.0 ] ] ] } },
{ "type": "Feature", "properties": { "id": 304, "left": -2496000.0, "top": 560000.0, "right": -2240000.0, "bottom": 304000.0, "row_index": 15, "col_index": 9 }, "geometry": { "type": "Polygon", "coordinates": [ [ [ -2496000.0, 560000.0 ], [ -2240000.0, 560000.0 ], [ -2240000.0, 304000.0 ], [ -2496000.0, 304000.0 ], [ -2496000.0, 560000.0 ] ] ] } },
{ "type": "Feature", "properties": { "id": 713, "left": 832000.0, "top": 2352000.0, "right": 1088000.0, "bottom": 2096000.0, "row_index": 8, "col_index": 22 }, "geometry": { "type": "Polygon", "coordinates": [ [ [ 832000.0, 2352000.0 ], [ 1088000.0, 2352000.0 ], [ 1088000.0, 2096000.0 ], [ 832000.0, 2096000.0 ], [ 832000.0, 2352000.0 ] ] ] } },
{ "type": "Feature", "properties": { "id": 583, "left": -192000.0, "top": 2864000.0, "right": 64000.0, "bottom": 2608000.0, "row_index": 6, "col_index": 18 }, "geometry": { "type": "Polygon", "coordinates": [ [ [ -192000.0, 2864000.0 ], [ 64000.0, 2864000.0 ], [ 64000.0, 2608000.0 ], [ -192000.0, 2608000.0 ], [ -192000.0, 2864000.0 ] ] ] } },
{ "type": "Feature", "properties": { "id": 714, "left": 832000.0, "top": 2096000.0, "right": 1088000.0, "bottom": 1840000.0, "row_index": 9, "col_index": 22 }, "geometry": { "type": "Polygon", "coordinates": [ [ [ 832000.0, 2096000.0 ], [ 1088000.0, 2096000.0 ], [ 1088000.0, 1840000.0 ], [ 832000.0, 1840000.0 ], [ 832000.0, 2096000.0 ] ] ] } },
{ "type": "Feature", "properties": { "id": 584, "left": -192000.0, "top": 2608000.0, "right": 64000.0, "bottom": 2352000.0, "row_index": 7, "col_index": 18 }, "geometry": { "type": "Polygon", "coordinates": [ [ [ -192000.0, 2608000.0 ], [ 64000.0, 2608000.0 ], [ 64000.0, 2352000.0 ], [ -192000.0, 2352000.0 ], [ -192000.0, 2608000.0 ] ] ] } },
{ "type": "Feature", "properties": { "id": 715, "left": 832000.0, "top": 1840000.0, "right": 1088000.0, "bottom": 1584000.0, "row_index": 10, "col_index": 22 }, "geometry": { "type": "Polygon", "coordinates": [ [ [ 832000.0, 1840000.0 ], [ 1088000.0, 1840000.0 ], [ 1088000.0, 1584000.0 ], [ 832000.0, 1584000.0 ], [ 832000.0, 1840000.0 ] ] ] } },
{ "type": "Feature", "properties": { "id": 585, "left": -192000.0, "top": 2352000.0, "right": 64000.0, "bottom": 2096000.0, "row_index": 8, "col_index": 18 }, "geometry": { "type": "Polygon", "coordinates": [ [ [ -192000.0, 2352000.0 ], [ 64000.0, 2352000.0 ], [ 64000.0, 2096000.0 ], [ -192000.0, 2096000.0 ], [ -192000.0, 2352000.0 ] ] ] } },
{ "type": "Feature", "properties": { "id": 716, "left": 832000.0, "top": 1584000.0, "right": 1088000.0, "bottom": 1328000.0, "row_index": 11, "col_index": 22 }, "geometry": { "type": "Polygon", "coordinates": [ [ [ 832000.0, 1584000.0 ], [ 1088000.0, 1584000.0 ], [ 1088000.0, 1328000.0 ], [ 832000.0, 1328000.0 ], [ 832000.0, 1584000.0 ] ] ] } },
{ "type": "Feature", "properties": { "id": 586, "left": -192000.0, "top": 2096000.0, "right": 64000.0, "bottom": 1840000.0, "row_index": 9, "col_index": 18 }, "geometry": { "type": "Polygon", "coordinates": [ [ [ -192000.0, 2096000.0 ], [ 64000.0, 2096000.0 ], [ 64000.0, 1840000.0 ], [ -192000.0, 1840000.0 ], [ -192000.0, 2096000.0 ] ] ] } },
{ "type": "Feature", "properties": { "id": 717, "left": 832000.0, "top": 1328000.0, "right": 1088000.0, "bottom": 1072000.0, "row_index": 12, "col_index": 22 }, "geometry": { "type": "Polygon", "coordinates": [ [ [ 832000.0, 1328000.0 ], [ 1088000.0, 1328000.0 ], [ 1088000.0, 1072000.0 ], [ 832000.0, 1072000.0 ], [ 832000.0, 1328000.0 ] ] ] } },
{ "type": "Feature", "properties": { "id": 846, "left": 1856000.0, "top": 1072000.0, "right": 2112000.0, "bottom": 816000.0, "row_index": 13, "col_index": 26 }, "geometry": { "type": "Polygon", "coordinates": [ [ [ 1856000.0, 1072000.0 ], [ 2112000.0, 1072000.0 ], [ 2112000.0, 816000.0 ], [ 1856000.0, 816000.0 ], [ 1856000.0, 1072000.0 ] ] ] } },
{ "type": "Feature", "properties": { "id": 847, "left": 1856000.0, "top": 816000.0, "right": 2112000.0, "bottom": 560000.0, "row_index": 14, "col_index": 26 }, "geometry": { "type": "Polygon", "coordinates": [ [ [ 1856000.0, 816000.0 ], [ 2112000.0, 816000.0 ], [ 2112000.0, 560000.0 ], [ 1856000.0, 560000.0 ], [ 1856000.0, 816000.0 ] ] ] } },
{ "type": "Feature", "properties": { "id": 848, "left": 1856000.0, "top": 560000.0, "right": 2112000.0, "bottom": 304000.0, "row_index": 15, "col_index": 26 }, "geometry": { "type": "Polygon", "coordinates": [ [ [ 1856000.0, 560000.0 ], [ 2112000.0, 560000.0 ], [ 2112000.0, 304000.0 ], [ 1856000.0, 304000.0 ], [ 1856000.0, 560000.0 ] ] ] } },
{ "type": "Feature", "properties": { "id": 456, "left": -1216000.0, "top": 2608000.0, "right": -960000.0, "bottom": 2352000.0, "row_index": 7, "col_index": 14 }, "geometry": { "type": "Polygon", "coordinates": [ [ [ -1216000.0, 2608000.0 ], [ -960000.0, 2608000.0 ], [ -960000.0, 2352000.0 ], [ -1216000.0, 2352000.0 ], [ -1216000.0, 2608000.0 ] ] ] } },
{ "type": "Feature", "properties": { "id": 849, "left": 1856000.0, "top": 304000.0, "right": 2112000.0, "bottom": 48000.0, "row_index": 16, "col_index": 26 }, "geometry": { "type": "Polygon", "coordinates": [ [ [ 1856000.0, 304000.0 ], [ 2112000.0, 304000.0 ], [ 2112000.0, 48000.0 ], [ 1856000.0, 48000.0 ], [ 1856000.0, 304000.0 ] ] ] } },
{ "type": "Feature", "properties": { "id": 457, "left": -1216000.0, "top": 2352000.0, "right": -960000.0, "bottom": 2096000.0, "row_index": 8, "col_index": 14 }, "geometry": { "type": "Polygon", "coordinates": [ [ [ -1216000.0, 2352000.0 ], [ -960000.0, 2352000.0 ], [ -960000.0, 2096000.0 ], [ -1216000.0, 2096000.0 ], [ -1216000.0, 2352000.0 ] ] ] } },
{ "type": "Feature", "properties": { "id": 850, "left": 1856000.0, "top": 48000.0, "right": 2112000.0, "bottom": -208000.0, "row_index": 17, "col_index": 26 }, "geometry": { "type": "Polygon", "coordinates": [ [ [ 1856000.0, 48000.0 ], [ 2112000.0, 48000.0 ], [ 2112000.0, -208000.0 ], [ 1856000.0, -208000.0 ], [ 1856000.0, 48000.0 ] ] ] } },
{ "type": "Feature", "properties": { "id": 458, "left": -1216000.0, "top": 2096000.0, "right": -960000.0, "bottom": 1840000.0, "row_index": 9, "col_index": 14 }, "geometry": { "type": "Polygon", "coordinates": [ [ [ -1216000.0, 2096000.0 ], [ -960000.0, 2096000.0 ], [ -960000.0, 1840000.0 ], [ -1216000.0, 1840000.0 ], [ -1216000.0, 2096000.0 ] ] ] } },
{ "type": "Feature", "properties": { "id": 851, "left": 1856000.0, "top": -208000.0, "right": 2112000.0, "bottom": -464000.0, "row_index": 18, "col_index": 26 }, "geometry": { "type": "Polygon", "coordinates": [ [ [ 1856000.0, -208000.0 ], [ 2112000.0, -208000.0 ], [ 2112000.0, -464000.0 ], [ 1856000.0, -464000.0 ], [ 1856000.0, -208000.0 ] ] ] } },
{ "type": "Feature", "properties": { "id": 459, "left": -1216000.0, "top": 1840000.0, "right": -960000.0, "bottom": 1584000.0, "row_index": 10, "col_index": 14 }, "geometry": { "type": "Polygon", "coordinates": [ [ [ -1216000.0, 1840000.0 ], [ -960000.0, 1840000.0 ], [ -960000.0, 1584000.0 ], [ -1216000.0, 1584000.0 ], [ -1216000.0, 1840000.0 ] ] ] } },
{ "type": "Feature", "properties": { "id": 852, "left": 1856000.0, "top": -464000.0, "right": 2112000.0, "bottom": -720000.0, "row_index": 19, "col_index": 26 }, "geometry": { "type": "Polygon", "coordinates": [ [ [ 1856000.0, -464000.0 ], [ 2112000.0, -464000.0 ], [ 2112000.0, -720000.0 ], [ 1856000.0, -720000.0 ], [ 1856000.0, -464000.0 ] ] ] } },
{ "type": "Feature", "properties": { "id": 853, "left": 1856000.0, "top": -720000.0, "right": 2112000.0, "bottom": -976000.0, "row_index": 20, "col_index": 26 }, "geometry": { "type": "Polygon", "coordinates": [ [ [ 1856000.0, -720000.0 ], [ 2112000.0, -720000.0 ], [ 2112000.0, -976000.0 ], [ 1856000.0, -976000.0 ], [ 1856000.0, -720000.0 ] ] ] } },
{ "type": "Feature", "properties": { "id": 854, "left": 1856000.0, "top": -976000.0, "right": 2112000.0, "bottom": -1232000.0, "row_index": 21, "col_index": 26 }, "geometry": { "type": "Polygon", "coordinates": [ [ [ 1856000.0, -976000.0 ], [ 2112000.0, -976000.0 ], [ 2112000.0, -1232000.0 ], [ 1856000.0, -1232000.0 ], [ 1856000.0, -976000.0 ] ] ] } },
{ "type": "Feature", "properties": { "id": 855, "left": 1856000.0, "top": -1232000.0, "right": 2112000.0, "bottom": -1488000.0, "row_index": 22, "col_index": 26 }, "geometry": { "type": "Polygon", "coordinates": [ [ [ 1856000.0, -1232000.0 ], [ 2112000.0, -1232000.0 ], [ 2112000.0, -1488000.0 ], [ 1856000.0, -1488000.0 ], [ 1856000.0, -1232000.0 ] ] ] } },
{ "type": "Feature", "properties": { "id": 463, "left": -1216000.0, "top": 816000.0, "right": -960000.0, "bottom": 560000.0, "row_index": 14, "col_index": 14 }, "geometry": { "type": "Polygon", "coordinates": [ [ [ -1216000.0, 816000.0 ], [ -960000.0, 816000.0 ], [ -960000.0, 560000.0 ], [ -1216000.0, 560000.0 ], [ -1216000.0, 816000.0 ] ] ] } },
{ "type": "Feature", "properties": { "id": 332, "left": -2240000.0, "top": 1584000.0, "right": -1984000.0, "bottom": 1328000.0, "row_index": 11, "col_index": 10 }, "geometry": { "type": "Polygon", "coordinates": [ [ [ -2240000.0, 1584000.0 ], [ -1984000.0, 1584000.0 ], [ -1984000.0, 1328000.0 ], [ -2240000.0, 1328000.0 ], [ -2240000.0, 1584000.0 ] ] ] } },
{ "type": "Feature", "properties": { "id": 856, "left": 1856000.0, "top": -1488000.0, "right": 2112000.0, "bottom": -1744000.0, "row_index": 23, "col_index": 26 }, "geometry": { "type": "Polygon", "coordinates": [ [ [ 1856000.0, -1488000.0 ], [ 2112000.0, -1488000.0 ], [ 2112000.0, -1744000.0 ], [ 1856000.0, -1744000.0 ], [ 1856000.0, -1488000.0 ] ] ] } },
{ "type": "Feature", "properties": { "id": 464, "left": -1216000.0, "top": 560000.0, "right": -960000.0, "bottom": 304000.0, "row_index": 15, "col_index": 14 }, "geometry": { "type": "Polygon", "coordinates": [ [ [ -1216000.0, 560000.0 ], [ -960000.0, 560000.0 ], [ -960000.0, 304000.0 ], [ -1216000.0, 304000.0 ], [ -1216000.0, 560000.0 ] ] ] } },
{ "type": "Feature", "properties": { "id": 333, "left": -2240000.0, "top": 1328000.0, "right": -1984000.0, "bottom": 1072000.0, "row_index": 12, "col_index": 10 }, "geometry": { "type": "Polygon", "coordinates": [ [ [ -2240000.0, 1328000.0 ], [ -1984000.0, 1328000.0 ], [ -1984000.0, 1072000.0 ], [ -2240000.0, 1072000.0 ], [ -2240000.0, 1328000.0 ] ] ] } },
{ "type": "Feature", "properties": { "id": 465, "left": -1216000.0, "top": 304000.0, "right": -960000.0, "bottom": 48000.0, "row_index": 16, "col_index": 14 }, "geometry": { "type": "Polygon", "coordinates": [ [ [ -1216000.0, 304000.0 ], [ -960000.0, 304000.0 ], [ -960000.0, 48000.0 ], [ -1216000.0, 48000.0 ], [ -1216000.0, 304000.0 ] ] ] } },
{ "type": "Feature", "properties": { "id": 334, "left": -2240000.0, "top": 1072000.0, "right": -1984000.0, "bottom": 816000.0, "row_index": 13, "col_index": 10 }, "geometry": { "type": "Polygon", "coordinates": [ [ [ -2240000.0, 1072000.0 ], [ -1984000.0, 1072000.0 ], [ -1984000.0, 816000.0 ], [ -2240000.0, 816000.0 ], [ -2240000.0, 1072000.0 ] ] ] } },
{ "type": "Feature", "properties": { "id": 466, "left": -1216000.0, "top": 48000.0, "right": -960000.0, "bottom": -208000.0, "row_index": 17, "col_index": 14 }, "geometry": { "type": "Polygon", "coordinates": [ [ [ -1216000.0, 48000.0 ], [ -960000.0, 48000.0 ], [ -960000.0, -208000.0 ], [ -1216000.0, -208000.0 ], [ -1216000.0, 48000.0 ] ] ] } },
{ "type": "Feature", "properties": { "id": 335, "left": -2240000.0, "top": 816000.0, "right": -1984000.0, "bottom": 560000.0, "row_index": 14, "col_index": 10 }, "geometry": { "type": "Polygon", "coordinates": [ [ [ -2240000.0, 816000.0 ], [ -1984000.0, 816000.0 ], [ -1984000.0, 560000.0 ], [ -2240000.0, 560000.0 ], [ -2240000.0, 816000.0 ] ] ] } },
{ "type": "Feature", "properties": { "id": 467, "left": -1216000.0, "top": -208000.0, "right": -960000.0, "bottom": -464000.0, "row_index": 18, "col_index": 14 }, "geometry": { "type": "Polygon", "coordinates": [ [ [ -1216000.0, -208000.0 ], [ -960000.0, -208000.0 ], [ -960000.0, -464000.0 ], [ -1216000.0, -464000.0 ], [ -1216000.0, -208000.0 ] ] ] } },
{ "type": "Feature", "properties": { "id": 336, "left": -2240000.0, "top": 560000.0, "right": -1984000.0, "bottom": 304000.0, "row_index": 15, "col_index": 10 }, "geometry": { "type": "Polygon", "coordinates": [ [ [ -2240000.0, 560000.0 ], [ -1984000.0, 560000.0 ], [ -1984000.0, 304000.0 ], [ -2240000.0, 304000.0 ], [ -2240000.0, 560000.0 ] ] ] } },
{ "type": "Feature", "properties": { "id": 337, "left": -2240000.0, "top": 304000.0, "right": -1984000.0, "bottom": 48000.0, "row_index": 16, "col_index": 10 }, "geometry": { "type": "Polygon", "coordinates": [ [ [ -2240000.0, 304000.0 ], [ -1984000.0, 304000.0 ], [ -1984000.0, 48000.0 ], [ -2240000.0, 48000.0 ], [ -2240000.0, 304000.0 ] ] ] } },
{ "type": "Feature", "properties": { "id": 615, "left": 64000.0, "top": 2864000.0, "right": 320000.0, "bottom": 2608000.0, "row_index": 6, "col_index": 19 }, "geometry": { "type": "Polygon", "coordinates": [ [ [ 64000.0, 2864000.0 ], [ 320000.0, 2864000.0 ], [ 320000.0, 2608000.0 ], [ 64000.0, 2608000.0 ], [ 64000.0, 2864000.0 ] ] ] } },
{ "type": "Feature", "properties": { "id": 746, "left": 1088000.0, "top": 2096000.0, "right": 1344000.0, "bottom": 1840000.0, "row_index": 9, "col_index": 23 }, "geometry": { "type": "Polygon", "coordinates": [ [ [ 1088000.0, 2096000.0 ], [ 1344000.0, 2096000.0 ], [ 1344000.0, 1840000.0 ], [ 1088000.0, 1840000.0 ], [ 1088000.0, 2096000.0 ] ] ] } },
{ "type": "Feature", "properties": { "id": 616, "left": 64000.0, "top": 2608000.0, "right": 320000.0, "bottom": 2352000.0, "row_index": 7, "col_index": 19 }, "geometry": { "type": "Polygon", "coordinates": [ [ [ 64000.0, 2608000.0 ], [ 320000.0, 2608000.0 ], [ 320000.0, 2352000.0 ], [ 64000.0, 2352000.0 ], [ 64000.0, 2608000.0 ] ] ] } },
{ "type": "Feature", "properties": { "id": 747, "left": 1088000.0, "top": 1840000.0, "right": 1344000.0, "bottom": 1584000.0, "row_index": 10, "col_index": 23 }, "geometry": { "type": "Polygon", "coordinates": [ [ [ 1088000.0, 1840000.0 ], [ 1344000.0, 1840000.0 ], [ 1344000.0, 1584000.0 ], [ 1088000.0, 1584000.0 ], [ 1088000.0, 1840000.0 ] ] ] } },
{ "type": "Feature", "properties": { "id": 617, "left": 64000.0, "top": 2352000.0, "right": 320000.0, "bottom": 2096000.0, "row_index": 8, "col_index": 19 }, "geometry": { "type": "Polygon", "coordinates": [ [ [ 64000.0, 2352000.0 ], [ 320000.0, 2352000.0 ], [ 320000.0, 2096000.0 ], [ 64000.0, 2096000.0 ], [ 64000.0, 2352000.0 ] ] ] } },
{ "type": "Feature", "properties": { "id": 748, "left": 1088000.0, "top": 1584000.0, "right": 1344000.0, "bottom": 1328000.0, "row_index": 11, "col_index": 23 }, "geometry": { "type": "Polygon", "coordinates": [ [ [ 1088000.0, 1584000.0 ], [ 1344000.0, 1584000.0 ], [ 1344000.0, 1328000.0 ], [ 1088000.0, 1328000.0 ], [ 1088000.0, 1584000.0 ] ] ] } },
{ "type": "Feature", "properties": { "id": 749, "left": 1088000.0, "top": 1328000.0, "right": 1344000.0, "bottom": 1072000.0, "row_index": 12, "col_index": 23 }, "geometry": { "type": "Polygon", "coordinates": [ [ [ 1088000.0, 1328000.0 ], [ 1344000.0, 1328000.0 ], [ 1344000.0, 1072000.0 ], [ 1088000.0, 1072000.0 ], [ 1088000.0, 1328000.0 ] ] ] } },
{ "type": "Feature", "properties": { "id": 752, "left": 1088000.0, "top": 560000.0, "right": 1344000.0, "bottom": 304000.0, "row_index": 15, "col_index": 23 }, "geometry": { "type": "Polygon", "coordinates": [ [ [ 1088000.0, 560000.0 ], [ 1344000.0, 560000.0 ], [ 1344000.0, 304000.0 ], [ 1088000.0, 304000.0 ], [ 1088000.0, 560000.0 ] ] ] } },
{ "type": "Feature", "properties": { "id": 753, "left": 1088000.0, "top": 304000.0, "right": 1344000.0, "bottom": 48000.0, "row_index": 16, "col_index": 23 }, "geometry": { "type": "Polygon", "coordinates": [ [ [ 1088000.0, 304000.0 ], [ 1344000.0, 304000.0 ], [ 1344000.0, 48000.0 ], [ 1088000.0, 48000.0 ], [ 1088000.0, 304000.0 ] ] ] } },
{ "type": "Feature", "properties": { "id": 756, "left": 1088000.0, "top": -464000.0, "right": 1344000.0, "bottom": -720000.0, "row_index": 19, "col_index": 23 }, "geometry": { "type": "Polygon", "coordinates": [ [ [ 1088000.0, -464000.0 ], [ 1344000.0, -464000.0 ], [ 1344000.0, -720000.0 ], [ 1088000.0, -720000.0 ], [ 1088000.0, -464000.0 ] ] ] } },
{ "type": "Feature", "properties": { "id": 757, "left": 1088000.0, "top": -720000.0, "right": 1344000.0, "bottom": -976000.0, "row_index": 20, "col_index": 23 }, "geometry": { "type": "Polygon", "coordinates": [ [ [ 1088000.0, -720000.0 ], [ 1344000.0, -720000.0 ], [ 1344000.0, -976000.0 ], [ 1088000.0, -976000.0 ], [ 1088000.0, -720000.0 ] ] ] } },
{ "type": "Feature", "properties": { "id": 488, "left": -960000.0, "top": 2608000.0, "right": -704000.0, "bottom": 2352000.0, "row_index": 7, "col_index": 15 }, "geometry": { "type": "Polygon", "coordinates": [ [ [ -960000.0, 2608000.0 ], [ -704000.0, 2608000.0 ], [ -704000.0, 2352000.0 ], [ -960000.0, 2352000.0 ], [ -960000.0, 2608000.0 ] ] ] } },
{ "type": "Feature", "properties": { "id": 881, "left": 2112000.0, "top": 304000.0, "right": 2368000.0, "bottom": 48000.0, "row_index": 16, "col_index": 27 }, "geometry": { "type": "Polygon", "coordinates": [ [ [ 2112000.0, 304000.0 ], [ 2368000.0, 304000.0 ], [ 2368000.0, 48000.0 ], [ 2112000.0, 48000.0 ], [ 2112000.0, 304000.0 ] ] ] } },
{ "type": "Feature", "properties": { "id": 489, "left": -960000.0, "top": 2352000.0, "right": -704000.0, "bottom": 2096000.0, "row_index": 8, "col_index": 15 }, "geometry": { "type": "Polygon", "coordinates": [ [ [ -960000.0, 2352000.0 ], [ -704000.0, 2352000.0 ], [ -704000.0, 2096000.0 ], [ -960000.0, 2096000.0 ], [ -960000.0, 2352000.0 ] ] ] } },
{ "type": "Feature", "properties": { "id": 882, "left": 2112000.0, "top": 48000.0, "right": 2368000.0, "bottom": -208000.0, "row_index": 17, "col_index": 27 }, "geometry": { "type": "Polygon", "coordinates": [ [ [ 2112000.0, 48000.0 ], [ 2368000.0, 48000.0 ], [ 2368000.0, -208000.0 ], [ 2112000.0, -208000.0 ], [ 2112000.0, 48000.0 ] ] ] } },
{ "type": "Feature", "properties": { "id": 490, "left": -960000.0, "top": 2096000.0, "right": -704000.0, "bottom": 1840000.0, "row_index": 9, "col_index": 15 }, "geometry": { "type": "Polygon", "coordinates": [ [ [ -960000.0, 2096000.0 ], [ -704000.0, 2096000.0 ], [ -704000.0, 1840000.0 ], [ -960000.0, 1840000.0 ], [ -960000.0, 2096000.0 ] ] ] } },
{ "type": "Feature", "properties": { "id": 883, "left": 2112000.0, "top": -208000.0, "right": 2368000.0, "bottom": -464000.0, "row_index": 18, "col_index": 27 }, "geometry": { "type": "Polygon", "coordinates": [ [ [ 2112000.0, -208000.0 ], [ 2368000.0, -208000.0 ], [ 2368000.0, -464000.0 ], [ 2112000.0, -464000.0 ], [ 2112000.0, -208000.0 ] ] ] } },
{ "type": "Feature", "properties": { "id": 884, "left": 2112000.0, "top": -464000.0, "right": 2368000.0, "bottom": -720000.0, "row_index": 19, "col_index": 27 }, "geometry": { "type": "Polygon", "coordinates": [ [ [ 2112000.0, -464000.0 ], [ 2368000.0, -464000.0 ], [ 2368000.0, -720000.0 ], [ 2112000.0, -720000.0 ], [ 2112000.0, -464000.0 ] ] ] } },
{ "type": "Feature", "properties": { "id": 885, "left": 2112000.0, "top": -720000.0, "right": 2368000.0, "bottom": -976000.0, "row_index": 20, "col_index": 27 }, "geometry": { "type": "Polygon", "coordinates": [ [ [ 2112000.0, -720000.0 ], [ 2368000.0, -720000.0 ], [ 2368000.0, -976000.0 ], [ 2112000.0, -976000.0 ], [ 2112000.0, -720000.0 ] ] ] } },
{ "type": "Feature", "properties": { "id": 886, "left": 2112000.0, "top": -976000.0, "right": 2368000.0, "bottom": -1232000.0, "row_index": 21, "col_index": 27 }, "geometry": { "type": "Polygon", "coordinates": [ [ [ 2112000.0, -976000.0 ], [ 2368000.0, -976000.0 ], [ 2368000.0, -1232000.0 ], [ 2112000.0, -1232000.0 ], [ 2112000.0, -976000.0 ] ] ] } },
{ "type": "Feature", "properties": { "id": 363, "left": -1984000.0, "top": 1840000.0, "right": -1728000.0, "bottom": 1584000.0, "row_index": 10, "col_index": 11 }, "geometry": { "type": "Polygon", "coordinates": [ [ [ -1984000.0, 1840000.0 ], [ -1728000.0, 1840000.0 ], [ -1728000.0, 1584000.0 ], [ -1984000.0, 1584000.0 ], [ -1984000.0, 1840000.0 ] ] ] } },
{ "type": "Feature", "properties": { "id": 887, "left": 2112000.0, "top": -1232000.0, "right": 2368000.0, "bottom": -1488000.0, "row_index": 22, "col_index": 27 }, "geometry": { "type": "Polygon", "coordinates": [ [ [ 2112000.0, -1232000.0 ], [ 2368000.0, -1232000.0 ], [ 2368000.0, -1488000.0 ], [ 2112000.0, -1488000.0 ], [ 2112000.0, -1232000.0 ] ] ] } },
{ "type": "Feature", "properties": { "id": 364, "left": -1984000.0, "top": 1584000.0, "right": -1728000.0, "bottom": 1328000.0, "row_index": 11, "col_index": 11 }, "geometry": { "type": "Polygon", "coordinates": [ [ [ -1984000.0, 1584000.0 ], [ -1728000.0, 1584000.0 ], [ -1728000.0, 1328000.0 ], [ -1984000.0, 1328000.0 ], [ -1984000.0, 1584000.0 ] ] ] } },
{ "type": "Feature", "properties": { "id": 365, "left": -1984000.0, "top": 1328000.0, "right": -1728000.0, "bottom": 1072000.0, "row_index": 12, "col_index": 11 }, "geometry": { "type": "Polygon", "coordinates": [ [ [ -1984000.0, 1328000.0 ], [ -1728000.0, 1328000.0 ], [ -1728000.0, 1072000.0 ], [ -1984000.0, 1072000.0 ], [ -1984000.0, 1328000.0 ] ] ] } },
{ "type": "Feature", "properties": { "id": 366, "left": -1984000.0, "top": 1072000.0, "right": -1728000.0, "bottom": 816000.0, "row_index": 13, "col_index": 11 }, "geometry": { "type": "Polygon", "coordinates": [ [ [ -1984000.0, 1072000.0 ], [ -1728000.0, 1072000.0 ], [ -1728000.0, 816000.0 ], [ -1984000.0, 816000.0 ], [ -1984000.0, 1072000.0 ] ] ] } },
{ "type": "Feature", "properties": { "id": 498, "left": -960000.0, "top": 48000.0, "right": -704000.0, "bottom": -208000.0, "row_index": 17, "col_index": 15 }, "geometry": { "type": "Polygon", "coordinates": [ [ [ -960000.0, 48000.0 ], [ -704000.0, 48000.0 ], [ -704000.0, -208000.0 ], [ -960000.0, -208000.0 ], [ -960000.0, 48000.0 ] ] ] } },
{ "type": "Feature", "properties": { "id": 367, "left": -1984000.0, "top": 816000.0, "right": -1728000.0, "bottom": 560000.0, "row_index": 14, "col_index": 11 }, "geometry": { "type": "Polygon", "coordinates": [ [ [ -1984000.0, 816000.0 ], [ -1728000.0, 816000.0 ], [ -1728000.0, 560000.0 ], [ -1984000.0, 560000.0 ], [ -1984000.0, 816000.0 ] ] ] } },
{ "type": "Feature", "properties": { "id": 499, "left": -960000.0, "top": -208000.0, "right": -704000.0, "bottom": -464000.0, "row_index": 18, "col_index": 15 }, "geometry": { "type": "Polygon", "coordinates": [ [ [ -960000.0, -208000.0 ], [ -704000.0, -208000.0 ], [ -704000.0, -464000.0 ], [ -960000.0, -464000.0 ], [ -960000.0, -208000.0 ] ] ] } },
{ "type": "Feature", "properties": { "id": 368, "left": -1984000.0, "top": 560000.0, "right": -1728000.0, "bottom": 304000.0, "row_index": 15, "col_index": 11 }, "geometry": { "type": "Polygon", "coordinates": [ [ [ -1984000.0, 560000.0 ], [ -1728000.0, 560000.0 ], [ -1728000.0, 304000.0 ], [ -1984000.0, 304000.0 ], [ -1984000.0, 560000.0 ] ] ] } },
{ "type": "Feature", "properties": { "id": 369, "left": -1984000.0, "top": 304000.0, "right": -1728000.0, "bottom": 48000.0, "row_index": 16, "col_index": 11 }, "geometry": { "type": "Polygon", "coordinates": [ [ [ -1984000.0, 304000.0 ], [ -1728000.0, 304000.0 ], [ -1728000.0, 48000.0 ], [ -1984000.0, 48000.0 ], [ -1984000.0, 304000.0 ] ] ] } },
{ "type": "Feature", "properties": { "id": 370, "left": -1984000.0, "top": 48000.0, "right": -1728000.0, "bottom": -208000.0, "row_index": 17, "col_index": 11 }, "geometry": { "type": "Polygon", "coordinates": [ [ [ -1984000.0, 48000.0 ], [ -1728000.0, 48000.0 ], [ -1728000.0, -208000.0 ], [ -1984000.0, -208000.0 ], [ -1984000.0, 48000.0 ] ] ] } },
{ "type": "Feature", "properties": { "id": 647, "left": 320000.0, "top": 2864000.0, "right": 576000.0, "bottom": 2608000.0, "row_index": 6, "col_index": 20 }, "geometry": { "type": "Polygon", "coordinates": [ [ [ 320000.0, 2864000.0 ], [ 576000.0, 2864000.0 ], [ 576000.0, 2608000.0 ], [ 320000.0, 2608000.0 ], [ 320000.0, 2864000.0 ] ] ] } },
{ "type": "Feature", "properties": { "id": 648, "left": 320000.0, "top": 2608000.0, "right": 576000.0, "bottom": 2352000.0, "row_index": 7, "col_index": 20 }, "geometry": { "type": "Polygon", "coordinates": [ [ [ 320000.0, 2608000.0 ], [ 576000.0, 2608000.0 ], [ 576000.0, 2352000.0 ], [ 320000.0, 2352000.0 ], [ 320000.0, 2608000.0 ] ] ] } },
{ "type": "Feature", "properties": { "id": 649, "left": 320000.0, "top": 2352000.0, "right": 576000.0, "bottom": 2096000.0, "row_index": 8, "col_index": 20 }, "geometry": { "type": "Polygon", "coordinates": [ [ [ 320000.0, 2352000.0 ], [ 576000.0, 2352000.0 ], [ 576000.0, 2096000.0 ], [ 320000.0, 2096000.0 ], [ 320000.0, 2352000.0 ] ] ] } },
{ "type": "Feature", "properties": { "id": 519, "left": -704000.0, "top": 2864000.0, "right": -448000.0, "bottom": 2608000.0, "row_index": 6, "col_index": 16 }, "geometry": { "type": "Polygon", "coordinates": [ [ [ -704000.0, 2864000.0 ], [ -448000.0, 2864000.0 ], [ -448000.0, 2608000.0 ], [ -704000.0, 2608000.0 ], [ -704000.0, 2864000.0 ] ] ] } },
{ "type": "Feature", "properties": { "id": 520, "left": -704000.0, "top": 2608000.0, "right": -448000.0, "bottom": 2352000.0, "row_index": 7, "col_index": 16 }, "geometry": { "type": "Polygon", "coordinates": [ [ [ -704000.0, 2608000.0 ], [ -448000.0, 2608000.0 ], [ -448000.0, 2352000.0 ], [ -704000.0, 2352000.0 ], [ -704000.0, 2608000.0 ] ] ] } },
{ "type": "Feature", "properties": { "id": 521, "left": -704000.0, "top": 2352000.0, "right": -448000.0, "bottom": 2096000.0, "row_index": 8, "col_index": 16 }, "geometry": { "type": "Polygon", "coordinates": [ [ [ -704000.0, 2352000.0 ], [ -448000.0, 2352000.0 ], [ -448000.0, 2096000.0 ], [ -704000.0, 2096000.0 ], [ -704000.0, 2352000.0 ] ] ] } },
{ "type": "Feature", "properties": { "id": 522, "left": -704000.0, "top": 2096000.0, "right": -448000.0, "bottom": 1840000.0, "row_index": 9, "col_index": 16 }, "geometry": { "type": "Polygon", "coordinates": [ [ [ -704000.0, 2096000.0 ], [ -448000.0, 2096000.0 ], [ -448000.0, 1840000.0 ], [ -704000.0, 1840000.0 ], [ -704000.0, 2096000.0 ] ] ] } },
{ "type": "Feature", "properties": { "id": 779, "left": 1344000.0, "top": 1840000.0, "right": 1600000.0, "bottom": 1584000.0, "row_index": 10, "col_index": 24 }, "geometry": { "type": "Polygon", "coordinates": [ [ [ 1344000.0, 1840000.0 ], [ 1600000.0, 1840000.0 ], [ 1600000.0, 1584000.0 ], [ 1344000.0, 1584000.0 ], [ 1344000.0, 1840000.0 ] ] ] } },
{ "type": "Feature", "properties": { "id": 780, "left": 1344000.0, "top": 1584000.0, "right": 1600000.0, "bottom": 1328000.0, "row_index": 11, "col_index": 24 }, "geometry": { "type": "Polygon", "coordinates": [ [ [ 1344000.0, 1584000.0 ], [ 1600000.0, 1584000.0 ], [ 1600000.0, 1328000.0 ], [ 1344000.0, 1328000.0 ], [ 1344000.0, 1584000.0 ] ] ] } },
{ "type": "Feature", "properties": { "id": 781, "left": 1344000.0, "top": 1328000.0, "right": 1600000.0, "bottom": 1072000.0, "row_index": 12, "col_index": 24 }, "geometry": { "type": "Polygon", "coordinates": [ [ [ 1344000.0, 1328000.0 ], [ 1600000.0, 1328000.0 ], [ 1600000.0, 1072000.0 ], [ 1344000.0, 1072000.0 ], [ 1344000.0, 1328000.0 ] ] ] } },
{ "type": "Feature", "properties": { "id": 782, "left": 1344000.0, "top": 1072000.0, "right": 1600000.0, "bottom": 816000.0, "row_index": 13, "col_index": 24 }, "geometry": { "type": "Polygon", "coordinates": [ [ [ 1344000.0, 1072000.0 ], [ 1600000.0, 1072000.0 ], [ 1600000.0, 816000.0 ], [ 1344000.0, 816000.0 ], [ 1344000.0, 1072000.0 ] ] ] } },
{ "type": "Feature", "properties": { "id": 783, "left": 1344000.0, "top": 816000.0, "right": 1600000.0, "bottom": 560000.0, "row_index": 14, "col_index": 24 }, "geometry": { "type": "Polygon", "coordinates": [ [ [ 1344000.0, 816000.0 ], [ 1600000.0, 816000.0 ], [ 1600000.0, 560000.0 ], [ 1344000.0, 560000.0 ], [ 1344000.0, 816000.0 ] ] ] } },
{ "type": "Feature", "properties": { "id": 914, "left": 2368000.0, "top": 48000.0, "right": 2624000.0, "bottom": -208000.0, "row_index": 17, "col_index": 28 }, "geometry": { "type": "Polygon", "coordinates": [ [ [ 2368000.0, 48000.0 ], [ 2624000.0, 48000.0 ], [ 2624000.0, -208000.0 ], [ 2368000.0, -208000.0 ], [ 2368000.0, 48000.0 ] ] ] } },
{ "type": "Feature", "properties": { "id": 784, "left": 1344000.0, "top": 560000.0, "right": 1600000.0, "bottom": 304000.0, "row_index": 15, "col_index": 24 }, "geometry": { "type": "Polygon", "coordinates": [ [ [ 1344000.0, 560000.0 ], [ 1600000.0, 560000.0 ], [ 1600000.0, 304000.0 ], [ 1344000.0, 304000.0 ], [ 1344000.0, 560000.0 ] ] ] } },
{ "type": "Feature", "properties": { "id": 915, "left": 2368000.0, "top": -208000.0, "right": 2624000.0, "bottom": -464000.0, "row_index": 18, "col_index": 28 }, "geometry": { "type": "Polygon", "coordinates": [ [ [ 2368000.0, -208000.0 ], [ 2624000.0, -208000.0 ], [ 2624000.0, -464000.0 ], [ 2368000.0, -464000.0 ], [ 2368000.0, -208000.0 ] ] ] } },
{ "type": "Feature", "properties": { "id": 785, "left": 1344000.0, "top": 304000.0, "right": 1600000.0, "bottom": 48000.0, "row_index": 16, "col_index": 24 }, "geometry": { "type": "Polygon", "coordinates": [ [ [ 1344000.0, 304000.0 ], [ 1600000.0, 304000.0 ], [ 1600000.0, 48000.0 ], [ 1344000.0, 48000.0 ], [ 1344000.0, 304000.0 ] ] ] } },
{ "type": "Feature", "properties": { "id": 916, "left": 2368000.0, "top": -464000.0, "right": 2624000.0, "bottom": -720000.0, "row_index": 19, "col_index": 28 }, "geometry": { "type": "Polygon", "coordinates": [ [ [ 2368000.0, -464000.0 ], [ 2624000.0, -464000.0 ], [ 2624000.0, -720000.0 ], [ 2368000.0, -720000.0 ], [ 2368000.0, -464000.0 ] ] ] } },
{ "type": "Feature", "properties": { "id": 786, "left": 1344000.0, "top": 48000.0, "right": 1600000.0, "bottom": -208000.0, "row_index": 17, "col_index": 24 }, "geometry": { "type": "Polygon", "coordinates": [ [ [ 1344000.0, 48000.0 ], [ 1600000.0, 48000.0 ], [ 1600000.0, -208000.0 ], [ 1344000.0, -208000.0 ], [ 1344000.0, 48000.0 ] ] ] } },
{ "type": "Feature", "properties": { "id": 917, "left": 2368000.0, "top": -720000.0, "right": 2624000.0, "bottom": -976000.0, "row_index": 20, "col_index": 28 }, "geometry": { "type": "Polygon", "coordinates": [ [ [ 2368000.0, -720000.0 ], [ 2624000.0, -720000.0 ], [ 2624000.0, -976000.0 ], [ 2368000.0, -976000.0 ], [ 2368000.0, -720000.0 ] ] ] } },
{ "type": "Feature", "properties": { "id": 918, "left": 2368000.0, "top": -976000.0, "right": 2624000.0, "bottom": -1232000.0, "row_index": 21, "col_index": 28 }, "geometry": { "type": "Polygon", "coordinates": [ [ [ 2368000.0, -976000.0 ], [ 2624000.0, -976000.0 ], [ 2624000.0, -1232000.0 ], [ 2368000.0, -1232000.0 ], [ 2368000.0, -976000.0 ] ] ] } },
{ "type": "Feature", "properties": { "id": 395, "left": -1728000.0, "top": 1840000.0, "right": -1472000.0, "bottom": 1584000.0, "row_index": 10, "col_index": 12 }, "geometry": { "type": "Polygon", "coordinates": [ [ [ -1728000.0, 1840000.0 ], [ -1472000.0, 1840000.0 ], [ -1472000.0, 1584000.0 ], [ -1728000.0, 1584000.0 ], [ -1728000.0, 1840000.0 ] ] ] } },
{ "type": "Feature", "properties": { "id": 788, "left": 1344000.0, "top": -464000.0, "right": 1600000.0, "bottom": -720000.0, "row_index": 19, "col_index": 24 }, "geometry": { "type": "Polygon", "coordinates": [ [ [ 1344000.0, -464000.0 ], [ 1600000.0, -464000.0 ], [ 1600000.0, -720000.0 ], [ 1344000.0, -720000.0 ], [ 1344000.0, -464000.0 ] ] ] } },
{ "type": "Feature", "properties": { "id": 396, "left": -1728000.0, "top": 1584000.0, "right": -1472000.0, "bottom": 1328000.0, "row_index": 11, "col_index": 12 }, "geometry": { "type": "Polygon", "coordinates": [ [ [ -1728000.0, 1584000.0 ], [ -1472000.0, 1584000.0 ], [ -1472000.0, 1328000.0 ], [ -1728000.0, 1328000.0 ], [ -1728000.0, 1584000.0 ] ] ] } },
{ "type": "Feature", "properties": { "id": 789, "left": 1344000.0, "top": -720000.0, "right": 1600000.0, "bottom": -976000.0, "row_index": 20, "col_index": 24 }, "geometry": { "type": "Polygon", "coordinates": [ [ [ 1344000.0, -720000.0 ], [ 1600000.0, -720000.0 ], [ 1600000.0, -976000.0 ], [ 1344000.0, -976000.0 ], [ 1344000.0, -720000.0 ] ] ] } },
{ "type": "Feature", "properties": { "id": 397, "left": -1728000.0, "top": 1328000.0, "right": -1472000.0, "bottom": 1072000.0, "row_index": 12, "col_index": 12 }, "geometry": { "type": "Polygon", "coordinates": [ [ [ -1728000.0, 1328000.0 ], [ -1472000.0, 1328000.0 ], [ -1472000.0, 1072000.0 ], [ -1728000.0, 1072000.0 ], [ -1728000.0, 1328000.0 ] ] ] } },
{ "type": "Feature", "properties": { "id": 790, "left": 1344000.0, "top": -976000.0, "right": 1600000.0, "bottom": -1232000.0, "row_index": 21, "col_index": 24 }, "geometry": { "type": "Polygon", "coordinates": [ [ [ 1344000.0, -976000.0 ], [ 1600000.0, -976000.0 ], [ 1600000.0, -1232000.0 ], [ 1344000.0, -1232000.0 ], [ 1344000.0, -976000.0 ] ] ] } },
{ "type": "Feature", "properties": { "id": 398, "left": -1728000.0, "top": 1072000.0, "right": -1472000.0, "bottom": 816000.0, "row_index": 13, "col_index": 12 }, "geometry": { "type": "Polygon", "coordinates": [ [ [ -1728000.0, 1072000.0 ], [ -1472000.0, 1072000.0 ], [ -1472000.0, 816000.0 ], [ -1728000.0, 816000.0 ], [ -1728000.0, 1072000.0 ] ] ] } },
{ "type": "Feature", "properties": { "id": 791, "left": 1344000.0, "top": -1232000.0, "right": 1600000.0, "bottom": -1488000.0, "row_index": 22, "col_index": 24 }, "geometry": { "type": "Polygon", "coordinates": [ [ [ 1344000.0, -1232000.0 ], [ 1600000.0, -1232000.0 ], [ 1600000.0, -1488000.0 ], [ 1344000.0, -1488000.0 ], [ 1344000.0, -1232000.0 ] ] ] } },
{ "type": "Feature", "properties": { "id": 399, "left": -1728000.0, "top": 816000.0, "right": -1472000.0, "bottom": 560000.0, "row_index": 14, "col_index": 12 }, "geometry": { "type": "Polygon", "coordinates": [ [ [ -1728000.0, 816000.0 ], [ -1472000.0, 816000.0 ], [ -1472000.0, 560000.0 ], [ -1728000.0, 560000.0 ], [ -1728000.0, 816000.0 ] ] ] } },
{ "type": "Feature", "properties": { "id": 400, "left": -1728000.0, "top": 560000.0, "right": -1472000.0, "bottom": 304000.0, "row_index": 15, "col_index": 12 }, "geometry": { "type": "Polygon", "coordinates": [ [ [ -1728000.0, 560000.0 ], [ -1472000.0, 560000.0 ], [ -1472000.0, 304000.0 ], [ -1728000.0, 304000.0 ], [ -1728000.0, 560000.0 ] ] ] } },
{ "type": "Feature", "properties": { "id": 401, "left": -1728000.0, "top": 304000.0, "right": -1472000.0, "bottom": 48000.0, "row_index": 16, "col_index": 12 }, "geometry": { "type": "Polygon", "coordinates": [ [ [ -1728000.0, 304000.0 ], [ -1472000.0, 304000.0 ], [ -1472000.0, 48000.0 ], [ -1728000.0, 48000.0 ], [ -1728000.0, 304000.0 ] ] ] } },
{ "type": "Feature", "properties": { "id": 402, "left": -1728000.0, "top": 48000.0, "right": -1472000.0, "bottom": -208000.0, "row_index": 17, "col_index": 12 }, "geometry": { "type": "Polygon", "coordinates": [ [ [ -1728000.0, 48000.0 ], [ -1472000.0, 48000.0 ], [ -1472000.0, -208000.0 ], [ -1728000.0, -208000.0 ], [ -1728000.0, 48000.0 ] ] ] } },
{ "type": "Feature", "properties": { "id": 681, "left": 576000.0, "top": 2352000.0, "right": 832000.0, "bottom": 2096000.0, "row_index": 8, "col_index": 21 }, "geometry": { "type": "Polygon", "coordinates": [ [ [ 576000.0, 2352000.0 ], [ 832000.0, 2352000.0 ], [ 832000.0, 2096000.0 ], [ 576000.0, 2096000.0 ], [ 576000.0, 2352000.0 ] ] ] } },
{ "type": "Feature", "properties": { "id": 682, "left": 576000.0, "top": 2096000.0, "right": 832000.0, "bottom": 1840000.0, "row_index": 9, "col_index": 21 }, "geometry": { "type": "Polygon", "coordinates": [ [ [ 576000.0, 2096000.0 ], [ 832000.0, 2096000.0 ], [ 832000.0, 1840000.0 ], [ 576000.0, 1840000.0 ], [ 576000.0, 2096000.0 ] ] ] } },
{ "type": "Feature", "properties": { "id": 551, "left": -448000.0, "top": 2864000.0, "right": -192000.0, "bottom": 2608000.0, "row_index": 6, "col_index": 17 }, "geometry": { "type": "Polygon", "coordinates": [ [ [ -448000.0, 2864000.0 ], [ -192000.0, 2864000.0 ], [ -192000.0, 2608000.0 ], [ -448000.0, 2608000.0 ], [ -448000.0, 2864000.0 ] ] ] } },
{ "type": "Feature", "properties": { "id": 552, "left": -448000.0, "top": 2608000.0, "right": -192000.0, "bottom": 2352000.0, "row_index": 7, "col_index": 17 }, "geometry": { "type": "Polygon", "coordinates": [ [ [ -448000.0, 2608000.0 ], [ -192000.0, 2608000.0 ], [ -192000.0, 2352000.0 ], [ -448000.0, 2352000.0 ], [ -448000.0, 2608000.0 ] ] ] } },
{ "type": "Feature", "properties": { "id": 684, "left": 576000.0, "top": 1584000.0, "right": 832000.0, "bottom": 1328000.0, "row_index": 11, "col_index": 21 }, "geometry": { "type": "Polygon", "coordinates": [ [ [ 576000.0, 1584000.0 ], [ 832000.0, 1584000.0 ], [ 832000.0, 1328000.0 ], [ 576000.0, 1328000.0 ], [ 576000.0, 1584000.0 ] ] ] } },
{ "type": "Feature", "properties": { "id": 812, "left": 1600000.0, "top": 1584000.0, "right": 1856000.0, "bottom": 1328000.0, "row_index": 11, "col_index": 25 }, "geometry": { "type": "Polygon", "coordinates": [ [ [ 1600000.0, 1584000.0 ], [ 1856000.0, 1584000.0 ], [ 1856000.0, 1328000.0 ], [ 1600000.0, 1328000.0 ], [ 1600000.0, 1584000.0 ] ] ] } },
{ "type": "Feature", "properties": { "id": 813, "left": 1600000.0, "top": 1328000.0, "right": 1856000.0, "bottom": 1072000.0, "row_index": 12, "col_index": 25 }, "geometry": { "type": "Polygon", "coordinates": [ [ [ 1600000.0, 1328000.0 ], [ 1856000.0, 1328000.0 ], [ 1856000.0, 1072000.0 ], [ 1600000.0, 1072000.0 ], [ 1600000.0, 1328000.0 ] ] ] } },
{ "type": "Feature", "properties": { "id": 814, "left": 1600000.0, "top": 1072000.0, "right": 1856000.0, "bottom": 816000.0, "row_index": 13, "col_index": 25 }, "geometry": { "type": "Polygon", "coordinates": [ [ [ 1600000.0, 1072000.0 ], [ 1856000.0, 1072000.0 ], [ 1856000.0, 816000.0 ], [ 1600000.0, 816000.0 ], [ 1600000.0, 1072000.0 ] ] ] } },
{ "type": "Feature", "properties": { "id": 815, "left": 1600000.0, "top": 816000.0, "right": 1856000.0, "bottom": 560000.0, "row_index": 14, "col_index": 25 }, "geometry": { "type": "Polygon", "coordinates": [ [ [ 1600000.0, 816000.0 ], [ 1856000.0, 816000.0 ], [ 1856000.0, 560000.0 ], [ 1600000.0, 560000.0 ], [ 1600000.0, 816000.0 ] ] ] } },
{ "type": "Feature", "properties": { "id": 816, "left": 1600000.0, "top": 560000.0, "right": 1856000.0, "bottom": 304000.0, "row_index": 15, "col_index": 25 }, "geometry": { "type": "Polygon", "coordinates": [ [ [ 1600000.0, 560000.0 ], [ 1856000.0, 560000.0 ], [ 1856000.0, 304000.0 ], [ 1600000.0, 304000.0 ], [ 1600000.0, 560000.0 ] ] ] } },
{ "type": "Feature", "properties": { "id": 817, "left": 1600000.0, "top": 304000.0, "right": 1856000.0, "bottom": 48000.0, "row_index": 16, "col_index": 25 }, "geometry": { "type": "Polygon", "coordinates": [ [ [ 1600000.0, 304000.0 ], [ 1856000.0, 304000.0 ], [ 1856000.0, 48000.0 ], [ 1600000.0, 48000.0 ], [ 1600000.0, 304000.0 ] ] ] } },
{ "type": "Feature", "properties": { "id": 818, "left": 1600000.0, "top": 48000.0, "right": 1856000.0, "bottom": -208000.0, "row_index": 17, "col_index": 25 }, "geometry": { "type": "Polygon", "coordinates": [ [ [ 1600000.0, 48000.0 ], [ 1856000.0, 48000.0 ], [ 1856000.0, -208000.0 ], [ 1600000.0, -208000.0 ], [ 1600000.0, 48000.0 ] ] ] } },
{ "type": "Feature", "properties": { "id": 426, "left": -1472000.0, "top": 2096000.0, "right": -1216000.0, "bottom": 1840000.0, "row_index": 9, "col_index": 13 }, "geometry": { "type": "Polygon", "coordinates": [ [ [ -1472000.0, 2096000.0 ], [ -1216000.0, 2096000.0 ], [ -1216000.0, 1840000.0 ], [ -1472000.0, 1840000.0 ], [ -1472000.0, 2096000.0 ] ] ] } },
{ "type": "Feature", "properties": { "id": 819, "left": 1600000.0, "top": -208000.0, "right": 1856000.0, "bottom": -464000.0, "row_index": 18, "col_index": 25 }, "geometry": { "type": "Polygon", "coordinates": [ [ [ 1600000.0, -208000.0 ], [ 1856000.0, -208000.0 ], [ 1856000.0, -464000.0 ], [ 1600000.0, -464000.0 ], [ 1600000.0, -208000.0 ] ] ] } },
{ "type": "Feature", "properties": { "id": 427, "left": -1472000.0, "top": 1840000.0, "right": -1216000.0, "bottom": 1584000.0, "row_index": 10, "col_index": 13 }, "geometry": { "type": "Polygon", "coordinates": [ [ [ -1472000.0, 1840000.0 ], [ -1216000.0, 1840000.0 ], [ -1216000.0, 1584000.0 ], [ -1472000.0, 1584000.0 ], [ -1472000.0, 1840000.0 ] ] ] } },
{ "type": "Feature", "properties": { "id": 820, "left": 1600000.0, "top": -464000.0, "right": 1856000.0, "bottom": -720000.0, "row_index": 19, "col_index": 25 }, "geometry": { "type": "Polygon", "coordinates": [ [ [ 1600000.0, -464000.0 ], [ 1856000.0, -464000.0 ], [ 1856000.0, -720000.0 ], [ 1600000.0, -720000.0 ], [ 1600000.0, -464000.0 ] ] ] } },
{ "type": "Feature", "properties": { "id": 821, "left": 1600000.0, "top": -720000.0, "right": 1856000.0, "bottom": -976000.0, "row_index": 20, "col_index": 25 }, "geometry": { "type": "Polygon", "coordinates": [ [ [ 1600000.0, -720000.0 ], [ 1856000.0, -720000.0 ], [ 1856000.0, -976000.0 ], [ 1600000.0, -976000.0 ], [ 1600000.0, -720000.0 ] ] ] } },
{ "type": "Feature", "properties": { "id": 822, "left": 1600000.0, "top": -976000.0, "right": 1856000.0, "bottom": -1232000.0, "row_index": 21, "col_index": 25 }, "geometry": { "type": "Polygon", "coordinates": [ [ [ 1600000.0, -976000.0 ], [ 1856000.0, -976000.0 ], [ 1856000.0, -1232000.0 ], [ 1600000.0, -1232000.0 ], [ 1600000.0, -976000.0 ] ] ] } },
{ "type": "Feature", "properties": { "id": 430, "left": -1472000.0, "top": 1072000.0, "right": -1216000.0, "bottom": 816000.0, "row_index": 13, "col_index": 13 }, "geometry": { "type": "Polygon", "coordinates": [ [ [ -1472000.0, 1072000.0 ], [ -1216000.0, 1072000.0 ], [ -1216000.0, 816000.0 ], [ -1472000.0, 816000.0 ], [ -1472000.0, 1072000.0 ] ] ] } },
{ "type": "Feature", "properties": { "id": 823, "left": 1600000.0, "top": -1232000.0, "right": 1856000.0, "bottom": -1488000.0, "row_index": 22, "col_index": 25 }, "geometry": { "type": "Polygon", "coordinates": [ [ [ 1600000.0, -1232000.0 ], [ 1856000.0, -1232000.0 ], [ 1856000.0, -1488000.0 ], [ 1600000.0, -1488000.0 ], [ 1600000.0, -1232000.0 ] ] ] } }
]
}
