{
"type": "FeatureCollection",
"name": "grid_120",
"crs": { "type": "name", "properties": { "name": "urn:ogc:def:crs:EPSG::6931" } },
"features": [
{ "type": "Feature", "properties": { "Shape_Leng": 1024000.0, "Shape_Area": 65536000000.0, "id": 1 }, "geometry": { "type": "MultiPolygon", "coordinates": [ [ [ [ 1772770.712099999189377, -1811229.287900000810623 ], [ 1772770.712099999189377, -1555229.287900000810623 ], [ 2028770.712099999189377, -1555229.287900000810623 ], [ 2028770.712099999189377, -1811229.287900000810623 ], [ 1772770.712099999189377, -1811229.287900000810623 ] ] ] ] } },
{ "type": "Feature", "properties": { "Shape_Leng": 1024000.0, "Shape_Area": 65536000000.0, "id": 2 }, "geometry": { "type": "MultiPolygon", "coordinates": [ [ [ [ 1772770.712099999189377, -1555229.287900000810623 ], [ 1772770.712099999189377, -1299229.287900000810623 ], [ 2028770.712099999189377, -1299229.287900000810623 ], [ 2028770.712099999189377, -1555229.287900000810623 ], [ 1772770.712099999189377, -1555229.287900000810623 ] ] ] ] } },
{ "type": "Feature", "properties": { "Shape_Leng": 1024000.0, "Shape_Area": 65536000000.0, "id": 3 }, "geometry": { "type": "MultiPolygon", "coordinates": [ [ [ [ 2028770.712099999189377, -1555229.287900000810623 ], [ 2028770.712099999189377, -1299229.287900000810623 ], [ 2284770.712099999189377, -1299229.287900000810623 ], [ 2284770.712099999189377, -1555229.287900000810623 ], [ 2028770.712099999189377, -1555229.287900000810623 ] ] ] ] } },
{ "type": "Feature", "properties": { "Shape_Leng": 1024000.0, "Shape_Area": 65536000000.0, "id": 4 }, "geometry": { "type": "MultiPolygon", "coordinates": [ [ [ [ 1260770.712099999189377, -1299229.287900000810623 ], [ 1260770.712099999189377, -1043229.287900000810623 ], [ 1516770.712099999189377, -1043229.287900000810623 ], [ 1516770.712099999189377, -1299229.287900000810623 ], [ 1260770.712099999189377, -1299229.287900000810623 ] ] ] ] } },
{ "type": "Feature", "properties": { "Shape_Leng": 1024000.0, "Shape_Area": 65536000000.0, "id": 5 }, "geometry": { "type": "MultiPolygon", "coordinates": [ [ [ [ 1516770.712099999189377, -1299229.287900000810623 ], [ 1516770.712099999189377, -1043229.287900000810623 ], [ 1772770.712099999189377, -1043229.287900000810623 ], [ 1772770.712099999189377, -1299229.287900000810623 ], [ 1516770.712099999189377, -1299229.287900000810623 ] ] ] ] } },
{ "type": "Feature", "properties": { "Shape_Leng": 1024000.0, "Shape_Area": 65536000000.0, "id": 6 }, "geometry": { "type": "MultiPolygon", "coordinates": [ [ [ [ 1772770.712099999189377, -1299229.287900000810623 ], [ 1772770.712099999189377, -1043229.287900000810623 ], [ 2028770.712099999189377, -1043229.287900000810623 ], [ 2028770.712099999189377, -1299229.287900000810623 ], [ 1772770.712099999189377, -1299229.287900000810623 ] ] ] ] } },
{ "type": "Feature", "properties": { "Shape_Leng": 1024000.0, "Shape_Area": 65536000000.0, "id": 7 }, "geometry": { "type": "MultiPolygon", "coordinates": [ [ [ [ 2028770.712099999189377, -1299229.287900000810623 ], [ 2028770.712099999189377, -1043229.287900000810623 ], [ 2284770.712099999189377, -1043229.287900000810623 ], [ 2284770.712099999189377, -1299229.287900000810623 ], [ 2028770.712099999189377, -1299229.287900000810623 ] ] ] ] } },
{ "type": "Feature", "properties": { "Shape_Leng": 1024000.0, "Shape_Area": 65536000000.0, "id": 8 }, "geometry": { "type": "MultiPolygon", "coordinates": [ [ [ [ 2284770.712099999189377, -1299229.287900000810623 ], [ 2284770.712099999189377, -1043229.287900000810623 ], [ 2540770.712099999189377, -1043229.287900000810623 ], [ 2540770.712099999189377, -1299229.287900000810623 ], [ 2284770.712099999189377, -1299229.287900000810623 ] ] ] ] } },
{ "type": "Feature", "properties": { "Shape_Leng": 1024000.0, "Shape_Area": 65536000000.0, "id": 9 }, "geometry": { "type": "MultiPolygon", "coordinates": [ [ [ [ 1260770.712099999189377, -1043229.287900000810623 ], [ 1260770.712099999189377, -787229.287900000810623 ], [ 1516770.712099999189377, -787229.287900000810623 ], [ 1516770.712099999189377, -1043229.287900000810623 ], [ 1260770.712099999189377, -1043229.287900000810623 ] ] ] ] } },
{ "type": "Feature", "properties": { "Shape_Leng": 1024000.0, "Shape_Area": 65536000000.0, "id": 10 }, "geometry": { "type": "MultiPolygon", "coordinates": [ [ [ [ 1516770.712099999189377, -1043229.287900000810623 ], [ 1516770.712099999189377, -787229.287900000810623 ], [ 1772770.712099999189377, -787229.287900000810623 ], [ 1772770.712099999189377, -1043229.287900000810623 ], [ 1516770.712099999189377, -1043229.287900000810623 ] ] ] ] } },
{ "type": "Feature", "properties": { "Shape_Leng": 1024000.0, "Shape_Area": 65536000000.0, "id": 11 }, "geometry": { "type": "MultiPolygon", "coordinates": [ [ [ [ 1772770.712099999189377, -1043229.287900000810623 ], [ 1772770.712099999189377, -787229.287900000810623 ], [ 2028770.712099999189377, -787229.287900000810623 ], [ 2028770.712099999189377, -1043229.287900000810623 ], [ 1772770.712099999189377, -1043229.287900000810623 ] ] ] ] } },
{ "type": "Feature", "properties": { "Shape_Leng": 1024000.0, "Shape_Area": 65536000000.0, "id": 12 }, "geometry": { "type": "MultiPolygon", "coordinates": [ [ [ [ 2028770.712099999189377, -1043229.287900000810623 ], [ 2028770.712099999189377, -787229.287900000810623 ], [ 2284770.712099999189377, -787229.287900000810623 ], [ 2284770.712099999189377, -1043229.287900000810623 ], [ 2028770.712099999189377, -1043229.287900000810623 ] ] ] ] } },
{ "type": "Feature", "properties": { "Shape_Leng": 1024000.0, "Shape_Area": 65536000000.0, "id": 13 }, "geometry": { "type": "MultiPolygon", "coordinates": [ [ [ [ 2284770.712099999189377, -1043229.287900000810623 ], [ 2284770.712099999189377, -787229.287900000810623 ], [ 2540770.712099999189377, -787229.287900000810623 ], [ 2540770.712099999189377, -1043229.287900000810623 ], [ 2284770.712099999189377, -1043229.287900000810623 ] ] ] ] } },
{ "type": "Feature", "properties": { "Shape_Leng": 1024000.0, "Shape_Area": 65536000000.0, "id": 14 }, "geometry": { "type": "MultiPolygon", "coordinates": [ [ [ [ 1260770.712099999189377, -787229.287900000810623 ], [ 1260770.712099999189377, -531229.287900000810623 ], [ 1516770.712099999189377, -531229.287900000810623 ], [ 1516770.712099999189377, -787229.287900000810623 ], [ 1260770.712099999189377, -787229.287900000810623 ] ] ] ] } },
{ "type": "Feature", "properties": { "Shape_Leng": 1024000.0, "Shape_Area": 65536000000.0, "id": 15 }, "geometry": { "type": "MultiPolygon", "coordinates": [ [ [ [ 1516770.712099999189377, -787229.287900000810623 ], [ 1516770.712099999189377, -531229.287900000810623 ], [ 1772770.712099999189377, -531229.287900000810623 ], [ 1772770.712099999189377, -787229.287900000810623 ], [ 1516770.712099999189377, -787229.287900000810623 ] ] ] ] } },
{ "type": "Feature", "properties": { "Shape_Leng": 1024000.0, "Shape_Area": 65536000000.0, "id": 16 }, "geometry": { "type": "MultiPolygon", "coordinates": [ [ [ [ 1772770.712099999189377, -787229.287900000810623 ], [ 1772770.712099999189377, -531229.287900000810623 ], [ 2028770.712099999189377, -531229.287900000810623 ], [ 2028770.712099999189377, -787229.287900000810623 ], [ 1772770.712099999189377, -787229.287900000810623 ] ] ] ] } },
{ "type": "Feature", "properties": { "Shape_Leng": 1024000.0, "Shape_Area": 65536000000.0, "id": 17 }, "geometry": { "type": "MultiPolygon", "coordinates": [ [ [ [ 2028770.712099999189377, -787229.287900000810623 ], [ 2028770.712099999189377, -531229.287900000810623 ], [ 2284770.712099999189377, -531229.287900000810623 ], [ 2284770.712099999189377, -787229.287900000810623 ], [ 2028770.712099999189377, -787229.287900000810623 ] ] ] ] } },
{ "type": "Feature", "properties": { "Shape_Leng": 1024000.0, "Shape_Area": 65536000000.0, "id": 18 }, "geometry": { "type": "MultiPolygon", "coordinates": [ [ [ [ 2284770.712099999189377, -787229.287900000810623 ], [ 2284770.712099999189377, -531229.287900000810623 ], [ 2540770.712099999189377, -531229.287900000810623 ], [ 2540770.712099999189377, -787229.287900000810623 ], [ 2284770.712099999189377, -787229.287900000810623 ] ] ] ] } },
{ "type": "Feature", "properties": { "Shape_Leng": 1024000.0, "Shape_Area": 65536000000.0, "id": 19 }, "geometry": { "type": "MultiPolygon", "coordinates": [ [ [ [ -1299229.287900000810623, -531229.287900000810623 ], [ -1299229.287900000810623, -275229.287900000810623 ], [ -1043229.287900000810623, -275229.287900000810623 ], [ -1043229.287900000810623, -531229.287900000810623 ], [ -1299229.287900000810623, -531229.287900000810623 ] ] ] ] } },
{ "type": "Feature", "properties": { "Shape_Leng": 1024000.0, "Shape_Area": 65536000000.0, "id": 20 }, "geometry": { "type": "MultiPolygon", "coordinates": [ [ [ [ -1043229.287900000810623, -531229.287900000810623 ], [ -1043229.287900000810623, -275229.287900000810623 ], [ -787229.287900000810623, -275229.287900000810623 ], [ -787229.287900000810623, -531229.287900000810623 ], [ -1043229.287900000810623, -531229.287900000810623 ] ] ] ] } },
{ "type": "Feature", "properties": { "Shape_Leng": 1024000.0, "Shape_Area": 65536000000.0, "id": 21 }, "geometry": { "type": "MultiPolygon", "coordinates": [ [ [ [ -787229.287900000810623, -531229.287900000810623 ], [ -787229.287900000810623, -275229.287900000810623 ], [ -531229.287900000810623, -275229.287900000810623 ], [ -531229.287900000810623, -531229.287900000810623 ], [ -787229.287900000810623, -531229.287900000810623 ] ] ] ] } },
{ "type": "Feature", "properties": { "Shape_Leng": 1024000.0, "Shape_Area": 65536000000.0, "id": 22 }, "geometry": { "type": "MultiPolygon", "coordinates": [ [ [ [ 1260770.712099999189377, -531229.287900000810623 ], [ 1260770.712099999189377, -275229.287900000810623 ], [ 1516770.712099999189377, -275229.287900000810623 ], [ 1516770.712099999189377, -531229.287900000810623 ], [ 1260770.712099999189377, -531229.287900000810623 ] ] ] ] } },
{ "type": "Feature", "properties": { "Shape_Leng": 1024000.0, "Shape_Area": 65536000000.0, "id": 23 }, "geometry": { "type": "MultiPolygon", "coordinates": [ [ [ [ 1772770.712099999189377, -531229.287900000810623 ], [ 1772770.712099999189377, -275229.287900000810623 ], [ 2028770.712099999189377, -275229.287900000810623 ], [ 2028770.712099999189377, -531229.287900000810623 ], [ 1772770.712099999189377, -531229.287900000810623 ] ] ] ] } },
{ "type": "Feature", "properties": { "Shape_Leng": 1024000.0, "Shape_Area": 65536000000.0, "id": 24 }, "geometry": { "type": "MultiPolygon", "coordinates": [ [ [ [ 2028770.712099999189377, -531229.287900000810623 ], [ 2028770.712099999189377, -275229.287900000810623 ], [ 2284770.712099999189377, -275229.287900000810623 ], [ 2284770.712099999189377, -531229.287900000810623 ], [ 2028770.712099999189377, -531229.287900000810623 ] ] ] ] } },
{ "type": "Feature", "properties": { "Shape_Leng": 1024000.0, "Shape_Area": 65536000000.0, "id": 25 }, "geometry": { "type": "MultiPolygon", "coordinates": [ [ [ [ 2284770.712099999189377, -531229.287900000810623 ], [ 2284770.712099999189377, -275229.287900000810623 ], [ 2540770.712099999189377, -275229.287900000810623 ], [ 2540770.712099999189377, -531229.287900000810623 ], [ 2284770.712099999189377, -531229.287900000810623 ] ] ] ] } },
{ "type": "Feature", "properties": { "Shape_Leng": 1024000.0, "Shape_Area": 65536000000.0, "id": 26 }, "geometry": { "type": "MultiPolygon", "coordinates": [ [ [ [ -1811229.287900000810623, -275229.287900000810623 ], [ -1811229.287900000810623, -19229.287900000810623 ], [ -1555229.287900000810623, -19229.287900000810623 ], [ -1555229.287900000810623, -275229.287900000810623 ], [ -1811229.287900000810623, -275229.287900000810623 ] ] ] ] } },
{ "type": "Feature", "properties": { "Shape_Leng": 1024000.0, "Shape_Area": 65536000000.0, "id": 27 }, "geometry": { "type": "MultiPolygon", "coordinates": [ [ [ [ -1555229.287900000810623, -275229.287900000810623 ], [ -1555229.287900000810623, -19229.287900000810623 ], [ -1299229.287900000810623, -19229.287900000810623 ], [ -1299229.287900000810623, -275229.287900000810623 ], [ -1555229.287900000810623, -275229.287900000810623 ] ] ] ] } },
{ "type": "Feature", "properties": { "Shape_Leng": 1024000.0, "Shape_Area": 65536000000.0, "id": 28 }, "geometry": { "type": "MultiPolygon", "coordinates": [ [ [ [ -1299229.287900000810623, -275229.287900000810623 ], [ -1299229.287900000810623, -19229.287900000810623 ], [ -1043229.287900000810623, -19229.287900000810623 ], [ -1043229.287900000810623, -275229.287900000810623 ], [ -1299229.287900000810623, -275229.287900000810623 ] ] ] ] } },
{ "type": "Feature", "properties": { "Shape_Leng": 1024000.0, "Shape_Area": 65536000000.0, "id": 29 }, "geometry": { "type": "MultiPolygon", "coordinates": [ [ [ [ -1043229.287900000810623, -275229.287900000810623 ], [ -1043229.287900000810623, -19229.287900000810623 ], [ -787229.287900000810623, -19229.287900000810623 ], [ -787229.287900000810623, -275229.287900000810623 ], [ -1043229.287900000810623, -275229.287900000810623 ] ] ] ] } },
{ "type": "Feature", "properties": { "Shape_Leng": 1024000.0, "Shape_Area": 65536000000.0, "id": 30 }, "geometry": { "type": "MultiPolygon", "coordinates": [ [ [ [ 1516770.712099999189377, -275229.287900000810623 ], [ 1516770.712099999189377, -19229.287900000810623 ], [ 1772770.712099999189377, -19229.287900000810623 ], [ 1772770.712099999189377, -275229.287900000810623 ], [ 1516770.712099999189377, -275229.287900000810623 ] ] ] ] } },
{ "type": "Feature", "properties": { "Shape_Leng": 1024000.0, "Shape_Area": 65536000000.0, "id": 31 }, "geometry": { "type": "MultiPolygon", "coordinates": [ [ [ [ 1772770.712099999189377, -275229.287900000810623 ], [ 1772770.712099999189377, -19229.287900000810623 ], [ 2028770.712099999189377, -19229.287900000810623 ], [ 2028770.712099999189377, -275229.287900000810623 ], [ 1772770.712099999189377, -275229.287900000810623 ] ] ] ] } },
{ "type": "Feature", "properties": { "Shape_Leng": 1024000.0, "Shape_Area": 65536000000.0, "id": 32 }, "geometry": { "type": "MultiPolygon", "coordinates": [ [ [ [ 2028770.712099999189377, -275229.287900000810623 ], [ 2028770.712099999189377, -19229.287900000810623 ], [ 2284770.712099999189377, -19229.287900000810623 ], [ 2284770.712099999189377, -275229.287900000810623 ], [ 2028770.712099999189377, -275229.287900000810623 ] ] ] ] } },
{ "type": "Feature", "properties": { "Shape_Leng": 1024000.0, "Shape_Area": 65536000000.0, "id": 33 }, "geometry": { "type": "MultiPolygon", "coordinates": [ [ [ [ 2284770.712099999189377, -275229.287900000810623 ], [ 2284770.712099999189377, -19229.287900000810623 ], [ 2540770.712099999189377, -19229.287900000810623 ], [ 2540770.712099999189377, -275229.287900000810623 ], [ 2284770.712099999189377, -275229.287900000810623 ] ] ] ] } },
{ "type": "Feature", "properties": { "Shape_Leng": 1024000.0, "Shape_Area": 65536000000.0, "id": 34 }, "geometry": { "type": "MultiPolygon", "coordinates": [ [ [ [ -2067229.287900000810623, -19229.287900000810623 ], [ -2067229.287900000810623, 236770.712099999189377 ], [ -1811229.287900000810623, 236770.712099999189377 ], [ -1811229.287900000810623, -19229.287900000810623 ], [ -2067229.287900000810623, -19229.287900000810623 ] ] ] ] } },
{ "type": "Feature", "properties": { "Shape_Leng": 1024000.0, "Shape_Area": 65536000000.0, "id": 35 }, "geometry": { "type": "MultiPolygon", "coordinates": [ [ [ [ -1811229.287900000810623, -19229.287900000810623 ], [ -1811229.287900000810623, 236770.712099999189377 ], [ -1555229.287900000810623, 236770.712099999189377 ], [ -1555229.287900000810623, -19229.287900000810623 ], [ -1811229.287900000810623, -19229.287900000810623 ] ] ] ] } },
{ "type": "Feature", "properties": { "Shape_Leng": 1024000.0, "Shape_Area": 65536000000.0, "id": 36 }, "geometry": { "type": "MultiPolygon", "coordinates": [ [ [ [ -1555229.287900000810623, -19229.287900000810623 ], [ -1555229.287900000810623, 236770.712099999189377 ], [ -1299229.287900000810623, 236770.712099999189377 ], [ -1299229.287900000810623, -19229.287900000810623 ], [ -1555229.287900000810623, -19229.287900000810623 ] ] ] ] } },
{ "type": "Feature", "properties": { "Shape_Leng": 1024000.0, "Shape_Area": 65536000000.0, "id": 37 }, "geometry": { "type": "MultiPolygon", "coordinates": [ [ [ [ -1299229.287900000810623, -19229.287900000810623 ], [ -1299229.287900000810623, 236770.712099999189377 ], [ -1043229.287900000810623, 236770.712099999189377 ], [ -1043229.287900000810623, -19229.287900000810623 ], [ -1299229.287900000810623, -19229.287900000810623 ] ] ] ] } },
{ "type": "Feature", "properties": { "Shape_Leng": 1024000.0, "Shape_Area": 65536000000.0, "id": 38 }, "geometry": { "type": "MultiPolygon", "coordinates": [ [ [ [ -1043229.287900000810623, -19229.287900000810623 ], [ -1043229.287900000810623, 236770.712099999189377 ], [ -787229.287900000810623, 236770.712099999189377 ], [ -787229.287900000810623, -19229.287900000810623 ], [ -1043229.287900000810623, -19229.287900000810623 ] ] ] ] } },
{ "type": "Feature", "properties": { "Shape_Leng": 1024000.0, "Shape_Area": 65536000000.0, "id": 39 }, "geometry": { "type": "MultiPolygon", "coordinates": [ [ [ [ 1004770.712099999189377, -19229.287900000810623 ], [ 1004770.712099999189377, 236770.712099999189377 ], [ 1260770.712099999189377, 236770.712099999189377 ], [ 1260770.712099999189377, -19229.287900000810623 ], [ 1004770.712099999189377, -19229.287900000810623 ] ] ] ] } },
{ "type": "Feature", "properties": { "Shape_Leng": 1024000.0, "Shape_Area": 65536000000.0, "id": 40 }, "geometry": { "type": "MultiPolygon", "coordinates": [ [ [ [ 1260770.712099999189377, -19229.287900000810623 ], [ 1260770.712099999189377, 236770.712099999189377 ], [ 1516770.712099999189377, 236770.712099999189377 ], [ 1516770.712099999189377, -19229.287900000810623 ], [ 1260770.712099999189377, -19229.287900000810623 ] ] ] ] } },
{ "type": "Feature", "properties": { "Shape_Leng": 1024000.0, "Shape_Area": 65536000000.0, "id": 41 }, "geometry": { "type": "MultiPolygon", "coordinates": [ [ [ [ 1516770.712099999189377, -19229.287900000810623 ], [ 1516770.712099999189377, 236770.712099999189377 ], [ 1772770.712099999189377, 236770.712099999189377 ], [ 1772770.712099999189377, -19229.287900000810623 ], [ 1516770.712099999189377, -19229.287900000810623 ] ] ] ] } },
{ "type": "Feature", "properties": { "Shape_Leng": 1024000.0, "Shape_Area": 65536000000.0, "id": 42 }, "geometry": { "type": "MultiPolygon", "coordinates": [ [ [ [ 1772770.712099999189377, -19229.287900000810623 ], [ 1772770.712099999189377, 236770.712099999189377 ], [ 2028770.712099999189377, 236770.712099999189377 ], [ 2028770.712099999189377, -19229.287900000810623 ], [ 1772770.712099999189377, -19229.287900000810623 ] ] ] ] } },
{ "type": "Feature", "properties": { "Shape_Leng": 1024000.0, "Shape_Area": 65536000000.0, "id": 43 }, "geometry": { "type": "MultiPolygon", "coordinates": [ [ [ [ 2028770.712099999189377, -19229.287900000810623 ], [ 2028770.712099999189377, 236770.712099999189377 ], [ 2284770.712099999189377, 236770.712099999189377 ], [ 2284770.712099999189377, -19229.287900000810623 ], [ 2028770.712099999189377, -19229.287900000810623 ] ] ] ] } },
{ "type": "Feature", "properties": { "Shape_Leng": 1024000.0, "Shape_Area": 65536000000.0, "id": 44 }, "geometry": { "type": "MultiPolygon", "coordinates": [ [ [ [ -2323229.287900000810623, 236770.712099999189377 ], [ -2323229.287900000810623, 492770.712099999189377 ], [ -2067229.287900000810623, 492770.712099999189377 ], [ -2067229.287900000810623, 236770.712099999189377 ], [ -2323229.287900000810623, 236770.712099999189377 ] ] ] ] } },
{ "type": "Feature", "properties": { "Shape_Leng": 1024000.0, "Shape_Area": 65536000000.0, "id": 45 }, "geometry": { "type": "MultiPolygon", "coordinates": [ [ [ [ -2067229.287900000810623, 236770.712099999189377 ], [ -2067229.287900000810623, 492770.712099999189377 ], [ -1811229.287900000810623, 492770.712099999189377 ], [ -1811229.287900000810623, 236770.712099999189377 ], [ -2067229.287900000810623, 236770.712099999189377 ] ] ] ] } },
{ "type": "Feature", "properties": { "Shape_Leng": 1024000.0, "Shape_Area": 65536000000.0, "id": 46 }, "geometry": { "type": "MultiPolygon", "coordinates": [ [ [ [ -1811229.287900000810623, 236770.712099999189377 ], [ -1811229.287900000810623, 492770.712099999189377 ], [ -1555229.287900000810623, 492770.712099999189377 ], [ -1555229.287900000810623, 236770.712099999189377 ], [ -1811229.287900000810623, 236770.712099999189377 ] ] ] ] } },
{ "type": "Feature", "properties": { "Shape_Leng": 1024000.0, "Shape_Area": 65536000000.0, "id": 47 }, "geometry": { "type": "MultiPolygon", "coordinates": [ [ [ [ -1555229.287900000810623, 236770.712099999189377 ], [ -1555229.287900000810623, 492770.712099999189377 ], [ -1299229.287900000810623, 492770.712099999189377 ], [ -1299229.287900000810623, 236770.712099999189377 ], [ -1555229.287900000810623, 236770.712099999189377 ] ] ] ] } },
{ "type": "Feature", "properties": { "Shape_Leng": 1024000.0, "Shape_Area": 65536000000.0, "id": 48 }, "geometry": { "type": "MultiPolygon", "coordinates": [ [ [ [ -1299229.287900000810623, 236770.712099999189377 ], [ -1299229.287900000810623, 492770.712099999189377 ], [ -1043229.287900000810623, 492770.712099999189377 ], [ -1043229.287900000810623, 236770.712099999189377 ], [ -1299229.287900000810623, 236770.712099999189377 ] ] ] ] } },
{ "type": "Feature", "properties": { "Shape_Leng": 1024000.0, "Shape_Area": 65536000000.0, "id": 49 }, "geometry": { "type": "MultiPolygon", "coordinates": [ [ [ [ 1004770.712099999189377, 236770.712099999189377 ], [ 1004770.712099999189377, 492770.712099999189377 ], [ 1260770.712099999189377, 492770.712099999189377 ], [ 1260770.712099999189377, 236770.712099999189377 ], [ 1004770.712099999189377, 236770.712099999189377 ] ] ] ] } },
{ "type": "Feature", "properties": { "Shape_Leng": 1024000.0, "Shape_Area": 65536000000.0, "id": 50 }, "geometry": { "type": "MultiPolygon", "coordinates": [ [ [ [ 1260770.712099999189377, 236770.712099999189377 ], [ 1260770.712099999189377, 492770.712099999189377 ], [ 1516770.712099999189377, 492770.712099999189377 ], [ 1516770.712099999189377, 236770.712099999189377 ], [ 1260770.712099999189377, 236770.712099999189377 ] ] ] ] } },
{ "type": "Feature", "properties": { "Shape_Leng": 1024000.0, "Shape_Area": 65536000000.0, "id": 51 }, "geometry": { "type": "MultiPolygon", "coordinates": [ [ [ [ 1516770.712099999189377, 236770.712099999189377 ], [ 1516770.712099999189377, 492770.712099999189377 ], [ 1772770.712099999189377, 492770.712099999189377 ], [ 1772770.712099999189377, 236770.712099999189377 ], [ 1516770.712099999189377, 236770.712099999189377 ] ] ] ] } },
{ "type": "Feature", "properties": { "Shape_Leng": 1024000.0, "Shape_Area": 65536000000.0, "id": 52 }, "geometry": { "type": "MultiPolygon", "coordinates": [ [ [ [ 1772770.712099999189377, 236770.712099999189377 ], [ 1772770.712099999189377, 492770.712099999189377 ], [ 2028770.712099999189377, 492770.712099999189377 ], [ 2028770.712099999189377, 236770.712099999189377 ], [ 1772770.712099999189377, 236770.712099999189377 ] ] ] ] } },
{ "type": "Feature", "properties": { "Shape_Leng": 1024000.0, "Shape_Area": 65536000000.0, "id": 53 }, "geometry": { "type": "MultiPolygon", "coordinates": [ [ [ [ -2323229.287900000810623, 492770.712099999189377 ], [ -2323229.287900000810623, 748770.712099999189377 ], [ -2067229.287900000810623, 748770.712099999189377 ], [ -2067229.287900000810623, 492770.712099999189377 ], [ -2323229.287900000810623, 492770.712099999189377 ] ] ] ] } },
{ "type": "Feature", "properties": { "Shape_Leng": 1024000.0, "Shape_Area": 65536000000.0, "id": 54 }, "geometry": { "type": "MultiPolygon", "coordinates": [ [ [ [ -2067229.287900000810623, 492770.712099999189377 ], [ -2067229.287900000810623, 748770.712099999189377 ], [ -1811229.287900000810623, 748770.712099999189377 ], [ -1811229.287900000810623, 492770.712099999189377 ], [ -2067229.287900000810623, 492770.712099999189377 ] ] ] ] } },
{ "type": "Feature", "properties": { "Shape_Leng": 1024000.0, "Shape_Area": 65536000000.0, "id": 55 }, "geometry": { "type": "MultiPolygon", "coordinates": [ [ [ [ -1811229.287900000810623, 492770.712099999189377 ], [ -1811229.287900000810623, 748770.712099999189377 ], [ -1555229.287900000810623, 748770.712099999189377 ], [ -1555229.287900000810623, 492770.712099999189377 ], [ -1811229.287900000810623, 492770.712099999189377 ] ] ] ] } },
{ "type": "Feature", "properties": { "Shape_Leng": 1024000.0, "Shape_Area": 65536000000.0, "id": 56 }, "geometry": { "type": "MultiPolygon", "coordinates": [ [ [ [ -1555229.287900000810623, 492770.712099999189377 ], [ -1555229.287900000810623, 748770.712099999189377 ], [ -1299229.287900000810623, 748770.712099999189377 ], [ -1299229.287900000810623, 492770.712099999189377 ], [ -1555229.287900000810623, 492770.712099999189377 ] ] ] ] } },
{ "type": "Feature", "properties": { "Shape_Leng": 1024000.0, "Shape_Area": 65536000000.0, "id": 57 }, "geometry": { "type": "MultiPolygon", "coordinates": [ [ [ [ -1299229.287900000810623, 492770.712099999189377 ], [ -1299229.287900000810623, 748770.712099999189377 ], [ -1043229.287900000810623, 748770.712099999189377 ], [ -1043229.287900000810623, 492770.712099999189377 ], [ -1299229.287900000810623, 492770.712099999189377 ] ] ] ] } },
{ "type": "Feature", "properties": { "Shape_Leng": 1024000.0, "Shape_Area": 65536000000.0, "id": 58 }, "geometry": { "type": "MultiPolygon", "coordinates": [ [ [ [ 1516770.712099999189377, 492770.712099999189377 ], [ 1516770.712099999189377, 748770.712099999189377 ], [ 1772770.712099999189377, 748770.712099999189377 ], [ 1772770.712099999189377, 492770.712099999189377 ], [ 1516770.712099999189377, 492770.712099999189377 ] ] ] ] } },
{ "type": "Feature", "properties": { "Shape_Leng": 1024000.0, "Shape_Area": 65536000000.0, "id": 59 }, "geometry": { "type": "MultiPolygon", "coordinates": [ [ [ [ 1772770.712099999189377, 492770.712099999189377 ], [ 1772770.712099999189377, 748770.712099999189377 ], [ 2028770.712099999189377, 748770.712099999189377 ], [ 2028770.712099999189377, 492770.712099999189377 ], [ 1772770.712099999189377, 492770.712099999189377 ] ] ] ] } },
{ "type": "Feature", "properties": { "Shape_Leng": 1024000.0, "Shape_Area": 65536000000.0, "id": 60 }, "geometry": { "type": "MultiPolygon", "coordinates": [ [ [ [ -2323229.287900000810623, 748770.712099999189377 ], [ -2323229.287900000810623, 1004770.712099999189377 ], [ -2067229.287900000810623, 1004770.712099999189377 ], [ -2067229.287900000810623, 748770.712099999189377 ], [ -2323229.287900000810623, 748770.712099999189377 ] ] ] ] } },
{ "type": "Feature", "properties": { "Shape_Leng": 1024000.0, "Shape_Area": 65536000000.0, "id": 61 }, "geometry": { "type": "MultiPolygon", "coordinates": [ [ [ [ -2067229.287900000810623, 748770.712099999189377 ], [ -2067229.287900000810623, 1004770.712099999189377 ], [ -1811229.287900000810623, 1004770.712099999189377 ], [ -1811229.287900000810623, 748770.712099999189377 ], [ -2067229.287900000810623, 748770.712099999189377 ] ] ] ] } },
{ "type": "Feature", "properties": { "Shape_Leng": 1024000.0, "Shape_Area": 65536000000.0, "id": 62 }, "geometry": { "type": "MultiPolygon", "coordinates": [ [ [ [ -1811229.287900000810623, 748770.712099999189377 ], [ -1811229.287900000810623, 1004770.712099999189377 ], [ -1555229.287900000810623, 1004770.712099999189377 ], [ -1555229.287900000810623, 748770.712099999189377 ], [ -1811229.287900000810623, 748770.712099999189377 ] ] ] ] } },
{ "type": "Feature", "properties": { "Shape_Leng": 1024000.0, "Shape_Area": 65536000000.0, "id": 63 }, "geometry": { "type": "MultiPolygon", "coordinates": [ [ [ [ -1555229.287900000810623, 748770.712099999189377 ], [ -1555229.287900000810623, 1004770.712099999189377 ], [ -1299229.287900000810623, 1004770.712099999189377 ], [ -1299229.287900000810623, 748770.712099999189377 ], [ -1555229.287900000810623, 748770.712099999189377 ] ] ] ] } },
{ "type": "Feature", "properties": { "Shape_Leng": 1024000.0, "Shape_Area": 65536000000.0, "id": 64 }, "geometry": { "type": "MultiPolygon", "coordinates": [ [ [ [ -1299229.287900000810623, 748770.712099999189377 ], [ -1299229.287900000810623, 1004770.712099999189377 ], [ -1043229.287900000810623, 1004770.712099999189377 ], [ -1043229.287900000810623, 748770.712099999189377 ], [ -1299229.287900000810623, 748770.712099999189377 ] ] ] ] } },
{ "type": "Feature", "properties": { "Shape_Leng": 1024000.0, "Shape_Area": 65536000000.0, "id": 65 }, "geometry": { "type": "MultiPolygon", "coordinates": [ [ [ [ 1260770.712099999189377, 748770.712099999189377 ], [ 1260770.712099999189377, 1004770.712099999189377 ], [ 1516770.712099999189377, 1004770.712099999189377 ], [ 1516770.712099999189377, 748770.712099999189377 ], [ 1260770.712099999189377, 748770.712099999189377 ] ] ] ] } },
{ "type": "Feature", "properties": { "Shape_Leng": 1024000.0, "Shape_Area": 65536000000.0, "id": 66 }, "geometry": { "type": "MultiPolygon", "coordinates": [ [ [ [ 1516770.712099999189377, 748770.712099999189377 ], [ 1516770.712099999189377, 1004770.712099999189377 ], [ 1772770.712099999189377, 1004770.712099999189377 ], [ 1772770.712099999189377, 748770.712099999189377 ], [ 1516770.712099999189377, 748770.712099999189377 ] ] ] ] } },
{ "type": "Feature", "properties": { "Shape_Leng": 1024000.0, "Shape_Area": 65536000000.0, "id": 67 }, "geometry": { "type": "MultiPolygon", "coordinates": [ [ [ [ 1772770.712099999189377, 748770.712099999189377 ], [ 1772770.712099999189377, 1004770.712099999189377 ], [ 2028770.712099999189377, 1004770.712099999189377 ], [ 2028770.712099999189377, 748770.712099999189377 ], [ 1772770.712099999189377, 748770.712099999189377 ] ] ] ] } },
{ "type": "Feature", "properties": { "Shape_Leng": 1024000.0, "Shape_Area": 65536000000.0, "id": 68 }, "geometry": { "type": "MultiPolygon", "coordinates": [ [ [ [ -2323229.287900000810623, 1004770.712099999189377 ], [ -2323229.287900000810623, 1260770.712099999189377 ], [ -2067229.287900000810623, 1260770.712099999189377 ], [ -2067229.287900000810623, 1004770.712099999189377 ], [ -2323229.287900000810623, 1004770.712099999189377 ] ] ] ] } },
{ "type": "Feature", "properties": { "Shape_Leng": 1024000.0, "Shape_Area": 65536000000.0, "id": 69 }, "geometry": { "type": "MultiPolygon", "coordinates": [ [ [ [ -2067229.287900000810623, 1004770.712099999189377 ], [ -2067229.287900000810623, 1260770.712099999189377 ], [ -1811229.287900000810623, 1260770.712099999189377 ], [ -1811229.287900000810623, 1004770.712099999189377 ], [ -2067229.287900000810623, 1004770.712099999189377 ] ] ] ] } },
{ "type": "Feature", "properties": { "Shape_Leng": 1024000.0, "Shape_Area": 65536000000.0, "id": 70 }, "geometry": { "type": "MultiPolygon", "coordinates": [ [ [ [ -1811229.287900000810623, 1004770.712099999189377 ], [ -1811229.287900000810623, 1260770.712099999189377 ], [ -1555229.287900000810623, 1260770.712099999189377 ], [ -1555229.287900000810623, 1004770.712099999189377 ], [ -1811229.287900000810623, 1004770.712099999189377 ] ] ] ] } },
{ "type": "Feature", "properties": { "Shape_Leng": 1024000.0, "Shape_Area": 65536000000.0, "id": 71 }, "geometry": { "type": "MultiPolygon", "coordinates": [ [ [ [ -1555229.287900000810623, 1004770.712099999189377 ], [ -1555229.287900000810623, 1260770.712099999189377 ], [ -1299229.287900000810623, 1260770.712099999189377 ], [ -1299229.287900000810623, 1004770.712099999189377 ], [ -1555229.287900000810623, 1004770.712099999189377 ] ] ] ] } },
{ "type": "Feature", "properties": { "Shape_Leng": 1024000.0, "Shape_Area": 65536000000.0, "id": 72 }, "geometry": { "type": "MultiPolygon", "coordinates": [ [ [ [ 748770.712099999189377, 1004770.712099999189377 ], [ 748770.712099999189377, 1260770.712099999189377 ], [ 1004770.712099999189377, 1260770.712099999189377 ], [ 1004770.712099999189377, 1004770.712099999189377 ], [ 748770.712099999189377, 1004770.712099999189377 ] ] ] ] } },
{ "type": "Feature", "properties": { "Shape_Leng": 1024000.0, "Shape_Area": 65536000000.0, "id": 73 }, "geometry": { "type": "MultiPolygon", "coordinates": [ [ [ [ 1004770.712099999189377, 1004770.712099999189377 ], [ 1004770.712099999189377, 1260770.712099999189377 ], [ 1260770.712099999189377, 1260770.712099999189377 ], [ 1260770.712099999189377, 1004770.712099999189377 ], [ 1004770.712099999189377, 1004770.712099999189377 ] ] ] ] } },
{ "type": "Feature", "properties": { "Shape_Leng": 1024000.0, "Shape_Area": 65536000000.0, "id": 74 }, "geometry": { "type": "MultiPolygon", "coordinates": [ [ [ [ 1260770.712099999189377, 1004770.712099999189377 ], [ 1260770.712099999189377, 1260770.712099999189377 ], [ 1516770.712099999189377, 1260770.712099999189377 ], [ 1516770.712099999189377, 1004770.712099999189377 ], [ 1260770.712099999189377, 1004770.712099999189377 ] ] ] ] } },
{ "type": "Feature", "properties": { "Shape_Leng": 1024000.0, "Shape_Area": 65536000000.0, "id": 75 }, "geometry": { "type": "MultiPolygon", "coordinates": [ [ [ [ 1516770.712099999189377, 1004770.712099999189377 ], [ 1516770.712099999189377, 1260770.712099999189377 ], [ 1772770.712099999189377, 1260770.712099999189377 ], [ 1772770.712099999189377, 1004770.712099999189377 ], [ 1516770.712099999189377, 1004770.712099999189377 ] ] ] ] } },
{ "type": "Feature", "properties": { "Shape_Leng": 1024000.0, "Shape_Area": 65536000000.0, "id": 76 }, "geometry": { "type": "MultiPolygon", "coordinates": [ [ [ [ 1772770.712099999189377, 1004770.712099999189377 ], [ 1772770.712099999189377, 1260770.712099999189377 ], [ 2028770.712099999189377, 1260770.712099999189377 ], [ 2028770.712099999189377, 1004770.712099999189377 ], [ 1772770.712099999189377, 1004770.712099999189377 ] ] ] ] } },
{ "type": "Feature", "properties": { "Shape_Leng": 1024000.0, "Shape_Area": 65536000000.0, "id": 77 }, "geometry": { "type": "MultiPolygon", "coordinates": [ [ [ [ -2323229.287900000810623, 1260770.712099999189377 ], [ -2323229.287900000810623, 1516770.712099999189377 ], [ -2067229.287900000810623, 1516770.712099999189377 ], [ -2067229.287900000810623, 1260770.712099999189377 ], [ -2323229.287900000810623, 1260770.712099999189377 ] ] ] ] } },
{ "type": "Feature", "properties": { "Shape_Leng": 1024000.0, "Shape_Area": 65536000000.0, "id": 78 }, "geometry": { "type": "MultiPolygon", "coordinates": [ [ [ [ -2067229.287900000810623, 1260770.712099999189377 ], [ -2067229.287900000810623, 1516770.712099999189377 ], [ -1811229.287900000810623, 1516770.712099999189377 ], [ -1811229.287900000810623, 1260770.712099999189377 ], [ -2067229.287900000810623, 1260770.712099999189377 ] ] ] ] } },
{ "type": "Feature", "properties": { "Shape_Leng": 1024000.0, "Shape_Area": 65536000000.0, "id": 79 }, "geometry": { "type": "MultiPolygon", "coordinates": [ [ [ [ -1811229.287900000810623, 1260770.712099999189377 ], [ -1811229.287900000810623, 1516770.712099999189377 ], [ -1555229.287900000810623, 1516770.712099999189377 ], [ -1555229.287900000810623, 1260770.712099999189377 ], [ -1811229.287900000810623, 1260770.712099999189377 ] ] ] ] } },
{ "type": "Feature", "properties": { "Shape_Leng": 1024000.0, "Shape_Area": 65536000000.0, "id": 80 }, "geometry": { "type": "MultiPolygon", "coordinates": [ [ [ [ 748770.712099999189377, 1260770.712099999189377 ], [ 748770.712099999189377, 1516770.712099999189377 ], [ 1004770.712099999189377, 1516770.712099999189377 ], [ 1004770.712099999189377, 1260770.712099999189377 ], [ 748770.712099999189377, 1260770.712099999189377 ] ] ] ] } },
{ "type": "Feature", "properties": { "Shape_Leng": 1024000.0, "Shape_Area": 65536000000.0, "id": 81 }, "geometry": { "type": "MultiPolygon", "coordinates": [ [ [ [ 1004770.712099999189377, 1260770.712099999189377 ], [ 1004770.712099999189377, 1516770.712099999189377 ], [ 1260770.712099999189377, 1516770.712099999189377 ], [ 1260770.712099999189377, 1260770.712099999189377 ], [ 1004770.712099999189377, 1260770.712099999189377 ] ] ] ] } },
{ "type": "Feature", "properties": { "Shape_Leng": 1024000.0, "Shape_Area": 65536000000.0, "id": 82 }, "geometry": { "type": "MultiPolygon", "coordinates": [ [ [ [ 1260770.712099999189377, 1260770.712099999189377 ], [ 1260770.712099999189377, 1516770.712099999189377 ], [ 1516770.712099999189377, 1516770.712099999189377 ], [ 1516770.712099999189377, 1260770.712099999189377 ], [ 1260770.712099999189377, 1260770.712099999189377 ] ] ] ] } },
{ "type": "Feature", "properties": { "Shape_Leng": 1024000.0, "Shape_Area": 65536000000.0, "id": 83 }, "geometry": { "type": "MultiPolygon", "coordinates": [ [ [ [ 1516770.712099999189377, 1260770.712099999189377 ], [ 1516770.712099999189377, 1516770.712099999189377 ], [ 1772770.712099999189377, 1516770.712099999189377 ], [ 1772770.712099999189377, 1260770.712099999189377 ], [ 1516770.712099999189377, 1260770.712099999189377 ] ] ] ] } },
{ "type": "Feature", "properties": { "Shape_Leng": 1024000.0, "Shape_Area": 65536000000.0, "id": 84 }, "geometry": { "type": "MultiPolygon", "coordinates": [ [ [ [ -1811229.287900000810623, 1516770.712099999189377 ], [ -1811229.287900000810623, 1772770.712099999189377 ], [ -1555229.287900000810623, 1772770.712099999189377 ], [ -1555229.287900000810623, 1516770.712099999189377 ], [ -1811229.287900000810623, 1516770.712099999189377 ] ] ] ] } },
{ "type": "Feature", "properties": { "Shape_Leng": 1024000.0, "Shape_Area": 65536000000.0, "id": 85 }, "geometry": { "type": "MultiPolygon", "coordinates": [ [ [ [ -1555229.287900000810623, 1516770.712099999189377 ], [ -1555229.287900000810623, 1772770.712099999189377 ], [ -1299229.287900000810623, 1772770.712099999189377 ], [ -1299229.287900000810623, 1516770.712099999189377 ], [ -1555229.287900000810623, 1516770.712099999189377 ] ] ] ] } },
{ "type": "Feature", "properties": { "Shape_Leng": 1024000.0, "Shape_Area": 65536000000.0, "id": 86 }, "geometry": { "type": "MultiPolygon", "coordinates": [ [ [ [ 748770.712099999189377, 1516770.712099999189377 ], [ 748770.712099999189377, 1772770.712099999189377 ], [ 1004770.712099999189377, 1772770.712099999189377 ], [ 1004770.712099999189377, 1516770.712099999189377 ], [ 748770.712099999189377, 1516770.712099999189377 ] ] ] ] } },
{ "type": "Feature", "properties": { "Shape_Leng": 1024000.0, "Shape_Area": 65536000000.0, "id": 87 }, "geometry": { "type": "MultiPolygon", "coordinates": [ [ [ [ 1004770.712099999189377, 1516770.712099999189377 ], [ 1004770.712099999189377, 1772770.712099999189377 ], [ 1260770.712099999189377, 1772770.712099999189377 ], [ 1260770.712099999189377, 1516770.712099999189377 ], [ 1004770.712099999189377, 1516770.712099999189377 ] ] ] ] } },
{ "type": "Feature", "properties": { "Shape_Leng": 1024000.0, "Shape_Area": 65536000000.0, "id": 88 }, "geometry": { "type": "MultiPolygon", "coordinates": [ [ [ [ 1260770.712099999189377, 1516770.712099999189377 ], [ 1260770.712099999189377, 1772770.712099999189377 ], [ 1516770.712099999189377, 1772770.712099999189377 ], [ 1516770.712099999189377, 1516770.712099999189377 ], [ 1260770.712099999189377, 1516770.712099999189377 ] ] ] ] } },
{ "type": "Feature", "properties": { "Shape_Leng": 1024000.0, "Shape_Area": 65536000000.0, "id": 89 }, "geometry": { "type": "MultiPolygon", "coordinates": [ [ [ [ -1811229.287900000810623, 1772770.712099999189377 ], [ -1811229.287900000810623, 2028770.712099999189377 ], [ -1555229.287900000810623, 2028770.712099999189377 ], [ -1555229.287900000810623, 1772770.712099999189377 ], [ -1811229.287900000810623, 1772770.712099999189377 ] ] ] ] } },
{ "type": "Feature", "properties": { "Shape_Leng": 1024000.0, "Shape_Area": 65536000000.0, "id": 90 }, "geometry": { "type": "MultiPolygon", "coordinates": [ [ [ [ -1555229.287900000810623, 1772770.712099999189377 ], [ -1555229.287900000810623, 2028770.712099999189377 ], [ -1299229.287900000810623, 2028770.712099999189377 ], [ -1299229.287900000810623, 1772770.712099999189377 ], [ -1555229.287900000810623, 1772770.712099999189377 ] ] ] ] } },
{ "type": "Feature", "properties": { "Shape_Leng": 1024000.0, "Shape_Area": 65536000000.0, "id": 91 }, "geometry": { "type": "MultiPolygon", "coordinates": [ [ [ [ -1299229.287900000810623, 1772770.712099999189377 ], [ -1299229.287900000810623, 2028770.712099999189377 ], [ -1043229.287900000810623, 2028770.712099999189377 ], [ -1043229.287900000810623, 1772770.712099999189377 ], [ -1299229.287900000810623, 1772770.712099999189377 ] ] ] ] } },
{ "type": "Feature", "properties": { "Shape_Leng": 1024000.0, "Shape_Area": 65536000000.0, "id": 92 }, "geometry": { "type": "MultiPolygon", "coordinates": [ [ [ [ -1043229.287900000810623, 1772770.712099999189377 ], [ -1043229.287900000810623, 2028770.712099999189377 ], [ -787229.287900000810623, 2028770.712099999189377 ], [ -787229.287900000810623, 1772770.712099999189377 ], [ -1043229.287900000810623, 1772770.712099999189377 ] ] ] ] } },
{ "type": "Feature", "properties": { "Shape_Leng": 1024000.0, "Shape_Area": 65536000000.0, "id": 93 }, "geometry": { "type": "MultiPolygon", "coordinates": [ [ [ [ -787229.287900000810623, 1772770.712099999189377 ], [ -787229.287900000810623, 2028770.712099999189377 ], [ -531229.287900000810623, 2028770.712099999189377 ], [ -531229.287900000810623, 1772770.712099999189377 ], [ -787229.287900000810623, 1772770.712099999189377 ] ] ] ] } },
{ "type": "Feature", "properties": { "Shape_Leng": 1024000.0, "Shape_Area": 65536000000.0, "id": 94 }, "geometry": { "type": "MultiPolygon", "coordinates": [ [ [ [ 492770.712099999189377, 1772770.712099999189377 ], [ 492770.712099999189377, 2028770.712099999189377 ], [ 748770.712099999189377, 2028770.712099999189377 ], [ 748770.712099999189377, 1772770.712099999189377 ], [ 492770.712099999189377, 1772770.712099999189377 ] ] ] ] } },
{ "type": "Feature", "properties": { "Shape_Leng": 1024000.0, "Shape_Area": 65536000000.0, "id": 95 }, "geometry": { "type": "MultiPolygon", "coordinates": [ [ [ [ 748770.712099999189377, 1772770.712099999189377 ], [ 748770.712099999189377, 2028770.712099999189377 ], [ 1004770.712099999189377, 2028770.712099999189377 ], [ 1004770.712099999189377, 1772770.712099999189377 ], [ 748770.712099999189377, 1772770.712099999189377 ] ] ] ] } },
{ "type": "Feature", "properties": { "Shape_Leng": 1024000.0, "Shape_Area": 65536000000.0, "id": 96 }, "geometry": { "type": "MultiPolygon", "coordinates": [ [ [ [ 1004770.712099999189377, 1772770.712099999189377 ], [ 1004770.712099999189377, 2028770.712099999189377 ], [ 1260770.712099999189377, 2028770.712099999189377 ], [ 1260770.712099999189377, 1772770.712099999189377 ], [ 1004770.712099999189377, 1772770.712099999189377 ] ] ] ] } },
{ "type": "Feature", "properties": { "Shape_Leng": 1024000.0, "Shape_Area": 65536000000.0, "id": 97 }, "geometry": { "type": "MultiPolygon", "coordinates": [ [ [ [ 1260770.712099999189377, 1772770.712099999189377 ], [ 1260770.712099999189377, 2028770.712099999189377 ], [ 1516770.712099999189377, 2028770.712099999189377 ], [ 1516770.712099999189377, 1772770.712099999189377 ], [ 1260770.712099999189377, 1772770.712099999189377 ] ] ] ] } },
{ "type": "Feature", "properties": { "Shape_Leng": 1024000.0, "Shape_Area": 65536000000.0, "id": 98 }, "geometry": { "type": "MultiPolygon", "coordinates": [ [ [ [ -1043229.287900000810623, 2028770.712099999189377 ], [ -1043229.287900000810623, 2284770.712099999189377 ], [ -787229.287900000810623, 2284770.712099999189377 ], [ -787229.287900000810623, 2028770.712099999189377 ], [ -1043229.287900000810623, 2028770.712099999189377 ] ] ] ] } },
{ "type": "Feature", "properties": { "Shape_Leng": 1024000.0, "Shape_Area": 65536000000.0, "id": 99 }, "geometry": { "type": "MultiPolygon", "coordinates": [ [ [ [ -787229.287900000810623, 2028770.712099999189377 ], [ -787229.287900000810623, 2284770.712099999189377 ], [ -531229.287900000810623, 2284770.712099999189377 ], [ -531229.287900000810623, 2028770.712099999189377 ], [ -787229.287900000810623, 2028770.712099999189377 ] ] ] ] } },
{ "type": "Feature", "properties": { "Shape_Leng": 1024000.0, "Shape_Area": 65536000000.0, "id": 100 }, "geometry": { "type": "MultiPolygon", "coordinates": [ [ [ [ -275229.287900000810623, 2028770.712099999189377 ], [ -275229.287900000810623, 2284770.712099999189377 ], [ -19229.287900000810623, 2284770.712099999189377 ], [ -19229.287900000810623, 2028770.712099999189377 ], [ -275229.287900000810623, 2028770.712099999189377 ] ] ] ] } },
{ "type": "Feature", "properties": { "Shape_Leng": 1024000.0, "Shape_Area": 65536000000.0, "id": 101 }, "geometry": { "type": "MultiPolygon", "coordinates": [ [ [ [ -19229.287900000810623, 2028770.712099999189377 ], [ -19229.287900000810623, 2284770.712099999189377 ], [ 236770.712099999189377, 2284770.712099999189377 ], [ 236770.712099999189377, 2028770.712099999189377 ], [ -19229.287900000810623, 2028770.712099999189377 ] ] ] ] } },
{ "type": "Feature", "properties": { "Shape_Leng": 1024000.0, "Shape_Area": 65536000000.0, "id": 102 }, "geometry": { "type": "MultiPolygon", "coordinates": [ [ [ [ 236770.712099999189377, 2028770.712099999189377 ], [ 236770.712099999189377, 2284770.712099999189377 ], [ 492770.712099999189377, 2284770.712099999189377 ], [ 492770.712099999189377, 2028770.712099999189377 ], [ 236770.712099999189377, 2028770.712099999189377 ] ] ] ] } },
{ "type": "Feature", "properties": { "Shape_Leng": 1024000.0, "Shape_Area": 65536000000.0, "id": 103 }, "geometry": { "type": "MultiPolygon", "coordinates": [ [ [ [ 492770.712099999189377, 2028770.712099999189377 ], [ 492770.712099999189377, 2284770.712099999189377 ], [ 748770.712099999189377, 2284770.712099999189377 ], [ 748770.712099999189377, 2028770.712099999189377 ], [ 492770.712099999189377, 2028770.712099999189377 ] ] ] ] } },
{ "type": "Feature", "properties": { "Shape_Leng": 1024000.0, "Shape_Area": 65536000000.0, "id": 104 }, "geometry": { "type": "MultiPolygon", "coordinates": [ [ [ [ 748770.712099999189377, 2028770.712099999189377 ], [ 748770.712099999189377, 2284770.712099999189377 ], [ 1004770.712099999189377, 2284770.712099999189377 ], [ 1004770.712099999189377, 2028770.712099999189377 ], [ 748770.712099999189377, 2028770.712099999189377 ] ] ] ] } },
{ "type": "Feature", "properties": { "Shape_Leng": 1024000.0, "Shape_Area": 65536000000.0, "id": 105 }, "geometry": { "type": "MultiPolygon", "coordinates": [ [ [ [ 1004770.712099999189377, 2028770.712099999189377 ], [ 1004770.712099999189377, 2284770.712099999189377 ], [ 1260770.712099999189377, 2284770.712099999189377 ], [ 1260770.712099999189377, 2028770.712099999189377 ], [ 1004770.712099999189377, 2028770.712099999189377 ] ] ] ] } },
{ "type": "Feature", "properties": { "Shape_Leng": 1024000.0, "Shape_Area": 65536000000.0, "id": 106 }, "geometry": { "type": "MultiPolygon", "coordinates": [ [ [ [ -1299229.287900000810623, 2284770.712099999189377 ], [ -1299229.287900000810623, 2540770.712099999189377 ], [ -1043229.287900000810623, 2540770.712099999189377 ], [ -1043229.287900000810623, 2284770.712099999189377 ], [ -1299229.287900000810623, 2284770.712099999189377 ] ] ] ] } },
{ "type": "Feature", "properties": { "Shape_Leng": 1024000.0, "Shape_Area": 65536000000.0, "id": 107 }, "geometry": { "type": "MultiPolygon", "coordinates": [ [ [ [ -1043229.287900000810623, 2284770.712099999189377 ], [ -1043229.287900000810623, 2540770.712099999189377 ], [ -787229.287900000810623, 2540770.712099999189377 ], [ -787229.287900000810623, 2284770.712099999189377 ], [ -1043229.287900000810623, 2284770.712099999189377 ] ] ] ] } },
{ "type": "Feature", "properties": { "Shape_Leng": 1024000.0, "Shape_Area": 65536000000.0, "id": 108 }, "geometry": { "type": "MultiPolygon", "coordinates": [ [ [ [ -787229.287900000810623, 2284770.712099999189377 ], [ -787229.287900000810623, 2540770.712099999189377 ], [ -531229.287900000810623, 2540770.712099999189377 ], [ -531229.287900000810623, 2284770.712099999189377 ], [ -787229.287900000810623, 2284770.712099999189377 ] ] ] ] } },
{ "type": "Feature", "properties": { "Shape_Leng": 1024000.0, "Shape_Area": 65536000000.0, "id": 109 }, "geometry": { "type": "MultiPolygon", "coordinates": [ [ [ [ -19229.287900000810623, 2284770.712099999189377 ], [ -19229.287900000810623, 2540770.712099999189377 ], [ 236770.712099999189377, 2540770.712099999189377 ], [ 236770.712099999189377, 2284770.712099999189377 ], [ -19229.287900000810623, 2284770.712099999189377 ] ] ] ] } },
{ "type": "Feature", "properties": { "Shape_Leng": 1024000.0, "Shape_Area": 65536000000.0, "id": 110 }, "geometry": { "type": "MultiPolygon", "coordinates": [ [ [ [ 236770.712099999189377, 2284770.712099999189377 ], [ 236770.712099999189377, 2540770.712099999189377 ], [ 492770.712099999189377, 2540770.712099999189377 ], [ 492770.712099999189377, 2284770.712099999189377 ], [ 236770.712099999189377, 2284770.712099999189377 ] ] ] ] } },
{ "type": "Feature", "properties": { "Shape_Leng": 1024000.0, "Shape_Area": 65536000000.0, "id": 111 }, "geometry": { "type": "MultiPolygon", "coordinates": [ [ [ [ 492770.712099999189377, 2284770.712099999189377 ], [ 492770.712099999189377, 2540770.712099999189377 ], [ 748770.712099999189377, 2540770.712099999189377 ], [ 748770.712099999189377, 2284770.712099999189377 ], [ 492770.712099999189377, 2284770.712099999189377 ] ] ] ] } },
{ "type": "Feature", "properties": { "Shape_Leng": 1024000.0, "Shape_Area": 65536000000.0, "id": 112 }, "geometry": { "type": "MultiPolygon", "coordinates": [ [ [ [ -787229.287900000810623, 2540770.712099999189377 ], [ -787229.287900000810623, 2796770.712099999189377 ], [ -531229.287900000810623, 2796770.712099999189377 ], [ -531229.287900000810623, 2540770.712099999189377 ], [ -787229.287900000810623, 2540770.712099999189377 ] ] ] ] } },
{ "type": "Feature", "properties": { "Shape_Leng": 1024000.0, "Shape_Area": 65536000000.0, "id": 113 }, "geometry": { "type": "MultiPolygon", "coordinates": [ [ [ [ -531229.287900000810623, 2540770.712099999189377 ], [ -531229.287900000810623, 2796770.712099999189377 ], [ -275229.287900000810623, 2796770.712099999189377 ], [ -275229.287900000810623, 2540770.712099999189377 ], [ -531229.287900000810623, 2540770.712099999189377 ] ] ] ] } },
{ "type": "Feature", "properties": { "Shape_Leng": 1024000.0, "Shape_Area": 65536000000.0, "id": 114 }, "geometry": { "type": "MultiPolygon", "coordinates": [ [ [ [ -275229.287900000810623, 2540770.712099999189377 ], [ -275229.287900000810623, 2796770.712099999189377 ], [ -19229.287900000810623, 2796770.712099999189377 ], [ -19229.287900000810623, 2540770.712099999189377 ], [ -275229.287900000810623, 2540770.712099999189377 ] ] ] ] } },
{ "type": "Feature", "properties": { "Shape_Leng": 1024000.0, "Shape_Area": 65536000000.0, "id": 115 }, "geometry": { "type": "MultiPolygon", "coordinates": [ [ [ [ -19229.287900000810623, 2540770.712099999189377 ], [ -19229.287900000810623, 2796770.712099999189377 ], [ 236770.712099999189377, 2796770.712099999189377 ], [ 236770.712099999189377, 2540770.712099999189377 ], [ -19229.287900000810623, 2540770.712099999189377 ] ] ] ] } },
{ "type": "Feature", "properties": { "Shape_Leng": 1024000.0, "Shape_Area": 65536000000.0, "id": 116 }, "geometry": { "type": "MultiPolygon", "coordinates": [ [ [ [ 236770.712099999189377, 2540770.712099999189377 ], [ 236770.712099999189377, 2796770.712099999189377 ], [ 492770.712099999189377, 2796770.712099999189377 ], [ 492770.712099999189377, 2540770.712099999189377 ], [ 236770.712099999189377, 2540770.712099999189377 ] ] ] ] } },
{ "type": "Feature", "properties": { "Shape_Leng": 1024000.0, "Shape_Area": 65536000000.0, "id": 117 }, "geometry": { "type": "MultiPolygon", "coordinates": [ [ [ [ 492770.712099999189377, 2540770.712099999189377 ], [ 492770.712099999189377, 2796770.712099999189377 ], [ 748770.712099999189377, 2796770.712099999189377 ], [ 748770.712099999189377, 2540770.712099999189377 ], [ 492770.712099999189377, 2540770.712099999189377 ] ] ] ] } },
{ "type": "Feature", "properties": { "Shape_Leng": 1024000.0, "Shape_Area": 65536000000.0, "id": 118 }, "geometry": { "type": "MultiPolygon", "coordinates": [ [ [ [ -531229.287900000810623, 2796770.712099999189377 ], [ -531229.287900000810623, 3052770.712099999189377 ], [ -275229.287900000810623, 3052770.712099999189377 ], [ -275229.287900000810623, 2796770.712099999189377 ], [ -531229.287900000810623, 2796770.712099999189377 ] ] ] ] } },
{ "type": "Feature", "properties": { "Shape_Leng": 1024000.0, "Shape_Area": 65536000000.0, "id": 119 }, "geometry": { "type": "MultiPolygon", "coordinates": [ [ [ [ -275229.287900000810623, 2796770.712099999189377 ], [ -275229.287900000810623, 3052770.712099999189377 ], [ -19229.287900000810623, 3052770.712099999189377 ], [ -19229.287900000810623, 2796770.712099999189377 ], [ -275229.287900000810623, 2796770.712099999189377 ] ] ] ] } },
{ "type": "Feature", "properties": { "Shape_Leng": 1024000.0, "Shape_Area": 65536000000.0, "id": 120 }, "geometry": { "type": "MultiPolygon", "coordinates": [ [ [ [ -19229.287900000810623, 2796770.712099999189377 ], [ -19229.287900000810623, 3052770.712099999189377 ], [ 236770.712099999189377, 3052770.712099999189377 ], [ 236770.712099999189377, 2796770.712099999189377 ], [ -19229.287900000810623, 2796770.712099999189377 ] ] ] ] } }
]
}
