{
"type": "FeatureCollection",
"name": "dissolve_footprint_alaska",
"crs": { "type": "name", "properties": { "name": "urn:ogc:def:crs:EPSG::3413" } },
"features": [
{ "type": "Feature", "properties": { "Id": 0, "Date": "20110826" }, "geometry": { "type": "MultiPolygon", "coordinates": [ [ [ [ -2059655.970423631602898, 764793.133832409628667 ], [ -2053272.186099998652935, 779944.5760000012815 ], [ -2047799.135340820765123, 777775.720083781983703 ], [ -2045562.669199999421835, 784921.508299998939037 ], [ -2043409.369310247013345, 784101.474560384172946 ], [ -2039958.406199999153614, 792631.715199999511242 ], [ -2039829.83015271788463, 792581.330909100244753 ], [ -2036323.927735567558557, 801964.415351645206101 ], [ -2037434.51969999819994, 802425.473600000143051 ], [ -2034107.915675942320377, 809892.494217233150266 ], [ -2034079.439100001007318, 809996.992199998348951 ], [ -2034064.09703631256707, 809990.851185230538249 ], [ -2030725.871373294387013, 817483.958170756464824 ], [ -2031116.743900001049042, 817645.482799999415874 ], [ -2025343.021800000220537, 832637.194400001317263 ], [ -2024334.380070039303973, 832236.911069499910809 ], [ -2020780.766800001263618, 841493.716899998486042 ], [ -2020188.90628169849515, 841252.627944430452771 ], [ -2018548.785743265179917, 845230.416916254092939 ], [ -2018958.436900001019239, 845405.63910000026226 ], [ -2013639.636999998241663, 858328.391199998557568 ], [ -2013510.065204257844016, 858274.179299890296534 ], [ -2011248.647626185789704, 863468.56457568553742 ], [ -2011290.318399999290705, 863486.200699999928474 ], [ -2009993.879023372894153, 866639.252598238759674 ], [ -2010070.838599998503923, 866672.2804000005126 ], [ -2008799.608655717223883, 869543.82069269544445 ], [ -2007714.157127908198163, 872183.732023613993078 ], [ -2011278.354100000113249, 873720.471900001168251 ], [ -2004157.743700001388788, 889888.888399999588728 ], [ -2000515.152451331727207, 888276.396881659282371 ], [ -1999561.145300000905991, 890516.285500001162291 ], [ -1986395.248599998652935, 884702.435899998992682 ], [ -1986395.331500802887604, 884702.239168085507117 ], [ -1983853.722350294003263, 883580.365927917417139 ], [ -1986235.238147571450099, 884705.72548736189492 ], [ -1987001.148899998515844, 885067.393699999898672 ], [ -1987001.053544417256489, 885067.603279058937915 ], [ -1999561.778400000184774, 891003.038100000470877 ], [ -1992330.692099999636412, 906672.896000001579523 ], [ -1988146.28557193861343, 904723.650287005468272 ], [ -1982880.257953193504363, 914614.583583138068207 ], [ -1982088.4679000005126, 916471.522199999541044 ], [ -1981929.540238603716716, 916400.272185489186086 ], [ -1981734.792899999767542, 916766.057000000029802 ], [ -1980677.555477848276496, 916267.756570515804924 ], [ -1979908.455899998545647, 917457.584399998188019 ], [ -1979603.021116665564477, 917316.551251499680802 ], [ -1978976.356899999082088, 918369.309599999338388 ], [ -1976126.552718952298164, 916972.931509603047743 ], [ -1975646.108984549995512, 917892.829884837265126 ], [ -1973756.7665, 922474.880100000649691 ], [ -1973351.616381005616859, 922286.060281760059297 ], [ -1972850.203899998217821, 923246.107200000435114 ], [ -1958103.344799999147654, 916373.29109999909997 ], [ -1958103.396192363696173, 916373.193651641951874 ], [ -1947156.302421021275222, 911277.57246141473297 ], [ -1945355.342005053069443, 915068.708851920207962 ], [ -1951153.906599998474121, 917690.454199999570847 ], [ -1945052.308677573222667, 930971.395171019830741 ], [ -1951222.399134716484696, 933921.938834864879027 ], [ -1957346.599048922304064, 936839.928995303460397 ], [ -1964429.785700000822544, 924243.740600001066923 ], [ -1978024.308299999684095, 930658.608199998736382 ], [ -1969019.229100000113249, 946513.727200001478195 ], [ -1962079.294642024906352, 943178.553772349143401 ], [ -1957055.922217037528753, 955076.659106905688532 ], [ -1958392.423300001770258, 955722.835200000554323 ], [ -1957940.243486799299717, 957045.377267087809741 ], [ -1959076.791299998760223, 957610.266499999910593 ], [ -1957601.909127650083974, 960161.332854849169962 ], [ -1961995.562471416080371, 962319.132243123138323 ], [ -1972699.300162371713668, 967564.589383447309956 ], [ -1985175.322900000959635, 973670.599599998444319 ], [ -1978237.580935, 985152.891947600641288 ], [ -1980585.13569999858737, 986331.027399998158216 ], [ -1980584.787339166272432, 986331.811890579527244 ], [ -1991439.48369999974966, 991775.82880000025034 ], [ -1991346.665733617264777, 991984.629772407584824 ], [ -1992305.468499999493361, 992466.417100001126528 ], [ -1991488.95956138917245, 994184.33708976872731 ], [ -1994181.215999998152256, 995530.686700001358986 ], [ -1984619.048099998384714, 1011878.78489999845624 ], [ -1973539.150228092679754, 1006234.800362887792289 ], [ -1973539.075199998915195, 1006234.929699998348951 ], [ -1962544.590740489540622, 1000638.130361530464143 ], [ -1962544.447700001299381, 1000638.378400001674891 ], [ -1961959.315099763218313, 1000340.40935825498309 ], [ -1960591.608057039557025, 1003213.877277537249029 ], [ -1970950.384659143164754, 1008442.809221814153716 ], [ -1984826.87195853702724, 1015429.019533682614565 ], [ -1998793.570799998939037, 1022447.411800000816584 ], [ -1995975.719680860405788, 1028274.91458772693295 ], [ -2001432.063144186977297, 1031057.711353444843553 ], [ -2008546.361699998378754, 1034663.765999998897314 ], [ -2002598.679469106951728, 1048674.480957062216476 ], [ -2005006.59335222793743, 1049915.676796281943098 ], [ -2006935.7368, 1046860.438900001347065 ], [ -2021399.929299999028444, 1054546.618000000715256 ], [ -2016377.674724226118997, 1062621.231836279388517 ], [ -2028157.233899999409914, 1069015.821100000292063 ], [ -2024080.556367301847786, 1075550.84995591128245 ], [ -2024670.930100001394749, 1075870.883000001311302 ], [ -2016922.848900001496077, 1090142.690099999308586 ], [ -2007541.197105338331312, 1085133.179254919290543 ], [ -2007180.05629999935627, 1085818.130399998277426 ], [ -1995951.307422540849075, 1080051.861409605480731 ], [ -1995947.290699999779463, 1080059.431200001388788 ], [ -1994548.730677497806028, 1079331.599973549833521 ], [ -1992572.020399998873472, 1078316.505300000309944 ], [ -1992577.690264419885352, 1078305.841523319017142 ], [ -1978341.71000000089407, 1070897.227800000458956 ], [ -1978764.704199999570847, 1070101.669700000435114 ], [ -1981266.2787000015378, 1071423.1963 ], [ -1983819.326874773483723, 1066621.327085276367143 ], [ -1973039.656476198928431, 1060850.313884597970173 ], [ -1960119.433976129861549, 1053967.670002523809671 ], [ -1947191.425329955294728, 1047113.537680887966417 ], [ -1932453.066799998283386, 1039337.943599998950958 ], [ -1936234.895601262338459, 1031970.518337806803174 ], [ -1927389.671500001102686, 1027262.3260000012815 ], [ -1934897.186599999666214, 1013424.592599999159575 ], [ -1940480.77368206018582, 1016355.443653238937259 ], [ -1941723.475724123651162, 1013490.462514191749506 ], [ -1939357.951124193612486, 1012286.431696000625379 ], [ -1928281.696426637470722, 1006682.024528514361009 ], [ -1923600.85530000180006, 1004320.921500001102686 ], [ -1926883.355419120518491, 996978.071170620620251 ], [ -1925711.628393467050046, 996389.017265438218601 ], [ -1925711.432599999010563, 996389.511999998241663 ], [ -1912674.254826103104278, 989840.165312233380973 ], [ -1900259.4254, 983610.661100000143051 ], [ -1906984.6842, 965471.844900000840425 ], [ -1907930.200483194319531, 965965.441844474989921 ], [ -1913188.282968329498544, 955607.29834462783765 ], [ -1920699.130685049574822, 940522.531735602533445 ], [ -1927713.896744061494246, 926120.740504374960437 ], [ -1927089.621565191308036, 925824.081861654762179 ], [ -1927087.704799998551607, 925827.272599998861551 ], [ -1926312.139123643515632, 925454.618372387485579 ], [ -1923499.808299999684095, 924118.184900000691414 ], [ -1923506.756569548277184, 924106.650430118315853 ], [ -1909528.977000001817942, 917390.4189000017941 ], [ -1917870.843685418134555, 903661.503920388873667 ], [ -1904306.702599998563528, 897377.156500000506639 ], [ -1906276.591654448769987, 892216.259746558265761 ], [ -1902768.931499999016523, 890581.249499998986721 ], [ -1902768.98681401531212, 890581.147914605331607 ], [ -1891716.705299999564886, 885429.289799999445677 ], [ -1893601.794285729294643, 881987.249367139767855 ], [ -1899687.373700000345707, 868158.878100000321865 ], [ -1900876.337354227434844, 868704.443098525516689 ], [ -1901333.52479999884963, 867869.65089999884367 ], [ -1902698.701828869059682, 868495.29211025335826 ], [ -1904089.454934211680666, 865838.174195270054042 ], [ -1888482.936200000345707, 858644.607299998402596 ], [ -1895276.288899999111891, 841624.534000001847744 ], [ -1909408.426745342789218, 848347.65326918871142 ], [ -1910474.48930000141263, 845462.539500001817942 ], [ -1927822.741099998354912, 853570.511100001633167 ], [ -1926670.1247312722262, 856541.144404962775297 ], [ -1926881.932548933196813, 856641.654784103040583 ], [ -1940994.985893123550341, 863329.739138428471051 ], [ -1954391.691544143017381, 869664.327053496963345 ], [ -1958420.790979959070683, 859847.171509495819919 ], [ -1953788.043870616937056, 857824.730333118117414 ], [ -1951137.195700000971556, 863291.372099999338388 ], [ -1951072.221432825317606, 863262.749588901759125 ], [ -1951072.219099998474121, 863262.754399999976158 ], [ -1937436.236600000411272, 857257.265999998897314 ], [ -1940023.961939704837278, 851821.480038716341369 ], [ -1928670.397300001233816, 846889.358500000089407 ], [ -1928670.623536488972604, 846888.949445157777518 ], [ -1921776.892299998551607, 843896.544399999082088 ], [ -1922505.74813884915784, 842554.201356249512173 ], [ -1916739.073100000619888, 840052.674400001764297 ], [ -1922975.521699998527765, 825658.180799998342991 ], [ -1930019.177569931605831, 828716.623067210777663 ], [ -1930418.57149999961257, 827981.054200001060963 ], [ -1939766.460900001227856, 832045.665100000798702 ], [ -1939765.670682705007493, 832047.085378037532791 ], [ -1949139.971968484343961, 836114.282910791342147 ], [ -1958426.07815770781599, 840130.074623977998272 ], [ -1958944.757550526643172, 839049.603353930870071 ], [ -1958917.738099999725819, 839038.194899998605251 ], [ -1959362.968118516495451, 838028.851760857272893 ], [ -1950061.256565655348822, 834104.902764174039476 ], [ -1938915.026816355763003, 829422.391887139296159 ], [ -1926536.661649714456871, 824244.255641851224937 ], [ -1923144.464699998497963, 822829.706799998879433 ], [ -1924890.349906684365124, 818816.670434623374604 ], [ -1919804.276299998164177, 816664.545200001448393 ], [ -1924980.449121138313785, 806614.892657384625636 ], [ -1914182.4857, 802105.369800001382828 ], [ -1914343.941535715246573, 801758.82801120984368 ], [ -1911604.4239999987185, 800624.554299999028444 ], [ -1911806.720971175935119, 800266.404028554214165 ], [ -1903295.508200000971556, 796726.381400000303984 ], [ -1904927.0132, 793111.955699998885393 ], [ -1906948.674800001084805, 793967.024900000542402 ], [ -1906952.8618, 793957.932599999010563 ], [ -1918030.801100000739098, 798654.66499999910593 ], [ -1922567.114900000393391, 788683.228900000452995 ], [ -1922937.151299998164177, 788837.264699999243021 ], [ -1923266.609067417215556, 787877.695258568506688 ], [ -1915557.084499999880791, 784710.564300000667572 ], [ -1915578.580079233273864, 784661.791893498739228 ], [ -1902183.786200001835823, 779254.161800000816584 ], [ -1902885.39816685509868, 777630.660829695290886 ], [ -1900835.846200000494719, 776745.780600000172853 ], [ -1901168.371800001710653, 775920.071199998259544 ], [ -1903240.471096862107515, 776809.036807258846238 ], [ -1903240.471099998801947, 776809.036800000816584 ], [ -1903664.533399999141693, 776990.966699998825788 ], [ -1903668.2027000002563, 776981.827199999243021 ], [ -1903668.202766569564119, 776981.827228740090504 ], [ -1904590.048555284738541, 774685.740716395084746 ], [ -1903896.354299999773502, 775411.785000000149012 ], [ -1898150.280062672914937, 773075.138507933239453 ], [ -1898148.519799999892712, 773076.991700001060963 ], [ -1896718.52546799601987, 772492.914155623409897 ], [ -1896642.390252334531397, 772461.953698579105549 ], [ -1892172.393500000238419, 777451.291499998420477 ], [ -1877422.105999998748302, 771287.818399999290705 ], [ -1881753.820838329382241, 766377.158164617721923 ], [ -1873347.220400001853704, 762932.241900000721216 ], [ -1888340.795776087325066, 746737.047323710750788 ], [ -1886328.041799999773502, 745942.638099998235703 ], [ -1893605.230799999088049, 727156.985800001770258 ], [ -1908965.995700001716614, 733064.399700000882149 ], [ -1908965.986287647858262, 733064.423605941119604 ], [ -1910754.432661446277052, 733752.071988279698417 ], [ -1912598.278900001198053, 729550.778000000864267 ], [ -1916538.058600001037121, 731025.390299998223782 ], [ -1916538.058593955356628, 731025.390321035636589 ], [ -1916943.564625092083588, 731177.16636452707462 ], [ -1920809.703899998217821, 716815.077199999243021 ], [ -1930541.581622703233734, 720518.66757591557689 ], [ -1932280.067800000309944, 713437.544900000095367 ], [ -1929239.256700001657009, 712265.104899998754263 ], [ -1929326.758762306533754, 711904.586316917673685 ], [ -1922134.407499998807907, 709244.741300001740456 ], [ -1925291.238499999046326, 700323.602800000458956 ], [ -1928733.312633999623358, 701562.669096714933403 ], [ -1930831.109614989953116, 697427.419817380839959 ], [ -1930311.089099999517202, 697238.932100001722574 ], [ -1939563.090300001204014, 679051.552000001072884 ], [ -1953071.532326814951375, 683759.735057843034156 ], [ -1956284.486753462348133, 684878.345395353855565 ], [ -1962448.045708042336628, 672432.551321457489394 ], [ -1961606.203000001609325, 672154.216299999505281 ], [ -1962828.542844174662605, 666266.030579883605242 ], [ -1962646.446699999272823, 666250.556400001049042 ], [ -1963111.319041332928464, 664903.857225203770213 ], [ -1963674.26062403107062, 662192.087168534751981 ], [ -1962621.464099999517202, 661824.355599999427795 ], [ -1964213.471557714277878, 659594.631039636093192 ], [ -1965288.591899998486042, 654415.622699998319149 ], [ -1966571.682625473476946, 654879.451817466062494 ], [ -1968823.2007, 648356.978300001472235 ], [ -1970263.709499999880791, 648452.564100001007318 ], [ -1970068.011565872468054, 649021.111028010374866 ], [ -1970547.297699999064207, 649039.616599999368191 ], [ -1969795.190999999642372, 651240.162399999797344 ], [ -1970167.439764769980684, 651255.656822799821384 ], [ -1975268.746631633955985, 644110.898074417957105 ], [ -1977242.719399999827147, 635405.77250000089407 ], [ -1983035.206523394677788, 637406.935602822573856 ], [ -1985043.314876316348091, 631346.303017003345303 ], [ -1980262.379200000315905, 629874.666999999433756 ], [ -1985118.314800001680851, 612206.544399999082088 ], [ -1998612.522981486516073, 616481.989936155965552 ], [ -2011191.855970810167491, 620451.50572643824853 ], [ -2024098.808987034717575, 624509.333727317280136 ], [ -2026173.768675338942558, 625160.686499876435846 ], [ -2028300.228267481550574, 618833.679435981553979 ], [ -2028262.688999999314547, 618822.5185999982059 ], [ -2028620.457393871853128, 617880.878850340726785 ], [ -2029451.284728094702587, 615408.858957779128104 ], [ -2031588.169700000435114, 598090.678899999707937 ], [ -2038488.280161514645442, 600164.36244754830841 ], [ -2038861.890999998897314, 598969.332299999892712 ], [ -2041745.285919971764088, 599864.346400678507052 ], [ -2042452.500927068525925, 597376.291334284702316 ], [ -2045389.066506530856714, 586751.356492855353281 ], [ -2041682.6743, 585647.072399999946356 ], [ -2043597.649018560769036, 579508.880903643090278 ], [ -2043058.879599999636412, 579359.089499998837709 ], [ -2045972.086195409297943, 570415.938800448435359 ], [ -2044445.801399998366833, 569980.424100000411272 ], [ -2045764.780734136002138, 565027.029192647198215 ], [ -2044717.8224, 564738.537900000810623 ], [ -2049669.842199999839067, 547913.073699999600649 ], [ -2055215.358356518438086, 549427.805885073845275 ], [ -2057994.631628505885601, 538394.312550024595112 ], [ -2061013.484404310816899, 526185.452766666072421 ], [ -2063877.891155201708898, 514414.21363941062009 ], [ -2067037.936215739930049, 501274.760735839838162 ], [ -2070113.088500000536442, 488366.661100000143051 ], [ -2085208.149331954773515, 492663.42320884228684 ], [ -2087067.09569999948144, 484798.749699998646975 ], [ -2090286.852654329035431, 485581.324064218089916 ], [ -2090457.474899810971692, 484183.057640781742521 ], [ -2084125.213799998164177, 482720.072599999606609 ], [ -2087967.024500001221895, 463534.053199999034405 ], [ -2095679.8301, 465254.409400001168251 ], [ -2094795.719497747020796, 471279.583538395352662 ], [ -2096184.564899999648333, 466197.988800000399351 ], [ -2108486.963210015092045, 468970.651339667441789 ], [ -2109435.063900001347065, 462431.77140000090003 ], [ -2106256.368900001049042, 461730.229400001466274 ], [ -2106389.415500000119209, 460815.602200001478195 ], [ -2109275.949846161995083, 461451.807401195168495 ], [ -2111806.819638335611671, 449559.134330649860203 ], [ -2107951.2179000005126, 448711.153000000864267 ], [ -2110839.331523262895644, 440682.065255024645012 ], [ -2110507.936299998313189, 440614.986999999731779 ], [ -2113244.730799999088049, 426115.924199998378754 ], [ -2121475.010671329218894, 427825.182084966392722 ], [ -2124175.83500000089407, 418677.935300000011921 ], [ -2127105.153695745859295, 419247.532330385351088 ], [ -2127105.1537000015378, 419247.532299999147654 ], [ -2127735.318099762313068, 419370.065864788251929 ], [ -2127924.846599999815226, 419406.919100001454353 ], [ -2127924.846598719712347, 419406.919109140406363 ], [ -2127935.161181836854666, 419408.924748683231883 ], [ -2128300.0637605371885, 417693.847946447262075 ], [ -2118783.870999999344349, 415721.603799998760223 ], [ -2121650.404500000178814, 402247.69370000064373 ], [ -2130516.75325363362208, 403985.65432737255469 ], [ -2131719.734200000762939, 399061.69200000166893 ], [ -2137407.175910288933665, 400103.232003180484753 ], [ -2139567.60700000077486, 389761.524000000208616 ], [ -2136897.524599999189377, 389219.69990000128746 ], [ -2137076.186099998652935, 388360.396299999207258 ], [ -2148882.443215376697481, 390766.986353088810574 ], [ -2150471.431652665603906, 380651.669467045925558 ], [ -2150463.969099998474121, 380650.568599998950958 ], [ -2150764.326824571006, 378785.472456425544806 ], [ -2149277.435400001704693, 378526.9189000017941 ], [ -2151790.342717516236007, 365738.55564180854708 ], [ -2137126.383900001645088, 362277.201900001615286 ], [ -2140562.722345022950321, 344513.035677152744029 ], [ -2143564.972300000488758, 327466.763700000941753 ], [ -2148520.282654135022312, 328595.46428406261839 ], [ -2148619.786359455436468, 327766.305203575931955 ], [ -2143754.938700001686811, 327241.315499998629093 ], [ -2143898.446899998933077, 325907.870999999344349 ], [ -2148779.607409240212291, 326434.524901975411922 ], [ -2149042.495000001043081, 324243.896600000560284 ], [ -2150966.763087168335915, 324535.651508134615142 ], [ -2151291.810142095200717, 321515.388145505334251 ], [ -2151172.546389079187065, 321497.896750878775492 ], [ -2151172.491099998354912, 321498.182300001382828 ], [ -2150802.257092093583196, 321443.589586666901596 ], [ -2147218.654199998825788, 320918.013199999928474 ], [ -2147219.188126300927252, 320915.249529484717641 ], [ -2136371.80689999833703, 319315.753100000321865 ], [ -2139705.486900001764297, 301955.903900001198053 ], [ -2148281.348732170183212, 303166.584573880187236 ], [ -2148684.009379987139255, 300384.140440992312506 ], [ -2151080.647700000554323, 283130.692400000989437 ], [ -2167381.869071169756353, 287354.436467635561712 ], [ -2167683.062899999320507, 284536.485399998724461 ], [ -2171707.041731055360287, 285035.068688626459334 ], [ -2173149.772109883371741, 280230.030766903480981 ], [ -2170464.714499998837709, 266126.755699999630451 ], [ -2178462.741518757306039, 267110.727304704138078 ], [ -2179987.1096, 251461.265599999576807 ], [ -2184838.428026170004159, 252095.075923192547634 ], [ -2185834.675799999386072, 244222.518500000238419 ], [ -2193778.957135159056634, 245531.754088285466423 ], [ -2194061.906800001859665, 243355.464299999177456 ], [ -2194505.523741361685097, 243412.034996715636225 ], [ -2195071.804000001400709, 237197.905200000852346 ], [ -2207379.394856493454427, 238590.647584621561691 ], [ -2207379.413499999791384, 238590.437899999320507 ], [ -2207837.747729348018765, 238642.515369355416624 ], [ -2211424.824799999594688, 239048.433499999344349 ], [ -2211424.680063499137759, 239050.074627977242926 ], [ -2219640.414492138661444, 239983.573874921508832 ], [ -2219640.647999998182058, 239980.908399999141693 ], [ -2221101.275388989597559, 240149.561780074203853 ], [ -2223683.497499998658895, 240442.962499998509884 ], [ -2223683.089475447311997, 240447.67454701825045 ], [ -2236043.362300001084805, 241874.870700001716614 ], [ -2234514.092599999159575, 259690.748500000685453 ], [ -2233048.886536994948983, 259526.541503449057927 ], [ -2222094.867708375677466, 258387.801838644139934 ], [ -2222094.003699999302626, 258400.465700000524521 ], [ -2219997.431023973505944, 258169.76000538514927 ], [ -2218127.093800000846386, 257975.32660000026226 ], [ -2218127.864054237958044, 257964.033892803941853 ], [ -2217269.212933572009206, 257869.548399650899228 ], [ -2216036.8882, 266394.6239 ], [ -2215149.348875525407493, 266248.855394232959952 ], [ -2214401.116099998354912, 273391.894099999219179 ], [ -2212547.192007917445153, 273173.576127465057652 ], [ -2209185.256900001317263, 285386.877099998295307 ], [ -2208802.487003457266837, 285338.639066586096305 ], [ -2208802.432100001722574, 285378.809099998325109 ], [ -2201339.320575462654233, 284496.221050415013451 ], [ -2200504.226100001484156, 289594.579599998891354 ], [ -2200012.020836064592004, 289534.333845124463551 ], [ -2201117.290800001472235, 295159.870700001716614 ], [ -2194885.916312623769045, 294384.778346233535558 ], [ -2194825.133400000631809, 294582.418099999427795 ], [ -2187793.110722251236439, 293650.424982008640654 ], [ -2187792.3445999994874, 293652.927799999713898 ], [ -2185840.787788170855492, 293391.672753518796526 ], [ -2185718.574299599975348, 293375.475119424925651 ], [ -2184542.399700000882149, 304378.107200000435114 ], [ -2174905.658787063788623, 303345.213832340552472 ], [ -2173254.91499999910593, 318727.302499998360872 ], [ -2165360.039884043391794, 317877.783509363711346 ], [ -2164481.616099998354912, 323066.223099999129772 ], [ -2161833.957007627002895, 322410.808686680102255 ], [ -2161710.550599999725819, 323043.415699999779463 ], [ -2161661.502200201619416, 323036.222190698143095 ], [ -2161537.79293646523729, 324185.48317569505889 ], [ -2164434.120000001043081, 324631.032900001853704 ], [ -2164424.426680603530258, 325071.197689310472924 ], [ -2167928.278099998831749, 325448.921100001782179 ], [ -2166826.543151699472219, 335643.767054925090633 ], [ -2169177.5304000005126, 336026.370200000703335 ], [ -2168677.763791270554066, 340343.633239831891842 ], [ -2172608.865200001746416, 341031.935699999332428 ], [ -2172537.806587959639728, 342917.912365420488641 ], [ -2173507.340199999511242, 343120.746500000357628 ], [ -2172568.440387641079724, 347602.043511956348084 ], [ -2174544.603500001132488, 347882.403000000864267 ], [ -2174516.193358276970685, 348026.500914770818781 ], [ -2174575.594399999827147, 348036.295699998736382 ], [ -2174376.034322641789913, 348737.39581164525589 ], [ -2174287.784246973693371, 349185.005401402595453 ], [ -2175973.812699999660254, 349462.068999998271465 ], [ -2173357.736099999397993, 365938.8766999989748 ], [ -2172923.791876260656863, 365867.016362931288313 ], [ -2171206.086300000548363, 378053.1064000017941 ], [ -2170663.842763318214566, 377961.573586786398664 ], [ -2170626.210299998521805, 378371.163400001823902 ], [ -2170592.809185111429542, 378365.465564505488146 ], [ -2170117.344779759645462, 381747.220885208866093 ], [ -2170771.130899999290705, 381884.7195999994874 ], [ -2166798.85700000077486, 400748.087400000542402 ], [ -2165762.25099325273186, 400529.500711944827344 ], [ -2165241.639600001275539, 403765.781899999827147 ], [ -2164281.105934820603579, 403584.003843185724691 ], [ -2163346.760899998247623, 409189.736200001090765 ], [ -2163123.618679657112807, 409156.210418539762031 ], [ -2162743.096999999135733, 414341.512499999254942 ], [ -2162485.125996236689389, 414293.872699677187484 ], [ -2162481.584199998527765, 414349.625199999660254 ], [ -2161345.184373775497079, 414136.886883991537616 ], [ -2160350.929733844939619, 422340.527444595994893 ], [ -2161278.098900001496077, 422525.258900001645088 ], [ -2161246.345797876361758, 422667.019714769383427 ], [ -2162228.008900001645088, 422860.751499999314547 ], [ -2162224.231908302754164, 422889.254954376607202 ], [ -2163325.77309999987483, 423108.951699998229742 ], [ -2163214.860976009164006, 423525.537561080884188 ], [ -2163543.709699999541044, 423590.236600000411272 ], [ -2163472.385003227740526, 423824.548904124298133 ], [ -2163514.87049999833107, 423833.076099999248981 ], [ -2162198.861032194457948, 428654.71698066702811 ], [ -2161208.836026236414909, 440264.715365021082107 ], [ -2163722.47069999948144, 440778.346099998801947 ], [ -2162665.888298220001161, 443779.950098201807123 ], [ -2164619.966299999505281, 444194.325599998235703 ], [ -2164130.234156608581543, 447071.857696662715171 ], [ -2171031.019499998539686, 448536.129299998283386 ], [ -2168484.154806739185005, 460524.279928906355053 ], [ -2173546.479400001466274, 461633.489399999380112 ], [ -2168907.65989999845624, 479516.424400001764297 ], [ -2156851.11561239650473, 476942.465837298252154 ], [ -2156851.0489999987185, 476942.715799998492002 ], [ -2155846.301974668167531, 476727.947596826008521 ], [ -2153681.1338, 476265.704599998891354 ], [ -2153681.276637043338269, 476265.165832001599483 ], [ -2148748.610390030778944, 475210.791108800272923 ], [ -2148278.708217308390886, 476670.089918241836131 ], [ -2158907.306134142447263, 478949.271019406965934 ], [ -2172860.539900001138449, 481931.545699998736382 ], [ -2170433.031621251255274, 488485.836342121881898 ], [ -2174256.25730000063777, 489363.122000001370907 ], [ -2172416.609692888800055, 499409.175104125519283 ], [ -2179288.984400000423193, 500963.276099998503923 ], [ -2177198.246604093816131, 513201.466812128259335 ], [ -2182779.816199999302626, 514509.023699998855591 ], [ -2182965.28177878074348, 515404.149208922754042 ], [ -2188091.0945999994874, 516622.740499999374151 ], [ -2186331.31497764820233, 531649.870921752764843 ], [ -2190169.359700001776218, 550173.694899998605251 ], [ -2182519.039784500841051, 548325.455258007510565 ], [ -2182138.740499999374151, 551483.983899999409914 ], [ -2177209.687696821987629, 550258.706162076909095 ], [ -2176989.292500000447035, 560596.386300001293421 ], [ -2165136.727556586731225, 557680.297918437048793 ], [ -2165136.723999999463558, 557680.491900000721216 ], [ -2165100.290280918125063, 557671.333249882911332 ], [ -2164961.56689793523401, 557637.203114566393197 ], [ -2164558.08268179371953, 559496.205063525936566 ], [ -2170220.856199998408556, 560981.97069999948144 ], [ -2167560.664976056199521, 571184.0823608210776 ], [ -2170770.529699999839067, 572042.407999999821186 ], [ -2169265.777674615383148, 577437.858088084147312 ], [ -2177083.449000000953674, 579550.552499998360872 ], [ -2172378.298900000751019, 596192.008799999952316 ], [ -2169992.514981783460826, 595538.542839871603064 ], [ -2169293.015299998223782, 598542.183100000023842 ], [ -2168347.314940115436912, 598282.376814448274672 ], [ -2168285.666200000792742, 598551.352299999445677 ], [ -2156494.802832551766187, 595315.308234674390405 ], [ -2156494.690499998629093, 595315.800999999046326 ], [ -2152678.167486344929785, 594267.819193651434034 ], [ -2152590.664900001138449, 594243.803800001740456 ], [ -2152590.667475922964513, 594243.792502694879659 ], [ -2144202.736927442718297, 591940.544604996568523 ], [ -2144074.236299999058247, 593803.291499998420477 ], [ -2127960.497400000691414, 589472.7331000007689 ], [ -2128100.685434952378273, 587477.332586133503355 ], [ -2121006.157200001180172, 585549.438200000673532 ], [ -2125163.591400001198053, 569095.857500001788139 ], [ -2126228.802573391236365, 569385.213101669680327 ], [ -2126590.482252330519259, 568077.856571652693674 ], [ -2125952.123599998652935, 567831.726599998772144 ], [ -2126252.05482661863789, 566667.202443907153793 ], [ -2126254.820256430655718, 566656.33167365542613 ], [ -2116079.783900000154972, 563988.986000001430511 ], [ -2117043.194925606250763, 560315.557721698307432 ], [ -2116503.59637915994972, 561744.604594173259102 ], [ -2114627.867400001734495, 569780.902199998497963 ], [ -2112223.324739701114595, 569127.090770347625948 ], [ -2112216.728889799211174, 569156.746562795480713 ], [ -2115205.083000000566244, 569961.287599999457598 ], [ -2111615.830695962533355, 579077.41281948168762 ], [ -2115585.381999999284744, 580125.159000001847744 ], [ -2110621.622513872105628, 594978.115349545958452 ], [ -2118523.533476896584034, 597294.661559827043675 ], [ -2135395.018199998885393, 602220.700500000268221 ], [ -2135394.6973438966088, 602222.027863406692632 ], [ -2142081.558109054807574, 604172.620775434188545 ], [ -2142442.233600001782179, 600144.291700001806021 ], [ -2146271.3871, 601179.00279999896884 ], [ -2146271.220095289871097, 601180.982760636252351 ], [ -2156936.099300000816584, 604068.400400001555681 ], [ -2156871.214321004692465, 604983.814066090621054 ], [ -2162705.181600000709295, 606584.9391999989748 ], [ -2161376.028687544632703, 609790.393628745339811 ], [ -2164568.59910000115633, 610719.23930000141263 ], [ -2162425.626748031005263, 618764.181701474823058 ], [ -2165227.337499998509884, 619586.080699998885393 ], [ -2164093.794069078750908, 623973.345198742463253 ], [ -2166685.421799998730421, 624719.163199998438358 ], [ -2160104.445599999278784, 643137.592999998480082 ], [ -2151510.444168583955616, 640589.065565385390073 ], [ -2151469.609200000762939, 640762.200800001621246 ], [ -2149707.518515016883612, 640238.759718526271172 ], [ -2148730.960299998521805, 643721.306400001049042 ], [ -2138210.892810255754739, 640616.084624602459371 ], [ -2136591.257100000977516, 645970.733500000089407 ], [ -2122440.563989268150181, 641951.287707024952397 ], [ -2122439.229299999773502, 641955.659099999815226 ], [ -2120999.002696943003684, 641541.818190132034943 ], [ -2118163.467300001531839, 640736.396099999547005 ], [ -2118166.10006588883698, 640727.799757258733734 ], [ -2108290.655089650303125, 637890.146900657913648 ], [ -2108289.553599998354912, 637893.729200001806021 ], [ -2107047.547456628642976, 637532.947003904497251 ], [ -2104010.401099998503923, 636660.240299999713898 ], [ -2104013.099602268077433, 636651.49020380480215 ], [ -2102146.395883207209408, 636109.243717488250695 ], [ -2101039.582916958723217, 639032.799970278632827 ], [ -2107301.795499999076128, 640975.724700000137091 ], [ -2103688.537150075659156, 652619.951421185745858 ], [ -2112010.829717583488673, 655196.122268546139821 ], [ -2112341.149528947658837, 655297.828410406014882 ], [ -2115883.533300001174212, 644941.335700001567602 ], [ -2130264.662500001490116, 649445.834399998188019 ], [ -2126769.086673045530915, 659736.02145116601605 ], [ -2136015.599520202726126, 662569.590770117938519 ], [ -2130939.508492402732372, 677971.528145767748356 ], [ -2130482.066844847984612, 677824.316996535053477 ], [ -2130440.802776621188968, 677977.151610360015184 ], [ -2133336.209399998188019, 678899.626600001007318 ], [ -2128983.665247055701911, 689567.447617108002305 ], [ -2129408.869300000369549, 689712.600900001823902 ], [ -2127721.406434346456081, 695819.85305069736205 ], [ -2130265.546900000423193, 696685.127199999988079 ], [ -2122813.597600001841784, 713098.923799999058247 ], [ -2115778.398655897937715, 710828.89258598187007 ], [ -2112509.70380000025034, 722693.70719999819994 ], [ -2099197.636, 718354.91270000115037 ], [ -2099197.758139854762703, 718354.439974700449966 ], [ -2097296.9206000007689, 717737.494199998676777 ], [ -2100342.234534593299031, 705839.38162539654877 ], [ -2098681.503499999642372, 705302.325100000947714 ], [ -2101807.754311563447118, 698673.827798926038668 ], [ -2098024.23232793668285, 697488.776554783689789 ], [ -2095376.388700000941753, 704520.942499998956919 ], [ -2089240.853410582523793, 702352.952536827535369 ], [ -2088171.230650195851922, 701977.400716561009176 ], [ -2084438.782350053079426, 710616.833253506338224 ], [ -2086511.903200000524521, 711374.008799999952316 ], [ -2079980.808699999004602, 728339.589299999177456 ], [ -2068038.707973549840972, 724103.222594047314487 ], [ -2066896.831170469755307, 726765.041157231666148 ], [ -2065560.0132, 731231.974500000476837 ], [ -2064646.09512087656185, 730915.203020151471719 ], [ -2064592.374784258427098, 731140.064948607934639 ], [ -2064696.457600001245737, 731177.065400000661612 ], [ -2064422.64939103461802, 731850.499425212969072 ], [ -2063036.162421580869704, 737654.039636575616896 ], [ -2075765.353300001472235, 742211.602699998766184 ], [ -2075764.926823353394866, 742212.817242350312881 ], [ -2080459.486961690941826, 743892.3430191319203 ], [ -2083122.692105493508279, 738897.471965520642698 ], [ -2084492.394400000572205, 734130.414200000464916 ], [ -2096609.363499999046326, 738468.556099999696016 ], [ -2096503.190525104757398, 738838.437759402557276 ], [ -2099266.923500001430511, 739828.106800001114607 ], [ -2094145.424359944183379, 749522.075007362524047 ], [ -2093928.731728736311197, 750299.395529708010145 ], [ -2095297.48589999973774, 750795.959600001573563 ], [ -2089986.609999999403954, 767390.293699998408556 ], [ -2088815.943279540399089, 766964.064089923864231 ], [ -2088629.230000000447035, 767657.288400001823902 ], [ -2073586.968100000172853, 762190.427000001072884 ], [ -2073588.708298693876714, 762183.944407584378496 ], [ -2068472.842174999648705, 760322.12742431811057 ], [ -2065374.033399999141693, 766922.890700001269579 ], [ -2059655.970423631602898, 764793.133832409628667 ] ], [ [ -1980647.883200000971556, 688694.315400000661612 ], [ -1981251.093494591070339, 687037.57528698083479 ], [ -1979274.870299998670816, 686367.508699998259544 ], [ -1980990.33235621242784, 683096.550656156498007 ], [ -1975342.316700000315905, 681148.461100000888109 ], [ -1975754.693214115919545, 679534.652692336705513 ], [ -1970504.033473382005468, 689827.746662320918404 ], [ -1972830.724399998784065, 690637.244899999350309 ], [ -1971066.618864074815065, 693982.645404509617947 ], [ -1977728.629313202109188, 696360.790294845937751 ], [ -1977947.572500001639128, 695630.737399999052286 ], [ -1979759.520980237284675, 696272.915567285381258 ], [ -1982545.931452619843185, 689354.139203626196831 ], [ -1980647.883200000971556, 688694.315400000661612 ] ], [ [ -2021212.710710061481223, 674587.583104527788237 ], [ -2021778.713719809195027, 672973.368091366719455 ], [ -2014453.056914314161986, 670421.734650371246971 ], [ -2010696.458984276512638, 669118.634615089744329 ], [ -2010351.06700000166893, 669991.934000000357628 ], [ -2012047.747999999672174, 670544.46169999986887 ], [ -2011787.974894750630483, 671195.709403475280851 ], [ -2021212.710710061481223, 674587.583104527788237 ] ], [ [ -1986025.276220972649753, 684833.182106352294795 ], [ -1984391.374274651054293, 689306.778024266124703 ], [ -2000005.11600000038743, 694881.052099999040365 ], [ -1997029.983659049961716, 702392.715972715755925 ], [ -2001313.225305195432156, 703910.531662497320212 ], [ -2008234.185400001704693, 688612.457299999892712 ], [ -2019784.299691761378199, 692667.144774158718064 ], [ -2019784.795400001108646, 692666.087999999523163 ], [ -2033979.575300000607967, 697639.219300001859665 ], [ -2031874.068497868254781, 701951.790590303600766 ], [ -2032440.956399999558926, 702152.285700000822544 ], [ -2032296.530269877519459, 702470.15966287185438 ], [ -2032421.388772687874734, 702513.490423534996808 ], [ -2035274.593773548258469, 696635.762095869285986 ], [ -2033727.398846795782447, 696114.669427543529309 ], [ -2018892.781054818537086, 691156.141732105170377 ], [ -2007239.736301880795509, 687276.155455994419754 ], [ -1990290.845100000500679, 681648.958000000566244 ], [ -1990290.855754086282104, 681648.91308012616355 ], [ -1989905.58748176228255, 681521.326600391650572 ], [ -1988829.508299998939037, 685800.405900001525879 ], [ -1986025.276220972649753, 684833.182106352294795 ] ], [ [ -1929086.851480803219602, 977008.565852411207743 ], [ -1929086.909800000488758, 977008.417199999094009 ], [ -1930259.098750406177714, 977619.544463949161582 ], [ -1933745.347099649487063, 971394.862340315827169 ], [ -1932783.460636421572417, 970908.23802157305181 ], [ -1927670.589546055765823, 968341.21317610621918 ], [ -1925011.901200000196695, 974006.32880000025034 ], [ -1918388.962857437785715, 971425.329977297107689 ], [ -1920582.114906411385164, 972570.242197391809896 ], [ -1929086.851480803219602, 977008.565852411207743 ] ] ], [ [ [ -1906836.175000000745058, 725332.38740000128746 ], [ -1898933.1162, 721368.529899999499321 ], [ -1900034.82880000025034, 717415.507599998265505 ], [ -1908097.532999999821186, 720630.289299998432398 ], [ -1906836.175000000745058, 725332.38740000128746 ] ] ], [ [ [ -2206209.820700000971556, 985777.47410000115633 ], [ -2205959.77357042580843, 986316.71202578197699 ], [ -2208165.153978849295527, 987307.082138423225842 ], [ -2208565.154500000178814, 987482.633000001311302 ], [ -2204225.813178521580994, 993864.528971331543289 ], [ -2202887.050688080489635, 997205.803911218768917 ], [ -2209790.211300000548363, 1000363.929200001060963 ], [ -2202876.630199998617172, 1015566.540199998766184 ], [ -2197547.085582041647285, 1013128.762606061296538 ], [ -2195784.168648683000356, 1016474.202551639638841 ], [ -2205238.196199998259544, 1020867.697599999606609 ], [ -2205220.034249376971275, 1020902.213856165995821 ], [ -2205508.9265, 1021037.3574 ], [ -2202469.469717423897237, 1026606.984797614859417 ], [ -2208139.604400001466274, 1029235.117400001734495 ], [ -2202335.254318278282881, 1042354.895508596324362 ], [ -2210374.950100000947714, 1046198.353700000792742 ], [ -2201653.677799999713898, 1062368.146299999207258 ], [ -2194896.865047157742083, 1059192.182572913588956 ], [ -2188741.466299999505281, 1072259.025199998170137 ], [ -2174739.762200001627207, 1065717.100400000810623 ], [ -2179434.757083884906024, 1055705.652902518864721 ], [ -2174920.957499999552965, 1053520.136100001633167 ], [ -2176471.833224348258227, 1050363.749509469605982 ], [ -2173761.254436828196049, 1049055.545761549612507 ], [ -2171276.384191249031574, 1054615.0637269357685 ], [ -2173451.46510000154376, 1055643.360300000756979 ], [ -2167742.720043743494898, 1064867.649947797413915 ], [ -2172731.143099182285368, 1067472.648286955896765 ], [ -2172745.521299999207258, 1067451.747900001704693 ], [ -2189259.259399998933077, 1075907.0810999982059 ], [ -2177109.300299998372793, 1093481.959399998188019 ], [ -2175998.303419722709805, 1092888.581848232075572 ], [ -2175307.885436372365803, 1094531.686080306069925 ], [ -2186425.743999999016523, 1100125.0121 ], [ -2185916.523390264715999, 1101363.788439977681264 ], [ -2186331.7972999997437, 1101575.812899999320507 ], [ -2184101.446605742909014, 1105779.309204312972724 ], [ -2183969.950896073598415, 1106099.197619732702151 ], [ -2192656.722300000488758, 1110473.025199998170137 ], [ -2183393.655600000172853, 1126341.213100001215935 ], [ -2166749.133200000971556, 1117743.303199999034405 ], [ -2166750.536310494877398, 1117740.83429780905135 ], [ -2153437.413199998438358, 1110893.680399999022484 ], [ -2153439.142086224164814, 1110890.65851841471158 ], [ -2148628.810505220666528, 1108416.485727372113615 ], [ -2148170.414768342860043, 1109575.056001738412306 ], [ -2151775.477163396775723, 1111499.887629381846637 ], [ -2151777.900499999523163, 1111495.643300000578165 ], [ -2168221.715700000524521, 1120295.601199999451637 ], [ -2168217.02389509184286, 1120303.62921519135125 ], [ -2178113.187248647212982, 1125630.192899416899309 ], [ -2178125.295800000429153, 1125609.7621 ], [ -2190931.376395775936544, 1132607.209937783190981 ], [ -2190952.787300001829863, 1132571.368500001728535 ], [ -2203722.408260257449001, 1139505.053655050462112 ], [ -2203729.777300000190735, 1139492.963500000536442 ], [ -2206106.73605270171538, 1140799.702750015305355 ], [ -2206775.865200001746416, 1141163.028400000184774 ], [ -2206773.793364533688873, 1141166.419240316143259 ], [ -2219317.333099998533726, 1148062.262800000607967 ], [ -2219311.477364033926278, 1148071.738364997087047 ], [ -2227098.970100000500679, 1152335.170299999415874 ], [ -2226493.378280576318502, 1153306.907138528767973 ], [ -2229409.715688386466354, 1154821.630883579608053 ], [ -2232063.049699999392033, 1147560.936200000345707 ], [ -2247956.617080604191869, 1155781.331819376209751 ], [ -2253901.475099999457598, 1146231.329199999570847 ], [ -2268635.558909084647894, 1153740.760186969535425 ], [ -2282292.787397701758891, 1160637.071250229608268 ], [ -2286907.708926219027489, 1162956.774014624068514 ], [ -2292809.0592, 1149225.605999998748302 ], [ -2309959.416499998420477, 1157809.265599999576807 ], [ -2309959.387435586657375, 1157809.333291015820578 ], [ -2322461.118180469609797, 1164063.960156314540654 ], [ -2339323.93299999833107, 1172487.878100000321865 ], [ -2332171.309999998658895, 1189198.253199998289347 ], [ -2322466.451020923443139, 1184331.932862846646458 ], [ -2316499.172200001776218, 1197503.033700000494719 ], [ -2303276.005899999290705, 1190897.1206 ], [ -2308976.416809059679508, 1177566.722589013865218 ], [ -2300256.276576233096421, 1173192.923857315909117 ], [ -2293236.020799998193979, 1184943.261999998241663 ], [ -2285398.069570114370435, 1180832.661421307595447 ], [ -2276700.338647305034101, 1176279.869917639996856 ], [ -2275728.615956474095583, 1175771.225668927421793 ], [ -2275590.767045016866177, 1176134.966425392543897 ], [ -2282590.8904, 1179754.344200000166893 ], [ -2273888.882199998944998, 1195600.720800001174212 ], [ -2263015.109725489281118, 1189904.337319495156407 ], [ -2262945.017499998211861, 1190059.104600001126528 ], [ -2260057.102760378737003, 1188564.462182513438165 ], [ -2259789.054299999028444, 1188982.367899999022484 ], [ -2257073.534654907416552, 1187564.88449019799009 ], [ -2257028.918000001460314, 1187654.455699998885393 ], [ -2251284.99549999833107, 1184613.392099998891354 ], [ -2251397.254526300355792, 1184391.764714221470058 ], [ -2251397.25450000166893, 1184391.764699999243021 ], [ -2251403.757199842017144, 1184378.926747426157817 ], [ -2244690.017240438610315, 1180887.449918788624927 ], [ -2241581.83402286330238, 1179273.250938213430345 ], [ -2236914.642196035478264, 1176904.699006161652505 ], [ -2236871.976799998432398, 1176990.224199999123812 ], [ -2232198.342938123270869, 1174537.448853843379766 ], [ -2230468.582057327032089, 1177816.435170033248141 ], [ -2227136.377599999308586, 1185837.028299998492002 ], [ -2216437.856159506365657, 1180170.016222550300881 ], [ -2215853.677000001072884, 1181261.651099998503923 ], [ -2212847.488293259870261, 1179648.932415852788836 ], [ -2207188.997900001704693, 1188879.058400001376867 ], [ -2200691.8503418401815, 1185387.484850969864056 ], [ -2197562.586599998176098, 1190768.272599998861551 ], [ -2183151.402142392937094, 1182918.314858959754929 ], [ -2183147.027800001204014, 1182925.8684 ], [ -2165542.261100001633167, 1173334.741900000721216 ], [ -2165547.514411476440728, 1173325.615469195879996 ], [ -2156959.432562597095966, 1168647.291434344369918 ], [ -2154532.920379992108792, 1167325.458402883261442 ], [ -2154530.795699998736382, 1167329.166400000452995 ], [ -2137503.084899999201298, 1158134.893500000238419 ], [ -2138302.665966686792672, 1156736.889261680888012 ], [ -2127093.432510193437338, 1150856.048160422360525 ], [ -2119752.051300000399351, 1147012.702399998903275 ], [ -2122815.106255619321018, 1140540.733802849659696 ], [ -2108360.34910000115633, 1132816.011700000613928 ], [ -2113332.118443140760064, 1125251.299318826058879 ], [ -2111341.525499999523163, 1124215.34739999845624 ], [ -2111367.14729543030262, 1124162.691126539371908 ], [ -2110944.828299999237061, 1123941.389699999243021 ], [ -2113652.706006536725909, 1119465.557203064672649 ], [ -2114031.699770896229893, 1118686.673484738450497 ], [ -2108730.640500001609325, 1115535.076999999582767 ], [ -2115525.5493, 1102351.542899999767542 ], [ -2115614.949099658988416, 1102403.945469931932166 ], [ -2120268.846488873939961, 1093409.105597036890686 ], [ -2123846.165875837672502, 1086035.759377694921568 ], [ -2120420.61600000038743, 1084262.8607 ], [ -2120794.1676479075104, 1083591.579635908594355 ], [ -2118885.765599999576807, 1082608.195799998939037 ], [ -2129945.373199999332428, 1065825.293999999761581 ], [ -2130521.921833960339427, 1066110.576520567992702 ], [ -2130901.284600000828505, 1065428.852699998766184 ], [ -2134235.499215894844383, 1067048.509585416642949 ], [ -2140006.093600001186132, 1056127.452500000596046 ], [ -2142742.201044626068324, 1057490.128522888291627 ], [ -2143870.772681605536491, 1055307.804674277547747 ], [ -2150432.519900001585484, 1041071.111299999058247 ], [ -2158796.721142543945462, 1045157.345986197702587 ], [ -2160678.344878512900323, 1041070.503531669615768 ], [ -2152233.440200001001358, 1037047.181800000369549 ], [ -2159524.227299999445677, 1022611.917599998414516 ], [ -2169929.665388589259237, 1027602.140692548360676 ], [ -2169934.648299999535084, 1027592.1831 ], [ -2177778.208546251989901, 1031371.32268026098609 ], [ -2178095.470310135744512, 1030773.887866526958533 ], [ -2169426.954454886261374, 1026718.874252248555422 ], [ -2169408.050900001078844, 1026774.866700001060963 ], [ -2154662.617499999701977, 1019891.704500000923872 ], [ -2154983.527934356126934, 1018928.171952663222328 ], [ -2152480.095300000160933, 1017820.565999999642372 ], [ -2160226.849787973798811, 1003185.115154632600024 ], [ -2160466.015884900465608, 1002467.019750551320612 ], [ -2154328.385099999606609, 999705.418800000101328 ], [ -2162366.674699999392033, 981612.438900001347065 ], [ -2166274.130436048842967, 983370.115825951565057 ], [ -2172773.569600000977516, 966584.952399998903275 ], [ -2176275.107816729694605, 968159.241003526723944 ], [ -2177079.361099999397993, 966138.962200000882149 ], [ -2178202.010335326660424, 966634.291957686073147 ], [ -2178418.790058394894004, 966134.209272205946036 ], [ -2181951.584499999880791, 954930.898800000548363 ], [ -2196757.460700001567602, 961372.929400000721216 ], [ -2196753.870453408919275, 961384.528411181643605 ], [ -2204337.741303179878742, 964680.641964651178569 ], [ -2204340.297200001776218, 964672.344799999147654 ], [ -2205640.598912780173123, 965246.891932551632635 ], [ -2207026.804244831204414, 965849.366615121252835 ], [ -2209798.202199999243021, 956931.543299999088049 ], [ -2223580.322999998927116, 962992.1266999989748 ], [ -2223261.110275859944522, 964005.275083914399147 ], [ -2225600.222199998795986, 965031.685199998319149 ], [ -2218475.508900001645088, 980609.871300000697374 ], [ -2218083.151703379582614, 980439.581820402992889 ], [ -2217757.230099998414516, 981474.023400001227856 ], [ -2207615.34100711112842, 977093.705861725145951 ], [ -2206969.833068058360368, 979226.133151839836501 ], [ -2207295.678100001066923, 979367.828899998217821 ], [ -2205271.70419126143679, 985359.677972224424593 ], [ -2206209.820700000971556, 985777.47410000115633 ] ], [ [ -2140743.63640883564949, 1094602.813920807791874 ], [ -2139108.643061231821775, 1097630.685264040017501 ], [ -2143270.696538411080837, 1099784.909039212856442 ], [ -2145019.703162330202758, 1096718.508993431925774 ], [ -2140743.63640883564949, 1094602.813920807791874 ] ], [ [ -2226431.475077567156404, 1162971.413637938909233 ], [ -2227380.047966288402677, 1160375.698925813427195 ], [ -2227272.797810052521527, 1160575.172561343526468 ], [ -2226083.373584763146937, 1162787.372363494709134 ], [ -2226431.475077567156404, 1162971.413637938909233 ] ], [ [ -2174919.216629574075341, 1147295.923369701951742 ], [ -2167591.64786728983745, 1143463.600918404525146 ], [ -2167591.361099999397993, 1143464.366599999368191 ], [ -2155388.786087131127715, 1137086.166759761516005 ], [ -2154954.591745252721012, 1136859.686333787394688 ], [ -2153977.018681752495468, 1138705.331951772328466 ], [ -2152008.717676155734807, 1143599.929978547850624 ], [ -2157944.097699999809265, 1146797.513399999588728 ], [ -2157153.399897063151002, 1148456.126774944365025 ], [ -2162534.657185776624829, 1151429.090026144171134 ], [ -2176583.699147898703814, 1159142.369909792207181 ], [ -2178765.197234111838043, 1160337.33783749002032 ], [ -2181983.359299998730421, 1155002.035199999809265 ], [ -2184921.400521127972752, 1156558.977092972956598 ], [ -2186307.788877479266375, 1153251.244751937454566 ], [ -2178527.644661670550704, 1149183.04202266712673 ], [ -2178527.615800000727177, 1149183.118099998682737 ], [ -2177659.356293758377433, 1148729.017905613407493 ], [ -2174919.125999998301268, 1147296.163699999451637 ], [ -2174919.216629574075341, 1147295.923369701951742 ] ], [ [ -2143140.449588246177882, 1100013.261092593893409 ], [ -2138948.731205790769309, 1097926.828685811720788 ], [ -2138050.240410517435521, 1099590.758716569049284 ], [ -2138869.640998431481421, 1100014.153223114088178 ], [ -2138870.166000001132488, 1100012.728000000119209 ], [ -2142170.102219888474792, 1101714.497196598909795 ], [ -2143140.449588246177882, 1100013.261092593893409 ] ], [ [ -2145305.274927385151386, 1108045.287254583323374 ], [ -2146602.427255623508245, 1108737.868839493021369 ], [ -2147392.905025806743652, 1107780.803205705247819 ], [ -2145717.097956012003124, 1106918.859245023457333 ], [ -2145305.274927385151386, 1108045.287254583323374 ] ], [ [ -2201985.32818719977513, 1172511.091440008720383 ], [ -2192037.902975250035524, 1167108.556176262209192 ], [ -2191812.767771857324988, 1167481.434275056701154 ], [ -2201742.479470926336944, 1172908.347552835242823 ], [ -2201985.32818719977513, 1172511.091440008720383 ] ], [ [ -2233057.443664570804685, 1172908.911893895128742 ], [ -2232266.697868182789534, 1174407.87320971977897 ], [ -2233177.372811540029943, 1172972.013193014543504 ], [ -2233057.443664570804685, 1172908.911893895128742 ] ], [ [ -2234100.526000000536442, 1174389.627599999308586 ], [ -2234100.526030738838017, 1174389.627544712042436 ], [ -2234048.642900001257658, 1174465.281500000506639 ], [ -2234095.823965973220766, 1174489.604556577978656 ], [ -2234757.049641570076346, 1173432.310451594181359 ], [ -2234435.730659012682736, 1173900.845244967145845 ], [ -2234100.526000000536442, 1174389.627599999308586 ] ] ], [ [ [ -2034635.54109999909997, 1209068.774399999529123 ], [ -2045307.129727930761874, 1215298.739758039126173 ], [ -2045314.5777000002563, 1215288.965300001204014 ], [ -2047440.455054273363203, 1216544.153477019863203 ], [ -2048757.787300001829863, 1217313.198699999600649 ], [ -2048753.182157632661983, 1217319.230899278540164 ], [ -2049086.698399998247623, 1217516.149900000542402 ], [ -2046297.479260375490412, 1221170.351067175390199 ], [ -2049324.6621330359485, 1223011.968887919094414 ], [ -2051558.303199999034405, 1219601.125999998301268 ], [ -2064566.127900000661612, 1227278.883200000971556 ], [ -2061869.107922955881804, 1231374.201217702357098 ], [ -2063826.247000001370907, 1232515.681499999016523 ], [ -2053643.309500001370907, 1247720.326499998569489 ], [ -2048064.159190466860309, 1244391.709937426494434 ], [ -2046556.901799999177456, 1251683.398699998855591 ], [ -2033008.300923058530316, 1243253.133577061584219 ], [ -2032981.456176568754017, 1243424.883712869137526 ], [ -2041528.728700000792742, 1248778.8257 ], [ -2030442.775800000876188, 1264220.194400001317263 ], [ -2029794.881766531383619, 1263812.282274306518957 ], [ -2028991.370400000363588, 1268953.070700000971556 ], [ -2015378.540280896704644, 1260468.819847541162744 ], [ -2004638.949999999254942, 1253778.8838 ], [ -2004733.980999998748302, 1253204.10190000012517 ], [ -2015049.333594339666888, 1259651.572335046483204 ], [ -2015049.333599999547005, 1259651.572299998253584 ], [ -2015305.768699999898672, 1259811.85359999909997 ], [ -2017119.226102831540629, 1257438.742171841207892 ], [ -2005616.933899998664856, 1250126.408500000834465 ], [ -2013358.663445202168077, 1237985.659703934332356 ], [ -2012216.004099998623133, 1237286.432 ], [ -2003682.112799998372793, 1248356.750199999660254 ], [ -1997562.0912000015378, 1244562.805700000375509 ], [ -2008077.659000001847744, 1228374.58669999986887 ], [ -2008768.271195246605203, 1228803.256746470695361 ], [ -2008861.978782312711701, 1228236.479423710377887 ], [ -2008669.060899998992682, 1228116.578000001609325 ], [ -2009265.531711247051135, 1225663.737374373944476 ], [ -1996758.965799998492002, 1218093.101300001144409 ], [ -2004958.829, 1204614.554499998688698 ], [ -2013178.926977107999846, 1209570.854518704349175 ], [ -2014599.532900001853704, 1203728.959399998188019 ], [ -2017831.059086858760566, 1205681.450288312975317 ], [ -2018348.735300000756979, 1204340.530900001525879 ], [ -2027997.112626269692555, 1210104.444035644643009 ], [ -2027999.252900000661612, 1210098.794399999082088 ], [ -2028733.675222400808707, 1210544.464432805776596 ], [ -2031006.262499999254942, 1211902.101599998772144 ], [ -2030999.669711176771671, 1211919.539518829900771 ], [ -2032017.893540893215686, 1212537.429027023492381 ], [ -2034635.54109999909997, 1209068.774399999529123 ] ] ], [ [ [ -1938070.947999998927116, 1048258.459300000220537 ], [ -1950664.30180000141263, 1055113.011500000953674 ], [ -1935690.700300000607967, 1052660.029399998486042 ], [ -1938070.947999998927116, 1048258.459300000220537 ] ] ], [ [ [ -2394740.91920462064445, 917948.060921316966414 ], [ -2397097.858399998396635, 918843.285799998790026 ], [ -2396945.925192859955132, 919224.001598535222001 ], [ -2397437.3915, 919412.433400001376867 ], [ -2391745.0022, 937578.729200001806021 ], [ -2389907.072939884383231, 936862.030221372377127 ], [ -2389802.13399999961257, 937124.987300001084805 ], [ -2389079.079850346315652, 936854.838385517243296 ], [ -2385725.524099998176098, 947077.569099999964237 ], [ -2380663.734308002516627, 945073.41640695661772 ], [ -2375807.289096099790186, 957022.963262988254428 ], [ -2377717.130199998617172, 957799.567899998277426 ], [ -2377125.025563028175384, 959142.722753043519333 ], [ -2377786.306699998676777, 959416.554699998348951 ], [ -2370003.033900000154972, 975709.133900001645088 ], [ -2367900.187519759405404, 974815.051293357857503 ], [ -2363102.319022715091705, 985939.700685743475333 ], [ -2363757.754200000315905, 986213.844999998807907 ], [ -2363757.491710465867072, 986214.468793914886191 ], [ -2365831.431458835955709, 987081.581726933130994 ], [ -2366473.305700000375509, 985648.161100000143051 ], [ -2377862.052811936940998, 990397.722420281148516 ], [ -2377877.617899999022484, 990362.763999998569489 ], [ -2393037.980099998414516, 996668.052099999040365 ], [ -2392373.701537957880646, 998172.084919841843657 ], [ -2394110.685100000351667, 998897.586199998855591 ], [ -2387489.156700000166893, 1014721.45719999819994 ], [ -2386324.272194054443389, 1014232.020124381524511 ], [ -2386182.919399999082088, 1014635.699999999254942 ], [ -2385273.163159390445799, 1014248.83823060290888 ], [ -2385159.735800001770258, 1014505.655900001525879 ], [ -2379659.389172419440001, 1012166.49863086361438 ], [ -2364164.755300000309944, 1006723.311500001698732 ], [ -2364567.504061288200319, 1005770.159867043141276 ], [ -2358595.471900001168251, 1003240.780799999833107 ], [ -2358845.842581154312938, 1002681.658039942383766 ], [ -2357131.566758341155946, 1001960.664923886186443 ], [ -2357131.299899999052286, 1001961.299100000411272 ], [ -2352493.396981957834214, 1000009.469158540247008 ], [ -2352394.124499998986721, 1000279.3268 ], [ -2351080.845403976272792, 999722.161082855425775 ], [ -2350964.287099998444319, 999981.514400001615286 ], [ -2339583.748318691272289, 995173.062585172709078 ], [ -2339579.096099998801947, 995183.353199999779463 ], [ -2324503.29839999973774, 988775.77760000154376 ], [ -2328745.674030311405659, 979454.24063680251129 ], [ -2325707.329099608585238, 978172.710140132927336 ], [ -2323651.811542934272438, 977316.889471725909971 ], [ -2319365.58219999819994, 987291.928399998694658 ], [ -2317069.134522700682282, 986306.364991326234303 ], [ -2310504.645100001245737, 998631.191899999976158 ], [ -2297899.444644598755985, 992943.757016727118753 ], [ -2294529.511559480801225, 991520.826584508526139 ], [ -2291226.02479999884963, 1002173.304200001060963 ], [ -2289733.892363884486258, 1001528.883385027991608 ], [ -2287981.566982624586672, 1005418.680508883902803 ], [ -2286102.85080000013113, 1011594.601500000804663 ], [ -2284390.057384320534766, 1010825.007143632043153 ], [ -2282848.249699998646975, 1018554.975999999791384 ], [ -2279203.09521123021841, 1016872.568821310182102 ], [ -2275158.509399998933077, 1030466.635099999606609 ], [ -2268347.1107, 1027268.741799999028444 ], [ -2274012.219399999827147, 1008786.30689999833703 ], [ -2275742.841054752003402, 1009560.277390915667638 ], [ -2276249.516432730481029, 1007167.289323498960584 ], [ -2274530.928204017225653, 1006395.09113215317484 ], [ -2274525.741599999368191, 1006412.03940000012517 ], [ -2259311.432799998670816, 999722.192800000309944 ], [ -2264973.744899999350309, 980991.542500000447035 ], [ -2267569.582314241211861, 982143.566568705602549 ], [ -2269910.8761, 976081.144400000572205 ], [ -2279989.722925949841738, 980757.850529793184251 ], [ -2281131.894099999219179, 977953.914299998432398 ], [ -2281474.98442890169099, 978101.744097623392008 ], [ -2281789.011700000613928, 977056.310300000011921 ], [ -2283519.047782760579139, 977818.200543877086602 ], [ -2287464.441199999302626, 970483.787599999457598 ], [ -2287699.68153024604544, 970585.489999242243357 ], [ -2288565.344500001519918, 968558.032499998807907 ], [ -2289440.12572928564623, 968925.315590943675488 ], [ -2294628.014499999582767, 954914.452599998563528 ], [ -2297091.729010089300573, 955900.909984281170182 ], [ -2299860.861999999731779, 946475.784600000828505 ], [ -2310150.458841271232814, 950776.9837101388257 ], [ -2315085.036200001835823, 936412.111400000751019 ], [ -2317799.794810428284109, 937502.890622861334123 ], [ -2323179.989, 923736.385000001639128 ], [ -2324202.686869205906987, 924154.036026698886417 ], [ -2324481.810100000351667, 923473.30180000141263 ], [ -2339310.851300001144409, 929353.598400000482798 ], [ -2333398.143275050912052, 942704.76506584812887 ], [ -2332384.970066418871284, 945299.538550043012947 ], [ -2336665.246638549957424, 947169.167003346956335 ], [ -2338129.5337999984622, 942920.074599999934435 ], [ -2339383.218805369455367, 943443.858108455198817 ], [ -2343386.22520000115037, 933803.401999998837709 ], [ -2348012.854011570569128, 935713.592726487899199 ], [ -2348733.334120154380798, 933898.438244620105252 ], [ -2348266.445300001651049, 933712.5777000002563 ], [ -2348298.640893555711955, 933619.056188463815488 ], [ -2347531.08669999986887, 933309.670499999076128 ], [ -2347959.483912985306233, 932247.830026211217046 ], [ -2347733.4474, 932161.247600000351667 ], [ -2353532.72069999948144, 911826.750700000673532 ], [ -2356517.349754583556205, 913019.195198078174144 ], [ -2358998.306244031526148, 906961.319732387899421 ], [ -2349654.458299998193979, 903426.248199999332428 ], [ -2356191.10869999974966, 886288.641199998557568 ], [ -2375253.414900001138449, 893501.185199998319149 ], [ -2373281.227100534830242, 898562.419033602112904 ], [ -2378767.870975227560848, 900569.33295661280863 ], [ -2378793.451099999248981, 900468.535599999129772 ], [ -2381161.27590150013566, 901444.796678997809067 ], [ -2381773.624800000339746, 901668.782699998468161 ], [ -2381767.075158999767154, 901694.569481617421843 ], [ -2393305.822500001639128, 906452.0287000015378 ], [ -2391005.726622389629483, 915374.186093941912986 ], [ -2395130.515000000596046, 916912.006499998271465 ], [ -2394740.91920462064445, 917948.060921316966414 ] ], [ [ -2306946.339996353723109, 970348.555548495030962 ], [ -2306720.850097586866468, 970254.249667016905732 ], [ -2305035.463960545603186, 974742.208882623002864 ], [ -2306946.339996353723109, 970348.555548495030962 ] ], [ [ -2324581.140085511375219, 956680.63839796371758 ], [ -2325218.327478610910475, 956940.805487310746685 ], [ -2325960.197013720870018, 952664.750238234060816 ], [ -2324581.140085511375219, 956680.63839796371758 ] ] ], [ [ [ -2381708.430599998682737, 1047948.638099998235703 ], [ -2396346.313299998641014, 1055238.956799998879433 ], [ -2395426.302298674825579, 1057298.867437690729275 ], [ -2398938.679299999028444, 1058859.055100001394749 ], [ -2395737.256155711598694, 1065481.90424307435751 ], [ -2400185.961899999529123, 1067425.3202 ], [ -2391982.289500001817942, 1084246.079 ], [ -2389090.445556261111051, 1082932.154005841817707 ], [ -2382273.363600000739098, 1096436.754000000655651 ], [ -2375023.601778305601329, 1093158.193803439382464 ], [ -2369812.72268277965486, 1103980.276235063327476 ], [ -2378590.264499999582767, 1108160.707400001585484 ], [ -2370338.098600000143051, 1124302.165500000119209 ], [ -2355448.383896671235561, 1117366.095362186431885 ], [ -2355430.582100000232458, 1117401.0760000012815 ], [ -2340609.099487299565226, 1110464.431106814183295 ], [ -2340608.736900001764297, 1110465.151399999856949 ], [ -2322392.567400000989437, 1101948.657200001180172 ], [ -2322395.269559070467949, 1101943.208248383831233 ], [ -2310990.767357833217829, 1096594.852869629627094 ], [ -2310989.207100000232458, 1096598.032400000840425 ], [ -2293483.391481035389006, 1088429.278645866550505 ], [ -2288007.03999999910593, 1098531.070000000298023 ], [ -2281155.87950000166893, 1095280.963599998503923 ], [ -2281162.846308507956564, 1095268.356050997273996 ], [ -2277274.409208174794912, 1093406.951672908384353 ], [ -2276279.247879247181118, 1095599.997420181985945 ], [ -2281911.122699998319149, 1098409.525499999523163 ], [ -2281910.964231505990028, 1098409.843615182908252 ], [ -2295601.152413699310273, 1105223.763592226430774 ], [ -2307923.899714411702007, 1111325.616395683027804 ], [ -2307924.419799998402596, 1111324.570999998599291 ], [ -2322593.914167063310742, 1118587.390953610185534 ], [ -2322594.05970000103116, 1118587.097699999809265 ], [ -2323615.689271919894964, 1119092.998776569729671 ], [ -2326993.761399999260902, 1110632.718899998813868 ], [ -2342494.742899999022484, 1117852.949099998921156 ], [ -2342494.590710860211402, 1117853.350120939780027 ], [ -2352330.468660700600594, 1122420.954012041678652 ], [ -2352331.7652000002563, 1122417.395300000905991 ], [ -2369126.083999998867512, 1130136.856699999421835 ], [ -2365789.262289461214095, 1139989.631940511288121 ], [ -2370207.43019999936223, 1142183.249600000679493 ], [ -2362545.920400001108646, 1157853.798700001090765 ], [ -2346148.481137988623232, 1149582.767778970999643 ], [ -2329653.800500001758337, 1141311.042599998414516 ], [ -2329654.347919415682554, 1141309.93492894503288 ], [ -2317977.607303958386183, 1135472.433014987735078 ], [ -2302089.227898537181318, 1127547.727719629649073 ], [ -2286987.410977569874376, 1120033.751812640577555 ], [ -2270978.912500001490116, 1112074.306099999696016 ], [ -2270979.541948058642447, 1112073.041620768373832 ], [ -2256842.918400000780821, 1105039.486099999397993 ], [ -2257207.161809924524277, 1104308.2702962604817 ], [ -2253246.593899998813868, 1102454.089899998158216 ], [ -2259016.932693521026522, 1090031.111813840456307 ], [ -2258091.13453475618735, 1089583.003279731143266 ], [ -2257438.277800001204014, 1089269.262200001627207 ], [ -2257439.253572877496481, 1089267.477244735462591 ], [ -2242541.773600000888109, 1082056.73930000141263 ], [ -2251317.70549999922514, 1066043.069600000977516 ], [ -2255065.646746352314949, 1067871.070798365166411 ], [ -2260160.03747588628903, 1056480.770528377266601 ], [ -2255884.420660519972444, 1054493.85453884745948 ], [ -2251408.247499998658895, 1062726.187100000679493 ], [ -2236640.098900001496077, 1055795.4934 ], [ -2240969.197155073285103, 1047869.905371512635611 ], [ -2235303.839800000190735, 1045320.567400000989437 ], [ -2242539.000500001013279, 1027379.082699999213219 ], [ -2256422.025783497374505, 1033827.229717459529638 ], [ -2256424.784400001168251, 1033820.816799998283386 ], [ -2257719.219981729984283, 1034429.728000765666366 ], [ -2259826.007800001651049, 1035408.252300001680851 ], [ -2259821.483702537603676, 1035418.646989578264765 ], [ -2273508.84569999948144, 1041857.274099998176098 ], [ -2273506.676053182221949, 1041861.973863828810863 ], [ -2283748.971485895104706, 1046688.866635873098858 ], [ -2283750.85530000180006, 1046684.943900000303984 ], [ -2285465.713758997619152, 1047497.916806700406596 ], [ -2287104.642400000244379, 1048270.295699998736382 ], [ -2287102.825230981688946, 1048274.031747843022458 ], [ -2300656.605799999088049, 1054699.551199998706579 ], [ -2292368.25899999961257, 1071004.42960000038147 ], [ -2288823.193487155716866, 1069386.220303503563628 ], [ -2285132.814263248350471, 1076551.061847181525081 ], [ -2290190.745857658796012, 1078930.935382301453501 ], [ -2290208.663199998438358, 1078898.511100001633167 ], [ -2293142.658636880572885, 1080319.878465085756034 ], [ -2293640.819400001317263, 1080554.274599999189377 ], [ -2293637.817860272247344, 1080559.75721602095291 ], [ -2295825.826476986054331, 1081619.732975773746148 ], [ -2300161.6845071031712, 1072638.282070393674076 ], [ -2300032.503199998289347, 1072579.541499998420477 ], [ -2307153.236299999058247, 1055083.517700001597404 ], [ -2315082.028063538949937, 1058818.344727809540927 ], [ -2318784.461458998266608, 1051112.398817049339414 ], [ -2309601.587099999189377, 1046971.810199998319149 ], [ -2317261.542500000447035, 1031125.125100001692772 ], [ -2324138.104639625642449, 1034144.554815483395942 ], [ -2327636.966299999505281, 1026963.24100000038743 ], [ -2342113.827993974089622, 1033468.84037132980302 ], [ -2350258.153463968075812, 1037119.079775148886256 ], [ -2350258.432700000703335, 1037118.504999998956919 ], [ -2365181.5077, 1043806.607900001108646 ], [ -2365181.165631928946823, 1043807.313354353536852 ], [ -2373759.934605792164803, 1047648.280855784425512 ], [ -2380474.417106109205633, 1050638.513557744445279 ], [ -2381708.430599998682737, 1047948.638099998235703 ] ] ], [ [ [ -2232127.488499999046326, 1252238.540399998426437 ], [ -2234305.883723643608391, 1253464.671299768611789 ], [ -2234899.423000000417233, 1251961.829300001263618 ], [ -2236961.903479448519647, 1253123.356507911114022 ], [ -2237336.230535057839006, 1252365.885878002271056 ], [ -2233286.297600001096725, 1250098.952799998223782 ], [ -2242424.7027000002563, 1234785.261399999260902 ], [ -2247939.041923866141587, 1237888.847390815382823 ], [ -2252304.463799998164177, 1229927.572599999606609 ], [ -2268591.014800000935793, 1238938.024900000542402 ], [ -2268590.996955439448357, 1238938.057260416215286 ], [ -2278371.412058282177895, 1244346.488345001358539 ], [ -2278372.311200000345707, 1244344.861999999731779 ], [ -2281334.04354090616107, 1245984.781611115904525 ], [ -2281606.122999999672174, 1246135.237700000405312 ], [ -2281606.040377914439887, 1246135.38703248067759 ], [ -2291376.15800543082878, 1251545.128918669652194 ], [ -2291376.495000001043081, 1251544.520899999886751 ], [ -2297378.069635208696127, 1254868.909059291239828 ], [ -2302639.172600001096725, 1242385.473700001835823 ], [ -2308889.516697995830327, 1245737.052786183776334 ], [ -2315634.18129999935627, 1230427.981899999082088 ], [ -2328341.603700000792742, 1237347.914599999785423 ], [ -2320878.315999999642372, 1254434.317699998617172 ], [ -2319811.906785133294761, 1253868.980522982543334 ], [ -2319501.174221222288907, 1254596.133518367540091 ], [ -2330840.00450000166893, 1260860.243999999016523 ], [ -2327936.922739118337631, 1266963.968831415753812 ], [ -2330531.565499998629093, 1268372.275499999523163 ], [ -2330323.602614284027368, 1268875.820911848219112 ], [ -2331384.424800001084805, 1269474.537500001490116 ], [ -2327884.839055631309748, 1275409.712009313749149 ], [ -2331255.943599998950958, 1277219.416900001466274 ], [ -2322823.223700001835823, 1292785.517000000923872 ], [ -2322233.590136819519103, 1292450.715937349013984 ], [ -2320957.397399999201298, 1296347.195099998265505 ], [ -2317737.015201017260551, 1294552.628733766032383 ], [ -2317387.291000001132488, 1295256.654800001531839 ], [ -2315714.454615770373493, 1294321.282295978395268 ], [ -2315344.988899998366833, 1295019.566300000995398 ], [ -2314978.062362279742956, 1294820.132163890870288 ], [ -2314428.44370000064373, 1295732.407499998807907 ], [ -2311764.911938559729606, 1294253.978998926933855 ], [ -2309974.781800001859665, 1298374.903400000184774 ], [ -2304144.461029145400971, 1295123.036203260300681 ], [ -2296034.128499999642372, 1308897.356100000441074 ], [ -2293957.857132982928306, 1307701.108031930867583 ], [ -2293754.337600000202656, 1308023.846000000834465 ], [ -2286523.063530346378684, 1303856.061130659887567 ], [ -2285990.765099998563528, 1305164.441500000655651 ], [ -2284056.01163228880614, 1304071.427670110249892 ], [ -2278858.340088631026447, 1314842.324064560933039 ], [ -2279803.452159697655588, 1315392.472047289600596 ], [ -2279803.723299998790026, 1315391.817200001329184 ], [ -2284960.329500000923872, 1318385.7993 ], [ -2284610.557657581754029, 1319228.422794349025935 ], [ -2284672.790199998766184, 1319264.591600000858307 ], [ -2284384.605508480686694, 1319772.756460872944444 ], [ -2280754.042140735313296, 1328519.023656724719331 ], [ -2291968.5016999989748, 1335273.876600001007318 ], [ -2289006.569548230618238, 1341020.397168199764565 ], [ -2290573.241500001400709, 1341952.526900000870228 ], [ -2281098.807500001043081, 1357673.651700001209974 ], [ -2267762.875111677218229, 1349757.292903343215585 ], [ -2267555.712402981240302, 1350053.028782931622118 ], [ -2264128.827348116319627, 1357115.303057740675285 ], [ -2265528.307100001722574, 1357958.753400001674891 ], [ -2265376.214012411888689, 1358172.455138043500483 ], [ -2272415.490800000727177, 1362456.49100000038743 ], [ -2263152.267092505004257, 1378683.617317102383822 ], [ -2271945.521099999547005, 1384058.23369999974966 ], [ -2271268.00636939285323, 1385495.351361056789756 ], [ -2272605.074499998241663, 1386314.2335 ], [ -2270974.034241378307343, 1388642.85050427634269 ], [ -2273920.938700001686811, 1390459.911499999463558 ], [ -2273104.672120080329478, 1392277.043226978275925 ], [ -2274815.44679131731391, 1393387.464901950210333 ], [ -2268197.940982194617391, 1403994.276721194619313 ], [ -2268201.345300000160933, 1403996.544199999421835 ], [ -2267614.759496944956481, 1404929.024109248770401 ], [ -2266923.910146975889802, 1406036.346000900026411 ], [ -2264971.85190000012517, 1410381.920299999415874 ], [ -2264406.308709426317364, 1410029.41331675183028 ], [ -2261364.622720102313906, 1414864.700943076517433 ], [ -2269588.250999998301268, 1420150.173599999397993 ], [ -2266789.857121125329286, 1424824.573339045280591 ], [ -2269573.707600001245737, 1426568.614700000733137 ], [ -2268829.733983318787068, 1427798.637497678864747 ], [ -2274998.142000000923872, 1431783.9206000007689 ], [ -2271542.405009476933628, 1437205.318663767771795 ], [ -2274525.346099998801947, 1439125.644299998879433 ], [ -2262917.308899998664856, 1455022.003100000321865 ], [ -2260464.603361428715289, 1453455.020070573315024 ], [ -2259460.337686971761286, 1454690.604100208031014 ], [ -2261862.096599999815226, 1456261.991700001060963 ], [ -2260858.927677111234516, 1457795.075133700622246 ], [ -2261827.3596, 1458420.509399998933077 ], [ -2259700.451299998909235, 1461558.164000000804663 ], [ -2258338.330000072717667, 1460703.008235822897404 ], [ -2249963.447500001639128, 1472948.283300001174212 ], [ -2247819.481264501344413, 1471525.48573436262086 ], [ -2244948.163600001484156, 1475290.5099 ], [ -2228507.335099998861551, 1464347.213199999183416 ], [ -2231175.229285226669163, 1460905.671245623845607 ], [ -2220121.58390000090003, 1453783.288699999451637 ], [ -2220300.952874354086816, 1453512.182150702923536 ], [ -2219200.895199999213219, 1452793.717599999159575 ], [ -2229406.393300000578165, 1437483.686999998986721 ], [ -2230456.889957097824663, 1438162.028636672301218 ], [ -2231586.314300000667572, 1436454.964400000870228 ], [ -2235372.920262209139764, 1438932.11068858881481 ], [ -2236166.448184955865145, 1437939.921273636864498 ], [ -2228379.067099999636412, 1432982.265900000929832 ], [ -2228936.306200001388788, 1432167.482200000435114 ], [ -2231633.130899999290705, 1433882.044300001114607 ], [ -2234557.637699998915195, 1429635.346500001847744 ], [ -2237764.08839999884367, 1431681.158500000834465 ], [ -2237823.783539103809744, 1431586.24145216611214 ], [ -2232318.927440135739744, 1428075.055153729161248 ], [ -2221028.397199999541044, 1420891.512699998915195 ], [ -2229266.082318245898932, 1408238.504013326950371 ], [ -2221890.644200000911951, 1403608.627000000327826 ], [ -2227916.458510826341808, 1394427.552592533640563 ], [ -2216764.612199999392033, 1387468.005399998277426 ], [ -2225527.333159019239247, 1373490.53683446906507 ], [ -2216339.448300000280142, 1367844.586100000888109 ], [ -2224645.021969450172037, 1354995.571122003253549 ], [ -2224289.746599998325109, 1354780.075199998915195 ], [ -2225595.539497618097812, 1352859.850161908660084 ], [ -2221218.88289999961853, 1350149.565699998289347 ], [ -2225624.948458899278194, 1342057.303661809535697 ], [ -2224068.730599999427795, 1341121.621500000357628 ], [ -2224068.756991740316153, 1341121.565931081306189 ], [ -2213493.388099998235703, 1334765.22749999910593 ], [ -2220600.234846033155918, 1319703.668399655958638 ], [ -2211724.561000000685453, 1314427.26410000026226 ], [ -2219566.149652807973325, 1302227.028144414536655 ], [ -2224385.333187294658273, 1292342.830156212905422 ], [ -2226804.214526310097426, 1286380.472942203748971 ], [ -2222187.714200001209974, 1283730.721599999815226 ], [ -2227743.134794500656426, 1272192.614744642749429 ], [ -2227062.013300001621246, 1271806.158900000154972 ], [ -2227749.712581843137741, 1270064.903690452687442 ], [ -2222827.406500000506639, 1267235.8059 ], [ -2232127.488499999046326, 1252238.540399998426437 ] ], [ [ -2245145.315261315088719, 1345683.499569893348962 ], [ -2246329.768039101734757, 1346396.283738422906026 ], [ -2248229.55519999936223, 1344043.04109999909997 ], [ -2247045.422604378778487, 1343337.154494571266696 ], [ -2247045.422600001096725, 1343337.154500000178814 ], [ -2243765.6706000007689, 1341382.024599999189377 ], [ -2243533.950747333467007, 1341670.273103550309315 ], [ -2246386.88459999859333, 1343370.247000001370907 ], [ -2245145.315261315088719, 1345683.499569893348962 ] ] ], [ [ [ -2257428.11430000141263, 1464910.357599999755621 ], [ -2251386.435100000351667, 1473823.154800001531839 ], [ -2250895.828200001269579, 1473502.433499999344349 ], [ -2257428.11430000141263, 1464910.357599999755621 ] ] ] ] } }
]
}
